,PEAKID,PKNAME,PKNAME2,LOCATION,HEIGHTM,HEIGHTF,HIMAL,REGION,OPEN,UNLISTED,TREKKING,TREKYEAR,RESTRICT,PHOST,PSTATUS,PEAKMEMO,PYEAR,PSEASON,PEXPID,PSMTDATE,PCOUNTRY,PSUMMITERS,PSMTNOTE,REFERMEMO,PHOTOMEMO,firstsummitdate,Unnamed: 0,accuracy,formatted_address,google_place_id,latitude,longitude,number_of_results,postcode,status,type
0,AMAD,Ama Dablam,Amai Dablang,Khumbu Himal,6814,22356,12,2,True,False,False,,,1,2,,1961,1,AMAD61101,Mar 13,"New Zealand, USA, UK","Mike Gill, Wally Romanes, Barry Bishop, Michael Ward",,,,Mar 13 1961,0,APPROXIMATE,"Ama Dablam, Khumjung 56000, Nepal",ChIJPSR3_fQA6TkRCwmkOk-rmqE,27.8618748,86.8611631,1,56000,OK,"establishment,natural_feature"
1,AMPG,Amphu Gyabjen,,Khumbu Himal (N of Ama Dablam),5630,18471,12,2,True,False,False,,Opened in 2002,1,2,,1953,1,AMPG53101,Apr 11,UK,"John Hunt, Tom Bourdillon",,,,Apr 11 1953,1,,,,27.878611,86.871389,0,,ZERO_RESULTS,
2,ANN1,Annapurna I,,Annapurna Himal,8091,26545,1,5,True,False,False,,,1,2,,1950,1,ANN150101,Jun 03,France,"Maurice Herzog, Louis Lachenal",,,,Jun 03 1950,2,APPROXIMATE,"Annapurna, Narchyang, Nepal",ChIJ94QfBUQcvjkR-zkLX9K-HJQ,28.596111,83.820278,1,,OK,"establishment,natural_feature"
3,ANN2,Annapurna II,,Annapurna Himal,7937,26040,1,5,True,False,False,,,1,2,,1960,1,ANN260101,May 17,"UK, Nepal","Richard Grant, Chris Bonington, Ang Nyima Sherpa",,,,May 17 1960,3,APPROXIMATE,"Annapurna II, Pisang 33500, Nepal",ChIJ_RjyDu6HlTkR57RJ_hTlGtA,28.535,84.1224999,1,33500,OK,"establishment,natural_feature"
4,ANN3,Annapurna III,,Annapurna Himal,7555,24787,1,5,True,False,False,,,1,2,,1961,1,ANN361101,May 06,India,"Mohan S. Kohli, Sonam Gyatso, Sonam Girmi",,,,May 06 1961,4,APPROXIMATE,"Annapurna III, Machhapuchchhre 33700, Nepal",ChIJaRhQjuEgvjkRncMG76M7Y1M,28.585,83.9908333,1,33700,OK,"establishment,natural_feature"
5,ANN4,Annapurna IV,,Annapurna Himal,7525,24688,1,5,True,False,False,,,1,2,,1955,1,ANN455101,May 30,W Germany,"Heinz Steinmetz, Harald Biller, Juergen Wellenkamp",,,,May 30 1955,5,APPROXIMATE,"Annapurna, Narchyang, Nepal",ChIJ94QfBUQcvjkR-zkLX9K-HJQ,28.596111,83.820278,1,,OK,"establishment,natural_feature"
6,ANNE,Annapurna I East Smt,,Annapurna Himal (ENE of Annapurna I),8026,26332,1,5,True,False,False,,Requires permit for Annapurna I,1,2,,1974,1,ANNE74101,Apr 29,Spain,"Jose Manuel Anglada Nieto, Jorge Pons Sangines, Emilio Givis Abad",,,,Apr 29 1974,6,ROOFTOP,"119 Park Ave, Summit, NJ 07901, USA",ChIJ94Rt2U6uw4kRQMwSee8guMk,28.597,83.833,2,07901,OK,"establishment,gym,health,point_of_interest"
7,ANNM,Annapurna I Middle Smt,,Annapurna Himal (ENE of Annapurna I),8051,26414,1,5,True,False,False,,Requires permit for Annapurna I,1,2,,1980,3,ANNM80301,Oct 03,W Germany,"Udo Boening, Ludwig Greissl, Heinz Oberrauch",,,,Oct 03 1980,7,,,,28.596,83.827,0,,ZERO_RESULTS,
8,ANNS,Annapurna South,"Annapurna Dakshin, Moditse",Annapurna Himal (S of Annapurna I and Fang),7219,23684,1,5,True,False,False,,,1,2,,1964,3,ANNS64301,Oct 15,"Japan, Nepal","Shiochiro Uyeo, Mingma Tsering Sherpa",,,,Oct 15 1964,8,APPROXIMATE,"Annapurna Dakshin, Ghandruk 33700, Nepal",ChIJFSxT2zL2lTkR6_cz4PlfALk,28.5183333,83.8058333,1,33700,OK,"establishment,natural_feature"
9,APIM,Api Main,,Api Himal,7132,23399,2,7,True,False,False,,,1,2,,1960,1,APIM60101,May 10,"Japan, Nepal","Katsutoshi Hirabayashi, Gyaltsen Norbu Sherpa",1st ascent claimed by UK (H. S. Landor) in 1899 but probably reached only 5000m,,,May 10 1960,9,ROOFTOP,"1108 E Main St, Clarion, PA 16214, USA",ChIJZZG2M8jMzIkR3nSzkNd0UQo,30.004167,80.933333,2,16214,OK,"car_repair,establishment,point_of_interest,store"
10,APIW,Api West,,Api Himal (W of Api),7076,23215,2,7,True,False,False,,,1,1,,0,0,,,,Unclimbed,,,,,10,ROOFTOP,"2933 W Prospect Rd, Ashtabula, OH 44004, USA",ChIJo0mI_SAgMogRU2Mwl9JEwZs,30.0,80.932222,1,44004,OK,"car_repair,establishment,point_of_interest,store"
11,BARU,Baruntse,,Khumbu Himal (W of Makalu),7152,23465,12,2,True,False,False,,,1,2,,1954,1,BARU54101,May 29,New Zealand,"Colin Todd, Geoff Harrow",,,,May 29 1954,11,APPROXIMATE,"Baruntse, 56000, Nepal",ChIJCZMmL0v_6DkRIklSh6sXSb0,27.8719444,86.9819444,1,56000,OK,"establishment,natural_feature"
12,BAUD,Baudha,,Mansiri Himal (SE of Manaslu and Himalchuli),6672,21890,15,4,True,False,False,,,1,2,,1970,1,BAUD70101,May 02,Japan,"Yoshiyuki Kobayashi, Kiyoyasu Shibata",,,,May 02 1970,12,ROOFTOP,"Buddha Stupa, Sundhara Marg, Kathmandu 44600, Nepal",ChIJlSglTdob6zkRS-ibXx3xM9w,28.378611,84.677222,1,44600,OK,"art_gallery,establishment,point_of_interest"
13,BHEM,Bhemdang Ri,"Pemthang Ri, Morimoto",Jugal Himal (NNW of Dorje Lhakpa),6150,20177,8,3,True,False,False,,,1,2,,1964,1,BHEM64101,May 10,"Japan, Nepal","Tetsuya Kondo, Soshiro Sasaki, Mingma Tshering Sherpa",,,,May 10 1964,13,,,,28.273611,85.665556,0,,ZERO_RESULTS,
14,BHRI,Bhrikuti,Damodar Himal,Damodar Himal (NE of Thorong La near Tibetan border),6476,21247,3,5,True,False,False,,Opened in 2014,1,2,,1982,1,BHRI82101,May 18,"Japan, Nepal","Takashi Sakuma, Masanobu Tsuchiya, Tashi Jangbu Sherpa",1-3rd ascents claimed,,,May 18 1982,14,,,,28.918889,84.1475,0,,ZERO_RESULTS,
15,BOBA,Bobaye,,Api Himal (S of Nampa),6808,22336,2,7,True,False,False,,,1,2,,1996,3,BOBA96301,Nov 02,Slovenia,Tomaz Humar,,,,Nov 02 1996,15,APPROXIMATE,"Bobaye, Central African Republic",ChIJZfJQz5H6whARZoFDHWvPmtA,29.958321,81.021302,1,,OK,"locality,political"
16,CHAM,Chamlang,,"Khumbu Himal (in Hongku Valley, SW of Makalu)",7321,24019,12,2,True,False,False,,,1,2,,1962,1,CHAM62101,May 31,"Japan, Nepal","So Anma, Pasang Phutar Sherpa (I)",,,,May 31 1962,16,APPROXIMATE,"Chamlang, 56900, Nepal",ChIJaaBXMfb76DkRGF8zsd4IC-E,27.775,86.9791666,1,56900,OK,"establishment,natural_feature"
17,CHAN,Changla,Changla Himal,Changla Himal (N of Jumla on Tibetan border),6563,21532,17,7,True,False,False,,,4,2,,2010,3,CHAN10301,Sep 27,Japan,"Hirofumi Kobayashi, Seiya Nakasukasa, Yuta Shibayama, Naoki Yamaguchi",Climbed illegally by Sean Burch in October 2016?,,,Sep 27 2010,17,APPROXIMATE,"Chang La Pass, 194201",ChIJA5wgUYAH_jgRXAgdlT4W_e8,30.303056,82.128889,1,194201,OK,"establishment,natural_feature"
18,CHMN,Chamar North,Peak 23,Shringi Himal,7165,23507,5,4,True,False,False,,Opened in 2014,1,2,,1953,1,CHMN53101,Jun 05,"New Zealand, Nepal","Maurice Bishop, Nyamgel Sherpa",,,,Jun 05 1953,18,GEOMETRIC_CENTER,"Chamar Cir, Kannapolis, NC 28081, USA",ChIJYzk6HSwEVIgRYT9A_V3TNWE,28.555278,84.945278,1,28081,OK,route
19,CHEO,Cheo Himal,,Peri Himal (ESE of Himlung Himal on Tibetan border),6820,22375,18,5,True,False,False,,,4,2,,1991,3,CHEO91301,Oct 13,"Japan, Nepal","Dambar Bahadur Gurung, Shigeki Imoto, Ful Bahadur Rai, Pasang Tshering Sherpa",,,,Oct 13 1991,19,,,,28.764444,84.451667,0,,ZERO_RESULTS,
20,CHOY,Cho Oyu,,Khumbu Himal (NW of Everest on Tibetan border),8188,26864,12,2,True,False,False,,,4,2,,1954,3,CHOY54301,Oct 19,"Austria, Nepal","Herbert Tichy, Sepp Jeochler, Pasang Dawa Lama",,,,Oct 19 1954,20,APPROXIMATE,Cho Oyu,ChIJF7M9Rpe86TkRzw_BkfEukiQ,28.0972891,86.658475,1,,OK,"establishment,natural_feature"
21,CHOB,Chobuje,"Chobutse, Tsoboje",Rolwaling Himal (NE of Tsho Rolpa),6686,21936,19,2,True,False,False,,,1,2,,1972,1,CHOB72101,Apr 24,W Germany,"Wolfgang Weinzierl, Peter Vogler, Gustav Harder, Klaus Harder",Illegal ascent,,,Apr 24 1972,21,,,,27.880556,86.4925,0,,ZERO_RESULTS,
22,CHOL,Cholatse,"Tsolatse, Jobo Lhaptshan",Khumbu Himal (N of Tawoche),6423,21073,12,2,False,False,True,2002.0,Converted to trekking peak in 2002,1,2,,1982,1,CHOL82101,Apr 22,"USA, UK","John Roskelley, Galen Rowell, Vern Clevenger, Bill O'Connor",,,,Apr 22 1982,22,APPROXIMATE,"Cholatse, Khumjung 56000, Nepal",ChIJZ39YikOo6TkR4incCrJTg8c,27.885,86.771667,1,56000,OK,"establishment,natural_feature"
23,CHOP,Cho Polu,,"Khumbu Himal (S of Shartse, N of Baruntse)",6700,21982,12,2,True,False,False,,,1,2,,1984,3,CHOP84301,Nov,Spain,Nil Bohigas Martorell,"1st official ascent Nov 12, 1999 by Markus Walter, Guenter Jung, Olaf Rieck and Dieter Ruelker (Germans)",,,Nov 1984,23,APPROXIMATE,"Cho Polu, 56900, Nepal",ChIJi-ghZd9V6DkR5-rXZMVeoSc,27.919167,86.981944,1,56900,OK,"establishment,natural_feature"
24,CHUL,Chulu Central,Chulu East,Damodar Himal (E of Thorong La),6584,21601,3,5,False,False,True,1978.0,,1,2,,1955,1,CHUL55201,Jul 23,W Germany,"Heinz Steinmetz, Harald Biller, Fritz Lobbichler, Juergen Wellenkamp",,,,Jul 23 1955,24,APPROXIMATE,"Chulu, Malawi",ChIJF-abmS67HhkRBmWTWG5a6pk,28.74138889,84.02805556,1,,OK,"locality,political"
25,CHUG,Chukyima Go,Chugimago,Rolwaling Himal (WSW of Tesi Laptsa),6258,20531,19,2,True,False,False,,Opened in 2014,1,2,,2014,3,CHUG14301,Nov 12,Slovenia,"Domen Kastelic, Sam Hennessey","Originally thought that 1952 Scottish expedition climbed this peak, but likely Peak 5794m instead",,,Nov 12 2014,25,,,,27.832433,86.450005,0,,ZERO_RESULTS,
26,CHUR,Churen Himal Central,,Dhaulagiri Himal (NW of Dhaulagiri VI),7385,24229,4,6,True,False,False,,One permit for Churen Himal's three summits,1,2,,1970,3,CHUR70301,Oct 24,Japan,"Masayoshi Fukui, Kozo Hasegawa",,,,Oct 24 1970,26,,,,28.735,83.216,0,,ZERO_RESULTS,
27,CHUW,Chulu West,,Damodar Himal (E of Thorong La),6419,21060,3,5,False,False,True,1978.0,,1,2,,1952,3,CHUW52301,Oct 23,Japan,"Kinji Imanishi, Kazuhiko Hayashi, Sasuke Nakao, Jiro Taguchi, Masataka Takagi, Sakuta Takebushi",,,,Oct 23 1952,27,APPROXIMATE,"Chulu East, Tanki Manang 33500, Nepal",ChIJd-pCFEk7vjkRq2Cuup82ugw,28.7358333,84.0341666,1,33500,OK,"establishment,natural_feature"
28,TAPL,Taple Shikhar,Cross Peak,Kangchenjunga Himal (W of Nepal Peak),6447,21152,9,1,True,False,False,,Opened in 2002,1,2,,1998,3,TAPL98301,Oct 08,"Japan, Nepal","Misako Miyazawa, Gumba Sherpa, Kancha Sunwar Sherpa, Pemba Lama Sherpa",,,,Oct 08 1998,28,GEOMETRIC_CENTER,"Gajhandi Rd, Gujhandi, Jharkhand 825409, India",ChIJtYHNYgkN8zkR26IIXTVLwjQ,27.750833,88.15,2,825409,OK,"establishment,hindu_temple,place_of_worship,point_of_interest"
29,CTSE,Changtse,Everest North Peak,Khumbu Himal,7583,24879,12,2,False,True,False,,Peak entirely within China,2,2,,1982,1,CTSE82301,Oct 14,W Germany,Udo Zehetleitner,,,,Oct 14 1982,29,APPROXIMATE,"Changtse, Tingri, Xigaze, China",ChIJO5bOOilT6DkRMiTKQztToAE,28.0258333,86.9091666,1,,OK,"establishment,natural_feature"
30,DHA1,Dhaulagiri I,,Dhaulagiri Himal,8167,26795,4,6,True,False,False,,,1,2,,1960,1,DHA160101,May 13,"Switzerland, Austria, W Germany, Nepal","Peter Diener, Kurt Diemberger, Albin Schelbert, Ernst Forrer, Nima Dorje Sherpa, Nawang Dorje Sherpa",,,,May 13 1960,30,APPROXIMATE,"Dhaulagiri I, Mudi 33200, Nepal",ChIJdW02ZE77vTkRFYPLewLO5pQ,28.6966666,83.4941666,1,33200,OK,"establishment,natural_feature"
31,DHA2,Dhaulagiri II,,Dhaulagiri Himal (NW of Dhaulagiri I),7751,25430,4,6,True,False,False,,,1,2,,1971,1,DHA271101,May 18,"Austria, USA, Nepal","Adolf Huber, Ronald Fear, Adi Weissensteiner, Jangbu Sherpa",,,,May 18 1971,31,APPROXIMATE,"Dhaulagiri II, Mudi 21400, Nepal",ChIJ82xF6xnvvTkRzloT5ZyXMuo,28.7633333,83.3883333,2,21400,OK,"establishment,natural_feature"
32,DHA3,Dhaulagiri III,"Nalu, Naula",Dhaulagiri Himal (SW of Dhaulagiri II),7715,25312,4,6,True,False,False,,,1,2,,1973,3,DHA373301,Oct 20,W Germany,"Klaus Schreckenbach, Gerhard Haberl, Hans Saler",,,,Oct 20 1973,32,GEOMETRIC_CENTER,"Cumbre Dhaulagiri, León, Gto., Mexico",ChIJ17pSebfBK4QRjORu_J0cOjc,28.754444,83.379444,1,,OK,route
33,DHA4,Dhaulagiri IV,,Dhaulagiri Himal (W of Dhaulagiri V),7661,25135,4,6,True,False,False,,,1,2,,1975,1,DHA475101,May 09,Japan,"Shiro Kawazu, Etsuro Yasuda",1st ascent claimed (summmiters died in fall on descent),,,May 09 1975,33,GEOMETRIC_CENTER,"Anand Vihar, Kaushambi, Ghaziabad, Uttar Pradesh 201012, India",ChIJ1VbXKTD7DDkRodSjXQnzoGI,28.738611,83.315278,1,201012,OK,"establishment,point_of_interest,premise"
34,DHA5,Dhaulagiri V,,Dhaulagiri Himal (SW of Dhaulagiri III),7618,24993,4,6,True,False,False,,,1,2,,1975,1,DHA575101,May 01,"Japan, Nepal","Masaaki Morioka, Pemba Tsering Sherpa",,,,May 01 1975,34,APPROXIMATE,"Dhawalagiri, Nepal",ChIJycgVMoT9vTkRxZN_0MqjZzQ,28.734444,83.365556,1,,OK,"administrative_area_level_2,political"
35,DHA6,Dhaulagiri VI,,Dhaulagiri Himal (WSW of Dhaulagiri IV),7268,23845,4,6,True,False,False,,,1,2,,1970,1,DHA670101,Apr 17,Japan,"Shiro Kawazu, Shoichi Kimura, Hisazumi Nakamura, Seijiro Yamamura",,,,Apr 17 1970,35,GEOMETRIC_CENTER,"Narayan Ma Vi Galli, Kushma 33400, Nepal",ChIJSeDjxsrmlTkRdIcKABhhd2Q,28.708333,83.275278,2,33400,OK,route
36,DHAM,Dhampus,"Thapa Peak, Marpha Peak",Mukut Himal (NE of Dhaulagiri I and Tukuche),6012,19724,16,6,True,False,False,,,1,2,,1960,1,DHAM60101,Apr,Austria,Kurt Diemberger,Dhampus has two summits (the western summit is called Thapa),,,Apr 1960,36,APPROXIMATE,"Dhampus 33700, Nepal",ChIJDwHvD3rulTkRmxlVTIbRntk,28.798,83.605,1,33700,OK,"locality,political"
37,DOGA,Dogari,,Dhaulagiri Himal (WNW of Putha Hiunchuli),6536,21444,4,6,True,False,False,,Opened in 2003,1,1,,0,0,,,,Unclimbed,,,,,37,APPROXIMATE,"Dogari, Madhya Pradesh 486886, India",ChIJK6BrM2SriDkRoYRwMaLcGSo,28.767222,83.100833,3,486886,OK,"locality,political"
38,PEMK,Pemthang Karpo Ri,"Dome Blanc, Kan Karmo",Jugal Himal (NNW of Dorje Lhakpa on Tibetan border),6865,22523,8,3,True,False,False,,Opened in 2014,4,2,,1955,1,PEMK55101,May 14,"Switzerland, Nepal","Raymond Lambert, Ang Norbu Sherpa, Kami Tshering Sherpa, Pasang Sherpa, Pemba Gyaltzen Sherpa",,,,May 14 1955,38,,,,28.249167,85.750556,0,,ZERO_RESULTS,
39,DORJ,Dorje Lhakpa,,Jugal Himal (near Tibetan border),6966,22854,8,3,True,False,False,,,1,2,,1981,3,DORJ81301,Oct 18,"Japan, Nepal","Kunio Kataoka, Makoto Anbe, Kazunari Murakami, Eiichi Shingyoji, Pemba Tsering Sherpa",Rumored that two British climbers summited via the W Ridge in 1979 (Dick Isherwood and Geoff Cohen),,,Oct 18 1981,39,APPROXIMATE,"Dorje Lhakpa, Golche, Nepal",ChIJTS6H4zpD6jkR-RJhuNHKXR8,28.1741666,85.7791666,1,,OK,"establishment,natural_feature"
40,DRAN,Drangnag Ri,Thaknak Ri,Rolwaling Himal (N of Tesi Laptsa near Tibetan border),6757,22169,19,2,True,False,False,,,1,2,,1995,1,DRAN95101,Apr 30,"Norway, UK, Nepal","Chris Bonington, Ralph Hoibakk, Bjorn Myrer-Lund, Lhakpa Gyalu Sherpa, Pema Dorje Sherpa",,,,Apr 30 1995,40,GEOMETRIC_CENTER,"Gokyo Ri Marg, Khumjung 56000, Nepal",ChIJtXciCJOm6TkRN8P9zP-2654,27.9563128,86.6878836,1,56000,OK,route
41,DROM,Drohmo,"Domo, Longridge Peak",Jongsang Himal (NNW of Kangchenjunga),6881,22575,7,1,True,False,False,,Opened in 1997,1,1,,0,0,,,,Main summit unclimbed,,,,,41,APPROXIMATE,"Drohmo, Lelep 57500, Nepal",ChIJaafogBtU5jkRVb1d8BiBlSU,27.8241666,88.1024999,1,57500,OK,"establishment,natural_feature"
42,EVER,Everest,"Sagarmatha, Chomolungma, Qomolungma",Khumbu Himal,8850,29035,12,2,True,False,False,,,4,2,,1953,1,EVER53101,May 29,"New Zealand, India","Edmund Hillary, Tenzing Norgay Sherpa",,,,May 29 1953,42,APPROXIMATE,"Everest, KS 66424, USA",ChIJD9qR-M_Cv4cRLabaTHHjjns,27.988056,86.925278,1,66424,OK,"locality,political"
43,FANG,Fang,"Varaha Shikhar, Varaha Chuli, Finger",Annapurna Himal (SW of Annapurna I),7647,25089,1,5,True,False,False,,,1,2,,1980,1,FANG80101,May 17,"Austria, Nepal","Sepp Mayerl, Hermann Neumair, Ang Chepal Sherpa",,,,May 17 1980,43,ROOFTOP,"660 Howard St, San Francisco, CA 94105, USA",ChIJsfbADX2AhYARso30kEbG2yc,28.578131,83.80133,1,94105,OK,"bar,establishment,food,point_of_interest,restaurant"
44,FIRN,Firnkopf,Firnkopf East,Saipal Himal (W of Saipal),6730,22080,20,7,True,False,False,,,1,1,,0,0,,,,Unclimbed,,,,,44,,,,29.89306,81.43139,0,,ZERO_RESULTS,
45,FIRW,Firnkopf West,,Saipal Himal (WSW of Firnkopf),6745,22129,20,7,True,False,False,,,1,2,,1987,3,FIRW87301,Oct 25,"Austria, W Germany, Nepal","Franz Kroell, Fritz Mross, Ang Chopal Sherpa",Austrian Saipal expedition of 1954 may have reached Firnkopf West,,,Oct 25 1987,45,,,,29.883333,81.433333,0,,ZERO_RESULTS,
46,GAMA,Gama Peak,,"Dhaulagiri Himal (N of Dhaulagiri VI, S of Junction Peak)",7187,23579,4,6,False,True,False,,,1,2,,1970,3,GAMA70301,Oct 25,Japan,"Goro Nabeyama, Katsuhiro Nakashima",,,,Oct 25 1970,46,APPROXIMATE,"Gamma Peak, Washington 98241, USA",ChIJAzdRh3kmm1QRts5_bEeaEoo,28.716739, 83.277093,1,98241,OK,"establishment,natural_feature"
47,GAN1,Ganesh I,Yangra Kangri,Ganesh Himal (on Tibetan border),7422,24350,5,4,True,False,False,,,4,2,,1955,3,GAN155301,Oct 24,"Switzerland, France","Raymond Lambert, Eric Gauchat, Claude Kogan",,,,Oct 24 1955,47,ROOFTOP,"Ganesh Apartment, GF-16, Ring Rd, Khamla Square, Kotwal Nagar, Khamla, Nagpur, Maharashtra 440025, India",ChIJC5wfQIK_1DsRg-61skkk5PE,28.391526,85.127064,10,440025,OK,street_address
48,GAN3,Ganesh III,"Salasungo, Kang Lombo",Ganesh Himal (S of Ganesh I on Tibetan border),7043,23107,5,4,True,False,False,,,4,2,,1979,3,GAN379301,Oct 19,"Japan, Nepal","Hideo Ogura, Pemba Tshering Sherpa, Dawa Norbu Sherpa",Note: This mountain previously known as Ganesh II till re-surveyed in early 1990's.,,,Oct 19 1979,48,ROOFTOP,"Ganesh Building, Dr Baba Saheb Ambedkar Rd, Gautam Nagar, Dadar, Mumbai, Maharashtra 400014, India",ChIJ95b7it3O5zsRGdXItP7hlGo,28.335278,85.122,8,400014,OK,premise
49,GAN2,Ganesh II,,Ganesh Himal (WSW of Ganesh I),7118,23353,5,4,True,False,False,,,1,2,,1981,3,GAN281302,Oct 16,"W Germany, Nepal","Hermann Warth, Ang Chepal Sherpa, Nga Temba Sherpa, Nima Tenzing Sherpa",Note: This mountain previously known as Ganesh III till re-surveyed in early 1990's.,,,Oct 16 1981,49,APPROXIMATE,"Ganesh II, Kerauja, Nepal",ChIJZ4nQ08ix6jkRiTqbggedg2U,28.379,85.057,2,,OK,"establishment,natural_feature"
50,GAN4,Ganesh IV,Pabil,Ganesh Himal (SW of Ganesh I),7104,23307,5,4,True,False,False,,,1,2,,1978,3,GAN478301,Oct 20,"Japan, Nepal","T Tomita, H Yoshio, K Aoyagi, M Hashimoto, Y Hashimoto, Y Okuma, T Shimoji, T Suzuki, I Yasuda, Yogendra Thapa, Kamal Bhandari, Mingma Tenzing Sherpa, Sonan Wolang Sherpa",,,,Oct 20 1978,50,GEOMETRIC_CENTER,"Ganesh Pl, Durham, NC 27705, USA",ChIJZTXYhljnrIkRUWAlBT7SzRo,28.346,85.08,1,27705,OK,route
51,GAN5,Ganesh V,Lapsang Karbo,Ganesh Himal (SE of Ganesh I on Tibetan border),6770,22211,5,4,True,False,False,,,4,2,,1980,1,GAN580101,Apr 21,"Japan, Nepal","Tatsumi Sasaki, Akihiko Komori, Lhakpa Dorje Sherpa, Nima Tenzing Sherpa, Nima Nuru Sherpa",,,,Apr 21 1980,51,ROOFTOP,"5303 Harry Hines Blvd, Dallas, TX 75390, USA",ChIJpSuTIwOcToYREfOG5t7sc-Q,28.332,85.159,1,75390,OK,"doctor,establishment,health,point_of_interest"
52,GAN6,Ganesh VI,,Ganesh Himal (subpeak SE of Ganesh II),6908,22664,5,4,True,False,False,,Opened in 2002,1,2,,2000,1,GAN600101,May 23,Japan,"Osamu Tanabe, Yasuhiro Hanatani",Possibly climbed in 1981 by Japanese Ganesh II team led by Hiroyashu Shirakabe,,,May 23 2000,52,,,,28.371,85.062,0,,ZERO_RESULTS,
53,GANC,Ganchenpo,"Fluted Peak, Ganchempo",Jugal Himal (W of Dorje Lhakpa and Urkinmang),6378,20925,8,3,True,False,False,,,1,2,,1971,3,GANC71302,OctNov,USA,"Terry Bech, Cheri Bech",,,,OctNov 1971,53,,,,28.168889,85.681944,0,,ZERO_RESULTS,
54,GAND,Gandharva Chuli,"Gandharbha, Gabelhorn Peak",Annapurna Himal (SSW of Annapurna III near Machhapuchhare),6248,20499,1,5,True,False,False,,,1,2,,2013,1,GAND13101,May 06,Romania,"Cosmin Andron, Christina Pogacean",,,,May 06 2013,54,,,,28.53833,83.96,0,,ZERO_RESULTS,
55,GANG,Gangapurna,,Annapurna Himal (NW of Annapurna III),7455,24459,1,5,True,False,False,,,1,2,,1965,1,GANG65101,May 06,"W Germany, Nepal","Gunter Hauser, Ludwig Greissl, Hermann Kollensperger, Erich Reismueller, Ang Temba Sherpa, Phu Dorje Sherpa",,,,May 06 1965,55,APPROXIMATE,"Gangapurna, 33500, Nepal",ChIJ1zwrz7whvjkRL6G_qZCrPn4,28.605,83.9633333,1,33500,OK,"establishment,natural_feature"
56,GAUR,Gaurishankar,Jomo Tseringma,Rolwaling Himal (on Tibetan border),7135,23409,19,2,True,False,False,,,4,2,,1979,1,GAUR79101,May 08,"US, Nepal","John Roskelley, Dorje Sherpa",,,,May 08 1979,56,APPROXIMATE,"Gauri Sankar, 45500, Nepal",ChIJbW0Mj16B6TkRRntZizeuw0Q,27.95,86.3333333,1,45500,OK,"establishment,natural_feature"
57,GHUN,Ghustang North,,Dhaulagiri Himal (WNW of Gurja Himal),6529,21421,4,6,True,False,False,,Opened in 2003,1,2,,1962,3,GHUN62301,Oct 22,"UK, Nepal","J.O.M. Roberts, Ang Pema Sherpa, Nawang Dorje Sherpa",,,,Oct 22 1962,57,ROOFTOP,"10901 SW 15th St, Yukon, OK 73099, USA",ChIJKzCJRCcJsocRGGaNJmwCjTg,28.680556,83.247778,1,73099,OK,"establishment,point_of_interest,school"
58,GHUS,Ghustang South,,Dhaulagiri Himal (WSW of Gurja Himal),6465,21211,4,6,True,False,False,,Opened in 2003,1,1,,0,0,,,,Unclimbed,,,,,58,APPROXIMATE,"Mustang, OK 73064, USA",ChIJuXMJkcMLsocRWssJ7wKDDKw,28.672222,83.246389,1,73064,OK,"locality,political"
59,MATA,Matathumba,"Matatumpa, Ghyuthumba East",Jagdula Lekh (S of Kanjiroba Himal),5767,18921,10,7,False,True,False,,,1,2,,1961,1,MATA61101,May 16,"UK, Nepal","John Tyson, James Burnet, John Earle, Mingma Tsering, Ang Temba Sherpa",,,,May 16 1961,59,,,,,,0,,ZERO_RESULTS,
60,GHYM,Ghyuthumba Main,"Gutumpa, Pasang Peak",Jagdula Lekh (S of Kanjiroba Himal),5806,19049,10,7,False,True,False,,,1,2,,1953,3,GHYM53301,Nov,"Austria, Nepal, India","Herbert Tichy, Ajiba Sherpa, Gyalzen Sherpa, Pasang Dawa Lama, Pemba Sherpa",,,,Nov 1953,60,,,,,,0,,ZERO_RESULTS,
61,GIME,Gimmigela Chuli East,Twins,Kangchenjunga Himal (N of Kangchenjunga on Indian border),7007,22989,9,1,False,True,False,,Requires permit for Gimmigela Chuli,5,2,,1993,3,GIME93301,Oct 09,"Japan, Nepal","Hideo Koike, Masanori Sato, Taro Tanigawa, Chuldin Sherpa, Pasang Nima Sherpa, Phurba Sherpa",,,,Oct 09 1993,61,APPROXIMATE,"Gimmigela Chuli, Lelep 57500, Nepal",ChIJUQLlGPNX5jkRYh36k22rOIY,27.733333,88.15,1,57500,OK,"establishment,natural_feature"
62,GIMM,Gimmigela Chuli,Twins,Kangchenjunga Himal (N of Kangchenjunga on Indian border),7350,24114,9,1,True,False,False,,,5,2,,1994,3,GIMM94301,Oct 29,"Japan, Nepal","Shigeru Yokokuwa, Dawa Wangchuk Sherpa, Pasang Gyalzen Sherpa, Pasang Tenzing Sherpa",,,,Oct 29 1994,62,APPROXIMATE,"Gimmigela Chuli, Lelep 57500, Nepal",ChIJUQLlGPNX5jkRYh36k22rOIY,27.733333,88.15,1,57500,OK,"establishment,natural_feature"
63,GLAC,Glacier Dome,"Tarke Kang, Tarke Khang",Annapurna Himal (E of Annapurna I),7069,23192,1,5,True,False,False,,,1,2,,1964,1,GLAC64301,Oct 16,"Japan, Nepal","Mitsuhiro Nishimura, Dorje Sherpa",,,,Oct 16 1964,63,APPROXIMATE,"Dome Glacier, Washington, USA",ChIJ043sp00ym1QRsFCc9hqqi-M,28.390278,83.891111,1,,OK,"establishment,natural_feature"
64,GURJ,Gurja Himal,,Dhaulagiri Himal (S of Dhaulagiri VI),7193,23599,4,6,True,False,False,,,1,2,,1969,3,GURJ69301,Nov 01,"Japan, Nepal","Tomokuni Saeki, Lhakpa Tenzing Sherpa",,,,Nov 01 1969,64,APPROXIMATE,"Gurja Himal, Mudi 33200, Nepal",ChIJq2MSP1zyvTkRj6bjxv3TTJY,28.6666667,83.3,1,33200,OK,"establishment,natural_feature"
65,GURK,Gurkarpo Ri,,Jugal Himal (N of Dorje Lhakpa on Tibetan border),6889,22602,8,3,True,False,False,,,4,2,,2007,3,GURK07301,Nov 01,France,"Paul Grobel, Pierre-Olivier Dupuy, Marc Kia, Jean Francois Males",,,,Nov 01 2007,65,APPROXIMATE,"Gurkarpo Ri, Xigaze, Nepal",ChIJS0b2RchC6jkRSTrizptNMdY,28.2091666,85.775,1,,OK,"establishment,natural_feature"
66,GYAC,Gyachung Kang,,Khumbu Himal (E of Cho Oyu on Tibetan border),7861,25791,12,2,True,False,False,,,4,2,,1964,1,GYAC64101,Apr 10,"Japan, Nepal","Yukihiko Kato, Kiyoto Sakaizawa, Pasang Phutar Sherpa (I)",,,,Apr 10 1964,66,APPROXIMATE,Gyachung Kang,ChIJccfZWnWw6TkROa5HIaDVrFc,28.098056,86.742222,1,,OK,"establishment,natural_feature"
67,GYAJ,Gyajikang,Gyaji Khang,Peri Himal (SW of Himlung Himal),7074,23209,18,5,True,False,False,,,1,2,,1994,3,GYAJ94301,Oct 07,"Japan, Nepal","Toshisada Hasegawa, Yousuke Kokubo, Osamu Tanabe, Ram Kaji Sivakoti, Pasang Tshering Sherpa, Dambar Bahadur Gurung",,,,Oct 07 1994,67,,,,28.735,84.36778,0,,ZERO_RESULTS,
68,LEOE,Leonpo Gang East,Gyalgen Peak,Jugal Himal (NE of Leonpo Gang on Tibetan border),6733,22090,8,3,True,False,False,,Opened in 2014,4,2,,1955,1,LEOE55101,May 11,"UK, Nepal","Monica Jackson, Elizabeth Stark, Mingma Gyalgen Sherpa, Ang Temba Sherpa",Peak named after sirdar Mingma Gyalgen Sherpa,,,May 11 1955,68,,,,,,0,,ZERO_RESULTS,
69,HIME,Himalchuli East,Himalchuli Main,Mansiri Himal (SE of Manaslu),7893,25896,15,4,True,False,False,,,1,2,,1960,1,HIME60101,May 24,Japan,"Masahiro Harada, Hisashi Tanabe",,,,May 24 1960,69,APPROXIMATE,"Himalchuli, Sirdibas, Nepal",ChIJ2RD5vLhdlTkRBnfeFtqgTYE,28.435556,84.642222,1,,OK,"establishment,natural_feature"
70,HIML,Himlung Himal,,Peri Himal (NW of Manaslu near Tibetan border),7126,23379,18,5,True,False,False,,,1,2,,1992,1,HIML92301,Oct 03,"Japan, Nepal","Osamu Hanai, Akio Koizumi, Nima Sherpa",Expeditions to Himlung prior to 1992 were probably climbing Nemjung,,,Oct 03 1992,70,APPROXIMATE,"Himlung, Fu, Nepal",ChIJnaV0eJTPvzkRdu5DeBFUyjg,28.7716666,84.4225,1,,OK,"establishment,natural_feature"
71,HIMN,Himalchuli North,,"Mansiri Himal (SE of Manaslu, WNW of Himalchuli Main)",7331,24052,15,4,True,False,False,,,1,2,,1985,3,HIMN85302,Oct 27,"S Korea, Nepal","Lee Jae-Hong, Ang Pasang Sherpa, Jangbu Sherpa, Lhakpa Norbu Sherpa, Pasang Dawa Sherpa",,,,Oct 27 1985,71,APPROXIMATE,"Himalchuli, Sirdibas, Nepal",ChIJ2RD5vLhdlTkRBnfeFtqgTYE,28.449722,84.606389,1,,OK,"establishment,natural_feature"
72,RANI,Rani Peak,"Lidanda Peak, Himalchuli Northeast","Mansiri Himal (SE of Manaslu, NE of Himalchuli Main)",6693,21959,15,4,False,True,False,,,1,2,,1970,1,RANI70101,May 05,"Netherlands, Nepal","Herman Tollenaar, Ang Phurba Sherpa, Mingma Tsering Sherpa, Nima Dorje Sherpa",,,,May 05 1970,72,,,,,,0,,ZERO_RESULTS,
73,HIMW,Himalchuli West,,"Mansiri Himal (SE of Manaslu, W of Himalchuli Main)",7540,24738,15,4,True,False,False,,,1,2,,1978,1,HIMW78101,May 07,Japan,"Yoshio Ogata, Kazuhiro Sugeno",,,,May 07 1978,73,APPROXIMATE,"Himalchuli, Sirdibas, Nepal",ChIJ2RD5vLhdlTkRBnfeFtqgTYE,28.435278,84.618611,1,,OK,"establishment,natural_feature"
74,HIUP,Hiunchuli,Patal Hiunchuli,Annapurna Himal (E of Annapurna South),6434,21109,1,5,False,False,True,1978.0,,1,2,,1971,3,HIUP71301,Oct 10,USA,"Craig Anderson, Peter Cross, Jim Richards, John Skow, Lane Smith",,,,Oct 10 1971,74,APPROXIMATE,"Hiunchuli, Ghandruk 33700, Nepal",ChIJCxdAP5n1lTkRJZyPWVqoZkw,28.5106334,83.8480566,1,33700,OK,"establishment,natural_feature"
75,HNKU,Hongku Chuli,"Hunku Chuli, Pyramid Peak","Khumbu Himal (in Hongku Valley, NE of Chamlang)",6833,22418,12,2,True,False,False,,Opened in 2013?,1,1,,0,0,,,,Unclimbed,,,,,75,APPROXIMATE,"Hongku Chuli, 56900, Nepal",ChIJGeA0Omz56DkRb13E0lqtzHc,27.8175,87.0091666,1,56900,OK,"establishment,natural_feature"
76,HONG,Hongde,"Hangde, Hongde Himal",Mukut Himal (N of Sita Chuchura in Hidden Valley),6556,21509,16,6,True,False,False,,,1,2,,1962,1,HONG62101,May 08,"Japan, Nepal","Shijiro Ishizaka, Zenkichi Hirayama, Takashi Miyahara, Ang Dawa Sherpa, Ang Temba Sherpa",,,,May 08 1962,76,ROOFTOP,"508 Prior Ave N, St Paul, MN 55104, USA",ChIJcfU3RKsss1IRcrCG975BrLM,28.84528,83.4875,1,55104,OK,"establishment,health,point_of_interest"
77,IMJA,Imjatse,Island Peak,Khumbu Himal (S of Lhotse),6165,20226,12,2,False,False,True,1978.0,,1,2,,1956,1,IMJA56101,,"Switzerland, Nepal","Hansrudolf Von Gunten, 2 unknown Sherpas",1st ascent of SW Summit by UK (Hunt) in 1953,,,,77,APPROXIMATE,"Imja Tse, Khumjung 56000, Nepal",ChIJZy08Mw9V6DkRZKPCippUHrc,27.9241989,86.9373035,1,56000,OK,"establishment,natural_feature"
78,JAGD,Jagdula,,Kanjiroba Himal (S of Kande Hiunchuli),5761,18901,10,7,True,False,False,,,1,2,,2013,1,JAGD13101,Apr 30,France,Francois Damilano,,,,Apr 30 2013,78,,,,29.326944,82.591944,0,,ZERO_RESULTS,
79,JANU,Jannu,Khumbhakarna,Kangchenjunga Himal (W of Kangchenjunga),7711,25299,9,1,True,False,False,,,1,2,,1962,1,JANU62101,Apr 27,"France, Nepal","Rene Desmaison, Paul Keller, Robert Paragot, Gyalzen Mitchung Sherpa",,,,Apr 27 1962,79,APPROXIMATE,"Kumbhakarna, Lelep 57500, Nepal",ChIJRwuZS_Va5jkR80gF1tQCwYw,27.6816666,88.0441666,1,57500,OK,"establishment,natural_feature"
80,JETH,Jethi Bahurani,"Jettiborani, Jutibofurani",Api Himal (S of Nampa and Bobaye),6850,22474,2,7,True,False,False,,,1,2,,1978,1,JETH78101,Apr 27,Japan,"Kazuo Mitsui, Nobuhito Morota, Hideki Yoshida",,,,Apr 27 1978,80,APPROXIMATE,"Jethi Bahurani, Kanda 10500, Nepal",ChIJESDGP7cJpDkRF_n59m0VB-M,29.8816666,81.0408333,1,10500,OK,"establishment,natural_feature"
81,JONG,Jongsang,"Jonsong, Jhinsang",Jongsang Himal (on Indian-Tibetan border),7462,24482,7,1,True,False,False,,,6,2,,1930,1,JONG30101,Jun 03,"Germany, Austria","Hermann Hoerlin, Erwin Schneider",,,,Jun 03 1930,81,APPROXIMATE,Jongsong Peak,ChIJQyW5wRtV5jkRjk_Rw-PmfiQ,27.8815937,88.1352391,1,,OK,"establishment,natural_feature"
82,JUNC,Junction Peak,,"Dhaulagiri Himal (on ridge joining Dhaulagiri VI, IV and Churen)",7133,23402,4,6,False,True,False,,,1,1,,0,0,,,,Unclimbed,,,,,82,APPROXIMATE,"Junction Peak, California 93526, USA",ChIJ5xnzxLnrv4AROaCLImtM4k0,28.72182,83.277179,1,93526,OK,"establishment,natural_feature"
83,KABD,Kabru Dome,,Simhalila Himal (SE of Kabru in India),6600,21654,9,1,False,True,False,,,3,2,,1982,3,KABD82301,Sep 24,India,"Mahabir Thakur, Tshering Lobsang, K. N. Singh, Gautam Dutta, P. Bhotia, Umeshari Devi",1st ascent claimed by India (Biswas) but not recognized,,,Sep 24 1982,83,APPROXIMATE,Kabru,ChIJm1vXqMVe5jkREblicwWjDso,27.60749569,88.11035589,1,,OK,"establishment,natural_feature"
84,KABN,Kabru North,,Simhalila Himal (S of Kabru Main on Indian border),7338,24075,9,1,False,True,False,,,5,2,,1935,3,KABN35301,Nov 18,UK,C. R. (Reggie) Cooke,"Possible ascent by UK & Swiss (W. W. Graham, Emil Boss, Ulrich Kauffman) in 1883 (AJ, 219-228 (2009), Willy Blaser & Glyn Hughes",,,Nov 18 1935,84,APPROXIMATE,Kabru,ChIJm1vXqMVe5jkREblicwWjDso,27.619167,88.124444,1,,OK,"establishment,natural_feature"
85,KAG1,Kagmara I,,Kagmara Lekh (S of Kanjiroba Himal),5978,19613,10,7,True,False,False,,,1,2,,1962,1,KAG162101,May 23,"UK, Nepal","Dorothea Gravina, Denise Evans, Nancy Smith, Pat Wood, Ang Temba Sherpa, Mingma Tsering Sherpa, Pemba Norbu Sherpa",,,,May 23 1962,85,APPROXIMATE,"Kagmara, Jharkhand, India",ChIJodWftOW98DkR4gnNJhm8c4k,29.138889,82.761111,1,,OK,"locality,political"
86,KAN1,Kande Hiunchuli North  I,,Kanjiroba Himal (NW of Kanjiroba),6521,21394,10,7,False,True,False,,,1,1,,0,0,,,,Unclimbed,,,,,86,,,,29.411871,82.558904,0,,ZERO_RESULTS,
87,KAN2,Kande Hiunchuli North  II,,Kanjiroba Himal (NW of Kanjiroba),6471,21230,10,7,False,True,False,,,1,2,,1980,1,KAN280101,May 03,Switzerland,"Daniel Chevallier, Pierre Galland",,,,May 03 1980,87,,,,,,0,,ZERO_RESULTS,
88,KANB,Kangbachen,Kambachen,Kangchenjunga Himal (W Spur of Kangchenjunga),7902,25925,9,1,True,False,False,,,1,2,,1974,1,KANB74101,May 26,Poland,"Wojciech Branski, Wieslaw Klaput, Marek Malatynski, Kazimierz Olech, Zbigniew Rubinowski",,,,May 26 1974,88,APPROXIMATE,"Kangbachen, Lelep 57500, Nepal",ChIJyS7RkN1Z5jkR9Ac5bCcoHH0,27.7166,88.1105,1,57500,OK,"establishment,natural_feature"
89,KANC,Kangchenjunga Central,,Kangchenjunga Himal (between Main and South summits),8473,27799,9,1,True,False,False,,,5,2,,1978,1,KANC78102,May 22,Poland,"Wojciech Branski, Zygmunt Heinrich, Kazimierz Olech",Illegal ascent,,,May 22 1978,89,APPROXIMATE,"Kangchendzönga-Mittelgipfel, Yamfudin, 737116",ChIJ7VxwMmpY5jkRuXEUuhUL4tk,27.7025,88.156944,1,737116,OK,"establishment,natural_feature"
90,KAND,Kande Hiunchuli,,Kanjiroba Himal (WNW of Kanjiroba),6627,21742,10,7,True,False,False,,,1,2,,1972,3,KAND72301,Oct 18,Japan,"Toyokazu Hirota, Shigeru Kuwahata",1st ascent claimed (but perhaps climbed 6570m peak),,,Oct 18 1972,90,,,,29.411871,82.558904,0,,ZERO_RESULTS,
91,KANG,Kangchenjunga,,Kangchenjunga Himal,8586,28169,9,1,True,False,False,,,5,2,,1955,1,KANG55101,May 25,UK,"George Band, Joe Brown",,,,May 25 1955,91,APPROXIMATE,Kangchenjunga,ChIJU4iVF0pY5jkRTG3ch4BEb3E,27.709722,88.155556,1,,OK,"establishment,natural_feature"
92,KANS,Kangchenjunga South,,Kangchenjunga Himal,8476,27808,9,1,True,False,False,,,5,2,,1978,1,KANS78101,May 19,Poland,"Eugeniusz Chrobak, Wojciech Wroz",,,,May 19 1978,92,APPROXIMATE,Kangchenjunga,ChIJU4iVF0pY5jkRTG3ch4BEb3E,27.691944,88.156944,1,,OK,"establishment,natural_feature"
93,KARY,Karyolung,,Rolwaling Himal (SE of Numbur),6530,21424,19,2,True,False,False,,,1,2,,1982,3,KARY82301,Oct 31,"Japan, Nepal","Yoshiyuki Inoue, Masatoshi Iwasa, Hiroshi Nishie, Yogendra Thapa, Gita Bdr Joshi, Babu Ram Pun, Gore Tamang, Pemba Tshering Sherpa",,,,Oct 31 1982,93,APPROXIMATE,"Karyolung, 56000, Nepal",ChIJgay7IwUN6TkR6vcS3wL64HE,27.7350085,86.610766,1,56000,OK,"establishment,natural_feature"
94,KCHN,Kangchung Nup,"Kangcho Nup, Cholo",Khumbu Himal (NE of Gokyo Lake),6043,19826,12,2,False,True,False,,,1,2,,1953,1,KCHN53101,Apr 04,"UK, New Zealand","Edmund Hillary, Wilfred Noyce, Charles Wylie",,,,Apr 04 1953,94,,,,,,0,,ZERO_RESULTS,
95,NAYA,Naya Kanga,"Kangja Chuli, Ghanja La Chuli",Jugal Himal (W of Ganchempo by Kangja La),5863,19236,8,3,False,False,True,1978.0,,1,2,,0,0,,,,1st ascent unknown,,,,,95,GEOMETRIC_CENTER,"325 Provincial Rd, Fangcheng Qu, Fangchenggang Shi, Guangxi Zhuangzuzizhiqu, China",ChIJWZLEPzw1SzER3L8yUWh6pvg,28.15,85.59722,2,,OK,"establishment,point_of_interest"
96,KGUR,Kang Guru,Naurgaon,Peri Himal (SW of Himlung Himal),6981,22904,18,5,True,False,False,,,1,2,,1955,2,KGUR55201,Jul 02,W Germany,"Heinz Steinmetz, Fritz Lobbichler, Juergen Wellenkamp",,,,Jul 02 1955,96,APPROXIMATE,"Kang Guru, Tachi Bagarchhap 33500, Nepal",ChIJhW1DTGXTvzkRZ-jdap_blds,28.6575,84.301389,1,33500,OK,"establishment,natural_feature"
97,KHAT,Khatang,,Rolwaling Himal (E of Numbur),6790,22277,19,2,True,False,False,,,1,2,,1982,3,KHAT82301,Oct 30,"Japan, Nepal","Tatsumi Kawamura, Yoshimi Kitayama, Dorje Sherpa",,,,Oct 30 1982,97,,,,27.757836,86.595671,0,,ZERO_RESULTS,
98,KHON,Khongma Tse,Mehra Peak,Khumbu Himal (SW of Nuptse),5798,19022,12,2,False,False,True,1978.0,,1,2,,0,0,,,,1st ascent unknown,,,,,98,,,,27.944034,86.838729,0,,ZERO_RESULTS,
99,KJER,Kanjeralwa,Kanchen Ruwa,Kanjiroba Himal (NW of Phoksumdo Tal),6612,21693,10,7,True,False,False,,,1,2,,1973,1,KJER73101,Apr 22,"Japan, Nepal","Yasuaki Goshima, Koichi Kyogoku, Mingma Tensing Sherpa, Mingma Tsering Sherpa",,,,Apr 22 1973,99,APPROXIMATE,"Kanjeralwa, Phoksundo 21400, Nepal",ChIJc6HhZ9f_vDkRGVU25y6a8TQ,29.2325,82.8741666,1,21400,OK,"establishment,natural_feature"
100,KJRN,Kanjiroba North,,Kanjiroba Himal,6858,22500,10,7,True,False,False,,Opened in 2014,1,1,,0,0,,,,Unclimbed,,,,,100,APPROXIMATE,"Kanjiroba, Kaigaun 21400, Nepal",ChIJYy6OX23mvDkRagMntxOrI24,29.3758333,82.6375,1,21400,OK,"establishment,natural_feature"
101,KJRS,Kanjiroba South,,Kanjiroba Himal,6883,22582,10,7,True,False,False,,One permit for Kanjiroba's north and south summits,1,2,,1970,3,KJRS70301,Nov 07,Japan,"Hiroshi Okuda, Ichiryo Sato, Munehiro Sawada",,,,Nov 07 1970,101,APPROXIMATE,"Kanjiroba, Kaigaun 21400, Nepal",ChIJYy6OX23mvDkRagMntxOrI24,29.3758333,82.6375,1,21400,OK,"establishment,natural_feature"
102,KOTA,Kotang,"Kokthang, Kothang Kang",Simhalila Himal (SSW of Rothang on Indian border),6148,20171,9,1,True,False,False,,,5,2,,1982,3,KOTA82301,Oct 11,Inida,"K. V. Cherian, Nima Tashi Sherpa, Ang Norbu, Ki Kami Sherpa",,,,Oct 11 1982,102,ROOFTOP,"30/1 Soi Phatthana 1, Tambon Tha Ruea, Amphoe Pak Phanang, Chang Wat Nakhon Si Thammarat 80140, Thailand",ChIJ0yNpl1LgUjARragZhh0XScI,27.564247,88.080535,1,80140,OK,"establishment,health,point_of_interest"
103,KTEG,Kangtega,"Kantega, Khangtega, Kang Taiga",Khumbu Himal (SW of Ama Dablam),6783,22254,12,2,True,False,False,,,1,2,,1963,1,KTEG63101,Jun 05,"New Zealand, USA","David Dornan, Tom Frost, Michael Gill, Jim Wilson",,,,Jun 05 1963,103,APPROXIMATE,"Kangtega, 56000, Nepal",ChIJqUbymqYG6TkRGRCUJkAw0ts,27.7995451,86.8075976,1,56000,OK,"establishment,natural_feature"
104,KTSU,Kangtsune,"Kangchunne, Kanchauni Lekh","Kagmara Lekh (SE of Kanjiroba, W of Kanjeralwa)",6444,21142,10,7,False,True,False,,,1,1,,0,0,,,,Unclimbed,,,,,104,,,,,,0,,ZERO_RESULTS,
105,KUSU,Kusum Kanguru,"Kusum Kang, Lamu",Khumbu Himal (NE of Lukla village),6370,20899,12,2,False,False,True,1978.0,,1,2,,1981,3,KUSU81302,Oct 07,New Zealand,Bill Denz,,,,Oct 07 1981,105,APPROXIMATE,"Kusum Kanguru, Chaurikharka 56000, Nepal",ChIJuwMF6eUE6TkRJ7lQuQt_QcY,27.730556,86.790833,1,56000,OK,"establishment,natural_feature"
106,KWAN,Kwangde,,Rolwaling Himal (W of Namche Bazar),6186,20295,19,2,False,False,True,1978.0,,1,2,,1978,3,KWAN78301,Nov 11,Japan,"Takashi Iwahashi, Yoshihisa Ishikawa, Seiji Ogawa",,,,Nov 11 1978,106,,,,27.8,86.616667,0,,ZERO_RESULTS,
107,LAMJ,Lamjung Himal,,Annapurna Himal (SE of Annapurna II),6983,22910,1,5,True,False,False,,,1,2,,1974,1,LAMJ74101,Apr 25,UK,"Derrick Chamberlain, Phillip Neame",,,,Apr 25 1974,107,APPROXIMATE,"Lamjung Himal, Chame 33500, Nepal",ChIJByAraDKBlTkRX4WqvHhc5ko,28.4894444,84.1891667,1,33500,OK,"establishment,natural_feature"
108,LANG,Langtang Lirung,Langtang,Langtang Himal,7227,23711,13,3,True,False,False,,,1,2,,1978,3,LANG78301,Oct 24,"Japan, Nepal","Seishi Wada, Pemba Tsering Sherpa",,,,Oct 24 1978,108,APPROXIMATE,"Langtang Lirung, Langtang 45000, Nepal",ChIJi7lNJHGL6jkRZIlmltg0lv4,28.2558333,85.5175,1,45000,OK,"establishment,natural_feature"
109,LANR,Langtang Ri,,Langtang Himal (NE of Langtang Lirung on Tibetan border),7205,23638,13,3,True,False,False,,,4,2,,1981,3,LANR81301,Oct 10,"Japan, Nepal","Soichi Nasu, Makihiro Wakao, Noboru Yamada, Ang Rinji Sherpa",,,,Oct 10 1981,109,APPROXIMATE,"Langtang Ri, Nyalam, Xigaze, China",ChIJ8aHIan1j6jkRHST_7tIbF38,28.3816666,85.6833333,2,,OK,"establishment,natural_feature"
110,LEON,Leonpo Gang,"Dorje Pahad, Big White Peak",Jugal Himal (NNE of Dorje Lhakpa on Tibetan border),6979,22897,8,3,True,False,False,,,4,2,,1962,1,LEON62101,May 03,Japan,"Tadashi Morita, Kazunari Yasuhisa",,,,May 03 1962,110,,,,28.2025,85.817778,0,,ZERO_RESULTS,
111,LHAS,Lha Shamma,"Lhasharma, Pinnacle Peak","Kagmara Lekh (S of Kanjiroba, NNW of Kagmara I)",6412,21037,10,7,True,False,False,,Opened in 2014,1,2,,1962,1,LHAS62101,May 14,"UK, Nepal","Josephine Scarr, Barbara Spark, Mingma Tsering Sherpa, Pemba Norbu Sherpa",,,,May 14 1962,111,,,,29.22583,82.74722,0,,ZERO_RESULTS,
112,LHOT,Lhotse,,Khumbu Himal,8516,27940,12,2,True,False,False,,,4,2,,1956,1,LHOT56101,May 18,Switzerland,"Fritz Luchsinger, Ernst Reiss",,,,May 18 1956,112,APPROXIMATE,Lhotse,ChIJpRBEqI1U6DkRbC8oXKc-sVs,27.9626373,86.933615,1,,OK,"establishment,natural_feature"
113,MUKT,Mukut Himal,"Mukot Himal, Langru","Mukut Himal (N of Sita Chuchura, S of Hongde)",6087,19970,16,6,True,False,False,,Opened in 2014,1,2,,1967,3,MUKT67301,Sep,Netherlands,"Alfons J. Driessen, Michiel van Mourik Broekman",1st ascent if team was actually on this peak,,,Sep 1967,113,,,,28.84333,83.4975,0,,ZERO_RESULTS,
114,LNPO,Langpo,Longpo,Jongsang Himal (SE of Jongsang on Indian border),6965,22851,7,1,True,False,False,,,5,2,,1909,3,LNPO09301,Sep 14,UK,A. M. Kellas,,,,Sep 14 1909,114,GEOMETRIC_CENTER,"Licheng, Changzhi, Shanxi, China",ChIJeyJqcyDe3jURYp3woMqUiZg,27.85333,88.1975,2,,OK,"establishment,point_of_interest"
115,LOBE,Lobuje East,Lobuche East,Khumbu Himal (SW of Pumori),6090,19980,12,2,False,False,True,1978.0,,1,2,,1984,1,LOBE84101,Apr 25,"USA, Nepal","Larry Nielson, Any Gyaltsen Sherpa",Possibly climbed by Japanese in 1979 (unverified),,,Apr 25 1984,115,APPROXIMATE,"Lobuche, Khumjung 56000, Nepal",ChIJhx6T8iKp6TkReWFvN11CKgY,27.9595,86.789944,1,56000,OK,"establishment,natural_feature"
116,LOBW,Lobuje West,Lobuche West,Khumbu Himal (SW of Pumori),6135,20128,12,2,False,False,True,2002.0,Converted to trekking peak in 2002,1,2,,1984,3,LOBW84301,Sep 28,Japan,"Yuji Kawakura, Yoshihiro Taguchi",,,,Sep 28 1984,116,APPROXIMATE,"Lobuche, Khumjung 56000, Nepal",ChIJhx6T8iKp6TkReWFvN11CKgY,27.9595,86.789944,1,56000,OK,"establishment,natural_feature"
117,LSHR,Lhotse Shar,Lhotse II,Khumbu Himal (ESE of Lhotse and Lhotse Middle),8382,27500,12,2,True,False,False,,,4,2,,1970,1,LSHR70101,May 12,Austria,"Josef Mayerl, Rolf Walter",,,,May 12 1970,117,APPROXIMATE,"Lo-tzu-sha Feng, Khumjung 56000, Nepal",ChIJtaFZgFpU6DkRZa1R1jEBHSw,27.95,86.95,1,56000,OK,"establishment,natural_feature"
118,LSIS,Langshisa Ri,Langsisa Ri,Jugal Himal (NW of Dorje Lhakpa),6412,21037,8,3,False,False,True,2002.0,Converted to trekking peak in 2002,1,2,,1982,1,LSIS82101,Apr 23,"Japan, Nepal","Takuya Kajimoto, Pasang Norbu Sherpa",,,,Apr 23 1982,118,,,,28.2169,85.7136,0,,ZERO_RESULTS,
119,MACH,Machhapuchhare,,Annapurna Himal (SE of Annapurna III),6993,22943,1,5,False,True,False,,Closed,1,1,,0,0,,,,Unclimbed,Rumored that one New Zealander (Bill Denz) summited by the N Ridge-NE Face route in the late 1970s,,,,119,APPROXIMATE,"Machhapuchhare, Machhapuchchhre 33700, Nepal",ChIJuRUNusSKlTkRLvsKHQ7wKvo,28.504374,83.9470482,1,33700,OK,"establishment,natural_feature"
120,BTAK,Bhairab Takura,Madiya,Jugal Himal (ENE of Dorje Lhakpa on Tibetan border),6799,22306,8,3,True,False,False,,,4,2,,1960,1,BTAK60101,May 07,"Japan, Nepal","Kunitoshi Ishihara, Yukihito Kato, Pasang Phutar Sherpa (I)",,,,May 07 1960,120,,,,28.198056,85.774444,0,,ZERO_RESULTS,
121,MAK2,Makalu II,Kangchungtse,Makalu Himal (NNW of Makalu on Tibetan border),7678,25190,14,2,True,False,False,,,4,2,,1954,3,MAK254301,Oct 22,"UK, Nepal","Jean Franco, Lionel Terray, Gyaltsen Norbu Sherpa, Pa Norbu Sherpa",,,,Oct 22 1954,121,APPROXIMATE,"Ma-k'a-lu-pei Feng, Tingri, Xigaze, China",ChIJjZN4OClY6DkRHIh_VrGFukc,27.9333333,87.0666667,1,,OK,"establishment,natural_feature"
122,MAKA,Makalu,,Makalu Himal,8485,27838,14,2,True,False,False,,,4,2,,1955,1,MAKA55101,May 15,France,"Jean Couzy, Lionel Terray",,,,May 15 1955,122,APPROXIMATE,Makalu,ChIJH0HXfX5Y6DkRbAbpoRZHENs,27.8860217,87.0911891,1,,OK,"establishment,natural_feature"
123,MANA,Manaslu,"Kutang I, Peak 30",Manaslu Himal,8163,26781,15,4,True,False,False,,,1,2,,1956,1,MANA56101,May 09,"Japan, Nepal","Toshio Imanishi, Gyaltsen Norbu Sherpa",,,,May 09 1956,123,APPROXIMATE,"Manaslu, Samagaun, Nepal",ChIJJbo08sRhlTkRYQXsY655exQ,28.5497107,84.5596768,1,,OK,"establishment,natural_feature"
124,MANN,Manaslu North,Manaslu II,Manaslu Himal (N of Manaslu),6994,22946,15,4,True,False,False,,,1,2,,1964,3,MANN64301,Oct 25,"Netherlands, Austria, Nepal","Alfons Driessen, Jan De Lint, Hubert Schriebl, Ila Tshering Sherpa, Nima Tenzing Sherpa",1st ascent disputed by Anders Bolinder,,,Oct 25 1964,124,APPROXIMATE,"Manaslu, Samagaun, Nepal",ChIJJbo08sRhlTkRYQXsY655exQ,28.5497107,84.5596768,1,,OK,"establishment,natural_feature"
125,MANP,Manapathi,,Dhaulagiri Himal (SSW of Dhaulagiri I),6380,20932,4,6,True,False,False,,,1,2,,1956,1,MANP56101,Apr 25,"Argentina, Nepal","Emiliano Huerta, Ayiwa Sherpa",1st ascent?,,,Apr 25 1956,125,ROOFTOP,"50 Woodrow Wilson Dr, Edison, NJ 08820, USA",ChIJgQ433Li3w4kRNsdGiYnzMV4,28.64667, 83.45111,1,08820,OK,"establishment,point_of_interest"
126,MARD,Mardi Himal,,Annapurna Himal (SW of Machhapuchhare),5553,18219,1,5,False,False,True,1978.0,,1,2,,1962,1,MARD62101,Apr 23,"UK, Nepal","J. O. M. Roberts, Ang Tshering Sherpa, Tenzing Nindra Sherpa",,,,Apr 23 1962,126,APPROXIMATE,"Mardi himal, 33700, Nepal",ChIJ9zH2vC-LlTkRjQrs_sbM3Uc,28.4857285,83.9373754,1,33700,OK,"establishment,natural_feature"
127,MERA,Mera Peak,"""False"" Mera Peak",Khumbu Himal (S of Ama Dablam),6470,21227,12,2,False,False,True,1978.0,,1,2,,1953,1,MERA53101,May,"UK, Nepal","J. O. M. Roberts, Sen Tenzing Sherpa","Climbed ""false Mera"" 6476m?  ""True Mera"" unclimbed?",,,May 1953,127,APPROXIMATE,"Mera Peak, 56000, Nepal",ChIJZW3WrsYC6TkRKAjcsmr5SLY,27.7090249,86.8677807,1,56000,OK,"establishment,natural_feature"
128,MING,Mingbo Ri,,Khumbu Himal (S of Ama Dablam and Mingbo La),6207,20364,12,2,False,True,False,,,1,1,,0,0,,,,Unclimbed,,,,,128,GEOMETRIC_CENTER,"Lengjing St, Haishu Qu, Ningbo Shi, Zhejiang Sheng, China, 315000",ChIJR_Vc-a18TTQRRgiek-E5nlk,27.84472,86.82167,1,315000,OK,"clothing_store,establishment,point_of_interest,store"
129,NALA,Nalakankar North,,Nalakankar Himal (on W Nepal/Tibetan border),6062,19888,17,7,True,False,False,,,4,2,,2000,2,NALA00201,Jul 06,"Japan, Nepal","Takehiko Yanagihara, Ang Phurba Sherpa",,,,Jul 06 2000,129,APPROXIMATE,"Kalakankar, Uttar Pradesh 229408, India",ChIJtfhgCW8YmzkRnXJULTRPlA0,30.3575,81.39944,1,229408,OK,"locality,political"
130,NAMP,Nampa,Chisel Peak,Api Himal (E of Api),6729,22077,2,7,True,False,False,,,1,2,,1972,1,NAMP72101,May 05,Japan,"Fukutoshi Kimura, Susumu Takahashi",,,,May 05 1972,130,APPROXIMATE,"Nampa, ID, USA",ChIJKfGXTmlMrlQRUkoycWOGGa4,30.00444,80.994522,1,,OK,"locality,political"
131,NCHU,Nupchu,,Ohmi Kangri Himal (NW of Kangchenjunga),6172,20249,6,1,False,True,False,,,1,2,,1962,1,NCHU62101,May 20,Japan,"Takayuki Tsubaki, Chotare Sherpa",,,,May 20 1962,131,APPROXIMATE,"Nupchu, Olangchung Gola 57500, Nepal",ChIJAw1Z9l9J5jkRGqRTojqZMSo,27.8153083,87.914683,1,57500,OK,"establishment,natural_feature"
132,NEMJ,Nemjung,,Peri Himal (S of Himlung Himal and Himjung),7140,23425,18,5,True,False,False,,,1,2,,1983,1,NEMJ83301,Oct 27,"Japan, Nepal","Makito Minami, Wataru Saito, Ken Takahashi, Kirki Lama",,,,Oct 27 1983,132,APPROXIMATE,"Nemjung, Nar, Nepal",ChIJrYQ2gxjQvzkRky-dsG6kiYE,28.7366666,84.4175,1,,OK,"establishment,natural_feature"
133,NEPA,Nepal Peak,,Jongsang Himal (N of Kangchenjunga on Indian border),7177,23547,7,1,True,False,False,,,5,2,,1930,1,NEPA30101,May 24,Austria,Erwin Schneider,Schneider may have only gone to the SW Peak (7130m) in which case the first ascent was by the Germans in 1936,,,May 24 1930,133,ROOFTOP,"4418 Rosecrown Ct, Fort Collins, CO 80526, USA",ChIJ_QYbH4hLaYcRgnIpAg4meOA,27.776802,88.182927,1,80526,OK,"establishment,point_of_interest,travel_agency"
134,NGO2,Ngojumba Kang II,,Khumbu Himal (NE of Cho Oyu on Tibetan border),7743,25404,12,2,True,False,False,,,4,2,,1965,1,NGO265101,Apr 24,"Japan, Nepal","Naomi Uemura, Pemba Tenzing Sherpa",,,,Apr 24 1965,134,,,,28.106,86.706,0,,ZERO_RESULTS,
135,NGOJ,Ngojumba Kang I,"Ngozumba Kang, Ngozumba Ri, Tenzing Peak",Khumbu Himal (NE of Cho Oyu on Tibetan border),7916,25971,12,2,True,False,False,,Opened in 2014 as Tenzing Peak,4,2,,1982,3,NGOJ82302,Nov 02,"S Korea, Nepal","Kim Young-Han, Ang Tshering Sherpa, Dorje Sherpa",,,,Nov 02 1982,135,,,,28.105875,86.684203,0,,ZERO_RESULTS,
136,NILC,Nilgiri Central,,Annapurna-Nilgiri Himal (NW of Annapurna I),6940,22769,1,5,True,False,False,,,1,2,,1979,1,NILC79101,Apr 30,Japan,"Kohichi Sakata, Yasuo Tsuda",,,,Apr 30 1979,136,APPROXIMATE,"Nilgiris, Tamil Nadu, India",ChIJjdfztYS9qDsRiK5wDWn_tlo,28.678154,83.735729,1,,OK,"administrative_area_level_2,political"
137,NILN,Nilgiri North,,Annapurna-Nilgiri Himal (NW of Annapurna I),7061,23166,1,5,True,False,False,,,1,2,,1962,3,NILN62301,Oct 19,"Netherlands, France, Nepal","Lionel Terray, H. G. Van Lookern Campagne, P. Van Lookern Campagne, P. F. J. Van Lookern Campagne, Wangdi Sherpa",,,,Oct 19 1962,137,,,,28.69,83.745,0,,ZERO_RESULTS,
138,NILS,Nilgiri South,,Annapurna-Nilgiri Himal (NW of Annapurna I),6839,22438,1,5,True,False,False,,,1,2,,1978,3,NILS78301,Oct 10,Japan,"Kazuo Mitsui, Taichi Fujimatsu, Yoshiaki Kato, Nobuhito Morota, Seiji Tanaka, Hideki Yoshida",,,,Oct 10 1978,138,ROOFTOP,"3021 Markham Rd #50, Scarborough, ON M1X 1L8, Canada",ChIJqbppENnW1IkRUWl49QlPo5Q,28.654845,83.729893,2,M1X 1L8,OK,"establishment,food,point_of_interest,restaurant"
139,NUMB,Numbur,,Rolwaling Himal (SW of Namche Bazar),6958,22828,19,2,True,False,False,,,1,2,,1963,1,NUMB63101,May 29,"Japan, Nepal","Hiroshi Matsuo, Mingma Tsering Sherpa",,,,May 29 1963,139,APPROXIMATE,"Numbur, Takasindu 45400, Nepal",ChIJH8mTLjBz6TkRcoJgGJL14e8,27.7541666,86.5724999,1,45400,OK,"establishment,natural_feature"
140,NUPT,Nuptse,,Khumbu Himal (SW of Everest),7864,25801,12,2,True,False,False,,,1,2,,1961,1,NUPT61101,May 16,"UK, Nepal","Dennis Davis, Tashi Sherpa",1st ascent of W Smt (NUPT-884-01),,,May 16 1961,140,APPROXIMATE,"Nuptse, Khumjung 56000, Nepal",ChIJMewuqEOr6TkRS-t4AOjB3Ck,27.9672192,86.8855391,1,56000,OK,"establishment,natural_feature"
141,OHMI,Ohmi Kangri,,Ohmi Kangri Himal (NW of Kangchenjunga on Tibetan border),6839,22438,6,1,True,False,False,,,4,2,,1985,1,OHMI85101,Apr 14,Switzerland,"Andre Rieder, Alain Vaucher",,,,Apr 14 1985,141,,,,27.896905,87.964158,0,,ZERO_RESULTS,
142,OMBK,Ombak Himal,,Ohmi Kangri Himal (NE of Ombak La in Tibet),6300,20669,6,1,False,True,False,,,2,1,,0,0,,,,Unclimbed?,,,,,142,,,,,,0,,ZERO_RESULTS,
143,PALD,Paldor,Bharange,Ganesh Himal (SE of  Ganesh V),5903,19367,5,4,False,False,True,1978.0,,1,2,,1949,2,PALD49201,,"UK, Nepal","H. W. Tilman, Peter Lloyd, Tenzing Sherpa, Da Namgyal Sherpa","1st ascent claimed in 1949, but actual 1st ascent may have been in 1974 by John Cleare and Ian Howell",,,,143,APPROXIMATE,"Paldor, 45000, Nepal",ChIJQ1-oZDG56jkRzz74mq-aa5c,28.2769444,85.1838889,1,45000,OK,"establishment,natural_feature"
144,PANG,Pangbuk Ri,,Rolwaling Himal (N of Menlung La on Tibetan border),6625,21736,19,2,True,False,False,,Opened in 2002,4,2,,2011,3,PANG11301,Nov 11,USA,"David Gottlieb, Chad Kellogg","The Pangbuk that Bourdillon and Colledge climbed on May 29, 1952 was south of Menlung La (thus not Pangbuk Ri)",,,Nov 11 2011,144,,,,28.006,86.52,0,,ZERO_RESULTS,
145,PARC,Parchamo,"Parchermo, Parchemuche, Pachermo",Rolwaling Himal (S of Tesi Laptsa),6279,20600,19,2,False,False,True,1978.0,,1,2,,1955,1,PARC55101,Apr,UK,"Peter Boultbee, Denis Davis",,,,Apr 1955,145,,,,27.8375,86.54722,0,,ZERO_RESULTS,
146,PATR,Patrasi Himal,Kande Hiunchuli North,Kanjiroba Himal (NE of Kande Huinchuli),6450,21161,10,7,True,False,False,,,1,1,,0,0,,,,Unclimbed,,,,,146,,,,29.411871,82.558904,0,,ZERO_RESULTS,
147,PETH,Pethangtse,,Khumbu Himal (NW of Makalu on Tibetan border),6739,22110,12,2,True,False,False,,Opened in 2002,4,2,,1954,1,PETH54101,May 26,"New Zealand, Nepal","Michael Ball, Norman Hardie, Brian Wilkins, Urkien Sherpa",,,,May 26 1954,147,,,,27.957424,87.015253,0,,ZERO_RESULTS,
148,PHUR,Phurbi Chhyachu,Phurbi Ghyachu,Jugal Himal (SE of Dorje Lhakpa on Tibetan border),6637,21775,8,3,True,False,False,,,4,2,,1982,1,PHUR82101,May 01,"Japan, Nepal","Shintaro Kurokawa, Fumihito Ogawa, Hiromitsu Okamoto, Takashi Shingaki, Hajime Takigami, Ang Phuri Lama, Pemba Lama Sherpa",,,,May 01 1982,148,,,,28.132269,85.869166,0,,ZERO_RESULTS,
149,PIMU,Pimu,Pamalka,Rolwaling Himal (N of Tesi Laptsa),6344,20814,19,2,False,True,False,,,1,2,,1955,1,PIMU55101,Apr,UK,"Peter Boultbee, Dennis Davis",,,,Apr 1955,149,APPROXIMATE,"Pima, AZ 85543, USA",ChIJEa0HKwvi14YRWXqrfNbATMU,27.89694,86.55444,1,85543,OK,"locality,political"
150,PISA,Pisang,Jong Ri,Damodar Himal (N of Marysangdi Valley),6091,19984,3,5,False,False,True,1978.0,,1,2,,1955,1,PISA55201,Jun 10,W Germany,Juergen Wellenkamp,,,,Jun 10 1955,150,APPROXIMATE,"Pisang 33500, Nepal",ChIJp0iyo3opvjkRASQLhK18BQI,28.5936253,84.1435136,1,33500,OK,"locality,political"
151,PK29,Peak 29,"Ngadi Chuli, Dakura, Dr Harka Gurung Chuli",Manaslu Himal (S of Manaslu),7871,25823,15,4,True,False,False,,,1,2,,1979,1,PK2979101,May 08,Poland,"Ryszard Gajewski, Maciej Pawlikowski",1st ascent claimed by Japan (Sumiyoshi) in 1970 (summiters killed in descent),,,May 08 1979,151,ROOFTOP,"29 Peak St, Lake Ronkonkoma, NY 11779, USA",ChIJVezxYoxH6IkRaaNMGSyghhw,28.503333,84.5675,2,11779,OK,premise
152,POIN,Pointed Peak,,"Khumbu Himal (N of Cholatse, S of Tshola La)",5850,19193,12,2,False,True,False,,,1,2,,1953,1,POIN53101,Apr 01,UK,"Wilfred Noyce, Michael Ward, Charles Wylie",,,,Apr 01 1953,152,GEOMETRIC_CENTER,"South Peak, Laguna Niguel, CA 92677, USA",EihTb3V0aCBQZWFrLCBMYWd1bmEgTmlndWVsLCBDQSA5MjY3NywgVVNB,,,1,92677,OK,route
153,POKA,Pokalde,,Khumbu Himal (N of Ama Dablam),5780,18963,12,2,False,False,True,1978.0,,1,2,,1953,1,POKA53101,Apr 15,UK,"Tom Bourdillon, Wilfred Noyce, Michael Ward",,,,Apr 15 1953,153,APPROXIMATE,"Pokalde, Khumjung 56000, Nepal",ChIJOTw1azCq6TkRvd-q3q8i0oM,27.925,86.833333,1,56000,OK,"establishment,natural_feature"
154,OMBG,Ombigaichen,Puma Dablam,Khumbu Himal (SE of Ama Dablam),6340,20801,12,2,False,False,True,2002.0,Opened in 2002 as trekking peak,1,2,,1960,3,OMBG60301,Nov 18,"New Zealand, Nepal","Jim Milledge, Ang Tsering Sherpa",,,,Nov 18 1960,154,,,,27.852816,86.883436,0,,ZERO_RESULTS,
155,PUMO,Pumori,,Khumbu Himal (WNW of Everest on Tibetan border),7138,23419,12,2,True,False,False,,,4,2,,1962,1,PUMO62101,May 17,"W Germany, Switzerland","Gerhard Lenser, Ernst Farrer, Ueli Huerlemann, Hans Ruetzel",,,,May 17 1962,155,APPROXIMATE,"Pumori, Khumjung 56000, Nepal",ChIJfVn-DiGs6TkRFQivGAVaJK8,28.0089896,86.8253374,1,56000,OK,"establishment,natural_feature"
156,PUTH,Putha Hiunchuli,Dhaulagiri VII,Dhaulagiri Himal (W of Churen Himal),7246,23773,4,6,True,False,False,,,1,2,,1954,3,PUTH54301,Nov 11,"UK, Nepal","J. O. M. Roberts, Ang Nyima Sherpa",,,,Nov 11 1954,156,APPROXIMATE,"Putha Hiunchuli, Ranmamaikot 21400, Nepal",ChIJa1Si_myRvTkRJhBRJsdZqxI,28.7475,83.1458333,1,21400,OK,"establishment,natural_feature"
157,PYRM,Pyramid Peak,"Pathibhara Chuli, Pathibhara Khas",Jongsang Himal (N of Kangchenjunga on Indian border),7140,23425,7,1,True,False,False,,,5,2,,1993,1,PYRM93101,Apr 24,"Japan, India","Yoshio Ogata, Jot Singh Bhandari, Hiroshi Iwazaki, Phurba Lepcha, Sunder Singh Martolia, Lobsang Sherpa, Nobuhiro Shingo",1st ascent claimed by Swiss (Sutter) in 1949 but reached secondary summit,,,Apr 24 1993,157,APPROXIMATE,"Pyramid Peak, Colorado 81611, USA",ChIJgb28_jBAQIcRgt4vU146wbQ,27.821,88.173,1,81611,OK,"establishment,natural_feature"
158,RAKS,Raksha Urai,Raksha Urai III,Raksha Urai Himal (ESE of Nampa),6609,21683,2,7,True,False,False,,,1,2,,2003,3,RAKS03301,Oct 15,"France, Nepal","Arnaud Clere, Catherine Couland, Gael Faroux, Keshab Raj Gurung",,,,Oct 15 2003,158,,,,29.95,81.116667,0,,ZERO_RESULTS,
159,RAMD,Ramdung,Ramdong Go,Rolwaling Himal (W of Tesi Laptsa),5900,19357,19,2,False,False,True,1978.0,,1,2,,1952,3,RAMD52301,Oct,"UK, Nepal","Tom MacKinnon, Dawa Tenzing Sherpa, Mingma Sherpa",,,,Oct 1952,159,,,,27.8525,86.415711,0,,ZERO_RESULTS,
160,RATH,Rathong,,Simhalila Himal (SW of Kabru on Indian border),6682,21923,9,1,True,False,False,,,5,2,,1964,3,RATH64301,Oct 29,India,"H. P. S. Ahluwalia, Ang Kami Sherpa, Dorje Latoo Sherpa, Nawang Gombu Sherpa",,,,Oct 29 1964,160,GEOMETRIC_CENTER,"Moo 5, Ban Hong, Tambon Ongkharak, Amphoe Pho Thong, Ang Thong, 14120, ตำบล องครักษ์ อำเภอ โพธิ์ทอง อ่างทอง 14120, Thailand",ChIJfWu9Oukc4jARdaHM1NmAGcY,27.593333,88.086667,1,14120,OK,"establishment,place_of_worship,point_of_interest"
161,ROCN,Roc Noir,"Khangsar Kang, Khang Sar Khang",Annapurna Himal (ENE of Annapurna I),7485,24557,1,5,True,False,False,,,1,2,,1969,1,ROCN69101,May 09,W Germany,"Reinhold Obster, Pit Schubert, Karl Winkler",,,,May 09 1969,161,GEOMETRIC_CENTER,"Roc Noir, 30570 Valleraugue, France",ChIJUU71ClqMsxIRF0mnlJPZCFg,28.613422,83.871471,2,30570,OK,route
162,ROKA,Rokapi,Kapchuli,"Api Himal (S of Nampa, Bobaye and Jethi Bahurani)",6468,21220,2,7,True,False,False,,Opened in 2002,1,2,,1977,3,ROKA77301,Oct 10,UK,"Thomas Herley, Kelvin McLane",,,,Oct 10 1977,162,,,,29.8493,81.0405,0,,ZERO_RESULTS,
163,SAIE,Saipal East Humla,,Saipal Himal (NE of Saipal),6925,22720,20,7,True,False,False,,,1,2,,1990,3,SAIP90301,Oct 26,"Switzerland, Nepal","Jacques Montaz, Tendi Sherpa",Saipal East Humla is a subpeak on the NE Ridge of Saipal,,,Oct 26 1990,163,APPROXIMATE,"Saipal, Muchu 10500, Nepal",ChIJd_ddsfR_pDkRrWr5FtpD0ww,29.8891666,81.4941666,1,10500,OK,"establishment,natural_feature"
164,SAIP,Saipal,,Saipal Himal,7030,23064,20,7,True,False,False,,,1,2,,1963,3,SAIP63301,Oct 21,"Japan, Nepal","Katsuotoshi Hirabayashi, Pasang Phutar Sherpa (I)",,,,Oct 21 1963,164,APPROXIMATE,"Saipal, Muchu 10500, Nepal",ChIJd_ddsfR_pDkRrWr5FtpD0ww,29.8891666,81.4941666,1,10500,OK,"establishment,natural_feature"
165,SHAR,Shartse,"Peak 38, Shanti Shikhar",Khumbu Himal (E of Lhotse Shar on Tibetan border),7591,24905,12,2,True,False,False,,,4,1,,0,0,,,,Unclimbed,,,,,165,ROOFTOP,"3500 E 4th St, Long Beach, CA 90814, USA",ChIJ6xjubK8x3YARS2XjjBVHBoU,27.9493,86.9832,1,90814,OK,"establishment,point_of_interest"
166,SHA2,Shartse II,Junction Peak,Khumbu Himal (E of Lhotse Shar on Tibetan border),7457,24465,12,2,True,False,False,,,4,2,,1974,1,SHA274101,May 23,"Austria, W Germany","Kurt Diemburger, Hermann Warth",,,,May 23 1974,166,GEOMETRIC_CENTER,"Block 12, House 33A, Camp, New, New Aruna Colony, Majnu Ka Tilla, New Aruna Nagar, New Delhi, Delhi 110054, India",ChIJ32oWXsX9DDkRkKBZa-k42ho,27.955604,86.96472,1,110054,OK,"establishment,food,point_of_interest,restaurant"
167,SHEY,Shey Shikhar,Junction Peak,Kanjiroba Himal (SE of Kanjiroba and Tripura Hiunchuli),6139,20141,10,7,True,False,False,,,1,2,,2007,2,SHEY07201,Aug 23,Japan,Katsuhito Fujikawa,,,,Aug 23 2007,167,,,,29.286944,82.796389,0,,ZERO_RESULTS,
168,SING,Singu Chuli,Fluted Peak,Annapurna Himal (Annapurna Sanctuary),6501,21329,1,5,False,False,True,1978.0,,1,2,,1957,1,SING57101,Jun 13,UK,"David Cox, Wilfred Noyce",,,,Jun 13 1957,168,APPROXIMATE,"Singu Chuli, Ghandruk 33700, Nepal",ChIJj_oO_AcfvjkR9SNkAq41Kpg,28.583333,83.9,1,33700,OK,"establishment,natural_feature"
169,SISN,Sisne Himal,Hiunchuli Patan,Sisne Himal (SW of Juphal in Rukum),5911,19393,10,7,True,False,False,,,1,2,,2013,1,SISN13101,May 26,"Nepal, USA","Man Bahadur Khatri, Alonzo Lyons, Dbruba Bista, Mulal Gurung, Nilam Gurung, Ali Bahadur Khatri, Vinaya Jaya Malla, Amrit Sarki",,,,May 26 2013,169,GEOMETRIC_CENTER,"DDC Rd, Musikot 22000, Nepal",ChIJydOXAUFbvTkRsGDW8dLlef0,29.783333,80.341667,1,22000,OK,"bus_station,establishment,point_of_interest,transit_station"
170,SITA,Sita Chuchura,,Mukut Himal (ENE of Dhaulagiri II near French Pass),6611,21690,16,6,True,False,False,,,1,2,,1970,3,SITA70301,Oct 26,"Japan, Nepal","Masahiko Takahashi, Hiroshi Harada, Nobuyki Hirato, Phurba Kitar Sherpa",,,,Oct 26 1970,170,GEOMETRIC_CENTER,"Chinsurah R S, Hooghly, West Bengal 712101, India",ChIJY53aaweU-DkRrZ3Qwp3dGV8,28.786,83.4781,2,712101,OK,"establishment,hindu_temple,place_of_worship,point_of_interest"
171,SNOW,Snow Peak,,Dhaulagiri Himal (E of Dhaulagiri II),6530,21424,4,6,False,True,False,,,1,1,,0,0,,,,Unclimbed,,,,,171,ROOFTOP,"410 NW 14th Ave, Portland, OR 97209, USA",ChIJ6xTIlfgJlVQRO2bymm3QQ2I,,,2,97209,OK,"clothing_store,establishment,point_of_interest,store"
172,SPHN,Sphinx,"Pathibhara Phurba, Pathibhara East",Jongsang Himal (NE of Pathibhara on Indian border),6825,22392,7,1,True,False,False,,Opened in 2014,5,2,,1936,1,SPHN36101,Jun,UK,"J. K. Cooke, Frederick S. Chapman, John B. Harrison",,,,Jun 1936,172,APPROXIMATE,"Sphinx, MT 59027, USA",ChIJ36C5sUfeT1MRvCw85OEhxas,27.825,88.188,1,59027,OK,"locality,political"
173,SPHU,Sharphu I,Tanga I,Ohmi Kangri Himal (WNW of Kangchenjunga),6433,21106,6,1,True,False,False,,Opened in 2002,1,2,,1963,3,SPHU63301,Oct 22,Japan,"Takao Ishinabe, Chiharu Miyamoto, Yuzo Tatsumi",,,,Oct 22 1963,173,,,,27.752222,87.916944,0,,ZERO_RESULTS,
174,SURM,Surma-Sarovar North,,Api Himal (SSE of Jethi Bahurani),6564,21535,2,7,True,False,False,,,1,1,,0,0,,,,Unclimbed,,,,,174,GEOMETRIC_CENTER,"88, Rabindra Sarani, Rabindra Sarani, Ram Bagan, Kolkata, West Bengal 700073, India",ChIJh935sst3AjoReQVuTby97Xo,29.65,81.07,1,700073,OK,"clothing_store,establishment,point_of_interest,store"
175,TAWO,Tawoche,Taboche,Khumbu Himal (NW of Ama Dablam),6495,21309,12,2,True,False,False,,,1,2,,1974,1,TAWO74101,Apr 15,France,"Louis Dubost, Paul Gendre",,,,Apr 15 1974,175,APPROXIMATE,"Taboche, Khumjung 56000, Nepal",ChIJDSGZaM2p6TkR1xMtnVTOlK8,27.9038889,86.7716667,1,56000,OK,"establishment,natural_feature"
176,KIRA,Kirat Chuli,Tent Peak,Jongsang Himal (N of Kangchenjunga on Indian border),7362,24154,7,1,True,False,False,,,5,2,,1939,2,KIRA39101,May 29,"Switzerland, Germany","Ernst Grob, Herbert Paidar, Ludwig Schmaderer",,,,May 29 1939,176,APPROXIMATE,Kirat Chuli,ChIJn_O5Fu_45jkReeAo4up1V34,27.7883333,88.1958333,1,,OK,"establishment,natural_feature"
177,THAM,Thamserku,Tramserku,Khumbu Himal (SW of Ama Dablam),6618,21713,12,2,True,False,False,,,1,2,,1964,3,THAM64301,Nov 04,New Zealand,"Lynn Crawford, Peter Farrell, John McKinnon, Richard Stewart",,,,Nov 04 1964,177,APPROXIMATE,"Thamserku, 56000, Nepal",ChIJS7Wa7SsE6TkRcEX8jvQHRFU,27.7895215,86.7856208,1,56000,OK,"establishment,natural_feature"
178,THAR,Tharpu Chuli,Tent Peak,Annapurna Himal (Annapurna Sanctuary),5695,18684,1,5,False,False,True,1978.0,,1,2,,1964,3,THAR64301,Oct 23,Japan,"Masaaki Kimura, Kiyoo Shimada",,,,Oct 23 1964,178,APPROXIMATE,"Tharpu Chuli, Ghandruk 33700, Nepal",ChIJByzg0jAevjkRD-icW-1pJjw,28.5528997,83.881259,1,33700,OK,"establishment,natural_feature"
179,TILI,Tilicho,Tilitso,Annapurna-Nilgiri Himal (N of Annapurna I),7134,23406,1,5,True,False,False,,,1,2,,1978,3,TILI78301,Oct 10,France,Emmanuel Schmutz,Reinhold Messner claimns first ascent in autumn of 1971,,,Oct 10 1978,179,APPROXIMATE,"Tilicho Lake, Khangsar 33500, Nepal",ChIJ5w3IIoUZvjkRyisploijZjs,28.683333,83.856667,1,33500,OK,"establishment,natural_feature"
180,TLNG,Talung,,Simhalila Himal (S of Kangchenjunga on Indian border),7349,24111,9,1,True,False,False,,Opened in 2002,5,2,,1964,1,TLNG64101,May 19,"W Germany, Nepal","Franz Lindner, Tenzing Nanda Sherpa",,,,May 19 1964,180,,,,27.655037,88.131023,0,,ZERO_RESULTS,
181,TONG,Tongu,,Mukut Himal (N of Hongde in Hidden Valley),6187,20299,16,6,False,True,False,,,1,2,,1959,3,TONG59301,Oct 21,USA,"John Humphreys, Fred Dunn, John Noxon",,,,Oct 21 1959,181,APPROXIMATE,"North Tongu, Ghana",ChIJaU3lDKwnIRARFYGg8rE-fWo,,,1,,OK,"administrative_area_level_2,political"
182,TRIP,Tripura Hiunchuli,"Tripura Thumba, Hanging Glacier Peak",Kanjiroba Himal (SE of Kanjiroba),6553,21499,10,7,True,False,False,,,1,2,,1986,3,TRIP86301,Oct 17,"Japan, Nepal","Noriyuki Hata, Katashi Tokimoto, Ang Phuri Sherpa",1st ascent of main (north) peak,,,Oct 17 1986,182,APPROXIMATE,"Tripura Hiunchuli, Kaigaun 21400, Nepal",ChIJdY47PE37vDkRdItukCTO0eE,29.3266666,82.7358333,1,21400,OK,"establishment,natural_feature"
183,TSOK,Tso Karpo Kang,Tso Karpo Khang,Kanjiroba Himal (E of Kanjiroba),6556,21509,10,7,True,False,False,,Opened in 2002,1,2,,1971,3,TSOK71301,Oct 25,Japan,"Shoji Miyoshi, Koji Mizutani",,,,Oct 25 1971,183,,,,29.368611,82.781667,0,,ZERO_RESULTS,
184,TUKU,Tukuche,,Dhaulagiri Himal (NE of Dhaulagiri I),6920,22703,4,6,True,False,False,,,1,2,,1970,1,TUKU70101,Apr 30,Japan,"Hirosuke Kikuchi, Eiho Otani, Takao Yonemoto",1st unofficial ascent by USA in 1968?,,,Apr 30 1970,184,APPROXIMATE,"Tukuche, Nepal",ChIJh6P1CCgGvjkReMRrS-EjccM,28.7768018,83.570964,1,,OK,"locality,political"
185,URKM,Urkinmang,Buddha,Jugal Himal (W of Dorje Lhakpa),6143,20154,8,3,True,False,False,,,1,2,,1964,1,URKM64101,May 20,"Japan, Nepal","Akira Ban, Kazuhisa Jokei, Tesuya Kiyohara, Mingma Tshering Sherpa",,,,May 20 1964,185,,,,28.211667,85.669167,0,,ZERO_RESULTS,
186,ANID,Anidesh Chuli,White Wave Peak,Kangchenjunga Himal (W of Kangbachen),6808,22336,9,1,True,False,False,,Opened in 2002,1,1,,0,0,,,,Unclimbed,,,,,186,,,,27.854444,88.197778,0,,ZERO_RESULTS,
187,TSUR,Tsaurabong Peak,"Chara Ban Peak, White Peak",Dhaulagiri Himal (SSE of Dhaulagiri V),6395,20981,4,6,False,True,False,,,1,2,,1974,1,TSUR74101,,"Japan, Nepal","Genzaburo Yamasaki, Sherpas (?)",,,,,187,ROOFTOP,"74 Sarabongdong-gil, Geonip-dong, Cheju, Jeju-do, South Korea",ChIJBdbgpEDjDDURzYvEtgnodYc,28.695278,83.372778,1,690-050,OK,"establishment,point_of_interest"
188,YALU,Yalung Kang,Yalungkar,Kangchenjunga Himal (W summit of Kangchenjunga),8505,27904,9,1,True,False,False,,,1,2,,1973,1,YALU73101,May 14,Japan,"Yutaka Ageta, Takao Matsuda",1st ascent claimed,,,May 14 1973,188,APPROXIMATE,Jalung Kang,ChIJ3UKSHDdY5jkRJGyibMOk2Ks,27.7052,88.1367,1,,OK,"establishment,natural_feature"
189,PASA,Pasang Lhamu Chuli,Jasemba,Khumbu Himal (W of Cho Oyu & Cho Aui on Tibetan border),7350,24114,12,2,True,False,False,,,4,2,,1986,3,PASA86301,Oct 12,Japan,"Katsushi Emura, Yukitoshi Endo, Katsuo Matsuki, Yoshihiro Shikoda",,,,Oct 12 1986,189,,,,28.073333,86.614167,0,,ZERO_RESULTS,
190,RATC,Ratna Chuli,,Peri Himal (NW of Himlung on Tibetan border),7035,23081,18,5,True,False,False,,Opened in 2002,4,2,,1996,3,RATC96301,Oct 14,"Japan, Nepal","Osamu Tanabe, Santa Bahadur Ale, Katsuhiko Sawada, Durge Bahadur Tamang, Tul Bahadur Tamang",,,,Oct 14 1996,190,APPROXIMATE,"Ratna Chuli, Xigaze, Nepal",ChIJf0WKTWvJvzkRnmgzmjVG1Is,28.8641666,84.375,1,,OK,"establishment,natural_feature"
191,KANT,Kanti Himal,"Ronglai Kangri, Kaqur Kangri, Kubi Grangri",Kanti Himal (NNW of Kanjiroba on Tibetan border),6850,22474,11,7,True,False,False,,Opened in 2002,4,2,,2002,3,KANT02301,Sep 24,"Japan, Nepal","Toyoji Wada, Katsumi Nishida, Atsushi Senda, Hyosuke Tsuboi, Yusuke Ueda, Ang Mingm Sherpa, Karchen Dawa Sherpa, Nga Dorje Sherpa",Ascent was from Tibetan side,,,Sep 24 2002,191,GEOMETRIC_CENTER,"26 Veer Savarkar Block 663, Aggarwal Chamber III IV Floor, Vikas Marg, Shakarpur, Shakarpur, Block A, Shakarpur, New Delhi, Delhi 110054, India",ChIJRQtaUq38DDkRSJVAsRaiWHw,29.835833,82.647778,1,110054,OK,"establishment,lawyer,point_of_interest"
192,RAMT,Ramtang,,Kangchenjunga Himal (N of Kangbachen),6601,21657,9,1,True,False,False,,Opened in 1997,1,2,,1930,1,RAMT30101,May,"Austria, UK","Erwin Schneider, Frank Smythe",,,,May 1930,192,APPROXIMATE,"Ramthang, Sikkim 737119, India",ChIJKT0QdHC85jkROqUMTY4ZYdA,27.75,88.085,1,737119,OK,"locality,political"
193,LING,Lingtren,,Khumbu Himal (ENE of Pumori on Tibetan border),6713,22024,12,2,True,False,False,,Opened in 2002,4,2,,1935,2,LING35201,Aug,UK,"Eric Shipton, Dan Bryant",,,,Aug 1935,193,APPROXIMATE,"Lingtren, Xigaze, Nepal",ChIJi4H9G1Os6TkREC_D6sISQ9M,28.027778,86.855,1,,OK,"establishment,natural_feature"
194,TENG,Tengkoma,Tang Kongma,Jongsang Himal (NW of Kangchenjunga),6215,20390,7,1,True,False,False,,Opened in 1997,1,2,,1949,1,TENG49101,Jun 17,"Switzerland, Nepal","Alfred Sutter, Rene Dittert, Annelies Lohner, Jacob Pargaetzi-Almer, Edouard Wyss-Dunant, Pasang Sherpa",,,,Jun 17 1949,194,,,,27.809,88.074,0,,ZERO_RESULTS,
195,RAMC,Ramtang Chang,"Wedge Peak, Chang Himal",Kangchenjunga Himal (N of Ramtang),6802,22316,9,1,True,False,False,,Opened in 2002,1,2,,1974,3,RAMC74301,Oct 05,Yugoslavia,"Janez Gradisar, Bojan Pollak, Michael Smolej",Illegal ascent,,,Oct 05 1974,195,,,,27.766,88.084,0,,ZERO_RESULTS,
196,CHRE,Churen Himal East,,Dhaulagiri Himal (NW of Dhaulagiri VI),7371,24183,4,6,True,False,False,,One permit for Churen Himal's three summits,1,2,,1970,1,CHRE70101,Apr 29,"S Korea, Nepal","Kim Ho-Sup, Rinsing Ongyal Sherpa",,,,Apr 29 1970,196,APPROXIMATE,"Churen Himal, Gurja Khani 21400, Nepal",ChIJl2a5HFOSvTkRyGC7exbhYqM,28.735,83.2166666,1,21400,OK,"establishment,natural_feature"
197,CHRW,Churen Himal West,,Dhaulagiri Himal (NW of Dhaulagiri VI),7371,24183,4,6,True,False,False,,One permit for Churen Himal's three summits,1,2,,1970,3,CHRW70301,Oct 28,"Japan, Nepal","Kozo Hasegawa, Ang Norbu Sherpa",,,,Oct 28 1970,197,,,,28.731755,83.210059,0,,ZERO_RESULTS,
198,CHRI,Chhukung Ri,,Khumbu Himal (S of Lhotse),5550,18209,12,2,False,False,True,2002.0,Opened in 1997; converted to trekking peak in 2002,1,2,,1965,1,CHRI65101,May,Netherlands,Johannes Adolf Noordijk,,,,May 1965,198,,,,27.926057,86.879196,0,,ZERO_RESULTS,
199,KTOK,Kangtokal,Khang Tokal,Dhaulagiri Himal (on ridge N of Putha Hiunchuli),6294,20650,4,6,True,False,False,,Opened in 1997,1,2,,1962,1,KTOK62101,Jun 06,"Japan, Nepal","Zenkichi Hirayama, Ang Temba Sherpa",,,,Jun 06 1962,199,,,,28.801389,83.168889,0,,ZERO_RESULTS,
200,SRKU,Serku Dolma,,Kanjiroba Himal (S of Tso Karpo Kang),6227,20430,10,7,False,True,False,,,1,2,,1973,3,SRKU73301,Oct 30,"Japan, Nepal","Eiken Moriyama, Morihiro Takechi, Anu Sherpa",,,,Oct 30 1973,200,,,,,,0,,ZERO_RESULTS,
201,NALS,Nalakankar South,,Nalakankar Himal (on W Nepal/Tibetan border),6024,19764,17,7,False,True,False,,,4,2,,2000,2,NALS00201,Jul 07,"Japan, Nepal","Tamotsu Ohnishi, Takehiko Yanagihara, Chuldim Nuru Sherpa, Kancha Dawa Sherpa",,,,Jul 07 2000,201,APPROXIMATE,"Kalakankar, Uttar Pradesh 229408, India",ChIJtfhgCW8YmzkRnXJULTRPlA0,30.266667,81.435556,1,229408,OK,"locality,political"
202,CHWT,Changwathang,,Chandi Himal (S of Tibetan border),6130,20112,17,7,True,False,False,,Opened in 2002,1,2,,2000,2,CHWT00201,Jun 28,"Japan, Nepal","Tamotsu Ohnishi, Koji Mizutani, Nobuo Akayama, Takehiko Yanagihara, Chuldim Nuru Sherpa, Dawa Sherpa",,,,Jun 28 2000,202,,,,30.326667,81.885,0,,ZERO_RESULTS,
203,TAKP,Takphu Himal,,Nalakankar Himal (on W Nepal/Tibetan border),6395,20981,17,7,True,False,False,,Opened in 2003,4,1,,0,0,,,,Unclimbed,,,,,203,,,,30.283889,81.417778,0,,ZERO_RESULTS,
204,MALA,Malanphulan,"Melanpulan, Hinku Ri","Khumbu Himal (S of Ama Dablam, NW of Kangtega)",6573,21565,12,2,True,False,False,,Opened in 2014,1,2,,2000,1,MALA00101,Apr 28,USA,"Peter Carse, Amy Bullard",,,,Apr 28 2000,204,,,,27.802778,86.872222,0,,ZERO_RESULTS,
205,LHOM,Lhotse Middle,Lhotse Intermediate,Khumbu Himal (E of Lhotse),8410,27592,12,2,True,False,False,,Opened in 2001,4,2,,2001,1,LHOM01101,May 23,Russia,"Sergei Timofeev, Alexei Bolotov, Piotr Kouznetsov, Evgeni Vinogradski",,,,May 23 2001,205,APPROXIMATE,Lhotse,ChIJpRBEqI1U6DkRbC8oXKc-sVs,27.961089,86.938023,1,,OK,"establishment,natural_feature"
206,SIMN,Simnang Himal,"P2, Simnang Himal East",Manaslu Himal (SE of Manaslu),6251,20509,15,4,True,False,False,,Opened in 2001,1,2,,2001,1,SIMN01101,May 16,Ukraine,"Mistislav Gorbenko, Vadim Leontiev, Sergei Pugachov, Mykhaylo Zagirnyak",,,,May 16 2001,206,,,,28.51651,84.64495,0,,ZERO_RESULTS,
207,HCHI,Hungchhi,"Hunchhi, Chakung, Gyubanare Kang, Gyuba Tshomotse",Khumbu Himal (S of Gyachung Kang on Tibetan border),7029,23061,12,2,True,False,False,,Opened in 2001,4,2,,2003,1,HCHI03102,Apr 19,"Japan, Nepal","Katsuo Fukuhara, Tadashi Morita, Kanji Shimizu, Durga Rai, Hit Bahadur Tamang, Ram Kaji Tamang, Tul Bahadur Tamang",,,,Apr 19 2003,207,APPROXIMATE,"Hungchhi, Xigaze 56000, Nepal",ChIJH6q6Fpmv6TkRgy0PXKviwa4,28.035,86.7583333,1,56000,OK,"establishment,natural_feature"
208,LAMP,Lampo,"Langpo Kangri, Ganesh VI",Ganesh Himal (N of Ganesh I on Tibetan border),6648,21811,5,4,False,True,False,,,4,1,,0,0,,,,Unclimbed,,,,,208,ROOFTOP,"205 Monticello Rd, Charlottesville, VA 22902, USA",ChIJ86UIySCGs4kRfXW0m8HgeYU,28.497983,85.157144,1,22902,OK,"establishment,food,point_of_interest,restaurant"
209,CHUK,Chhukung Tse,Chhukung Chuli,Khumbu Himal (S of Lhotse),5833,19137,12,2,False,False,True,,,1,2,,1953,1,CHUK53101,Apr 03,"UK, Nepal","John Hunt, Tenzing Norgay Sherpa",,,,Apr 03 1953,209,,,,27.938982,86.87466,0,,ZERO_RESULTS,
210,DZAN,Dzanye,Dzanaye,Janak Himal (WNW of Lashar I on Tibetan border),6581,21591,6,1,True,False,False,,,4,2,,1949,1,DZAN49101,Jun 30,Switzerland,"Alfred Sutter, Rene Dittert, Annelies Lohner, Jacob Pargaetzi-Almer, Edouard Wyss-Dunant",,,,Jun 30 1949,210,,,,27.906111,88.026667,0,,ZERO_RESULTS,
211,GAUG,Gaugiri,,Damodar Himal (N of Bhrikuti on Tibetan border),6110,20046,3,5,True,False,False,,Opened in 2002,4,2,,2002,1,GAUG02101,May 28,USA,"Peter Ackroyd, Jim Frush",,,,May 28 2002,211,,,,29.046,84.188,0,,ZERO_RESULTS,
212,TKPO,Tengkangpoche,Thyangmoche,Rolwaling Himal (W of Kwangde),6482,21266,19,2,True,False,False,,Opened in 2001,1,2,,1984,3,TKPO84301,Oct,"UK, USA","Trevor Pilling, Andy Zimet",,,,Oct 1984,212,,,,27.803968,86.59647,0,,ZERO_RESULTS,
213,ARNK,Arniko Chuli,Araniko Chuli,Mukut Himal (W Mustang near Tibetan border),6034,19797,16,6,True,False,False,,Opened in 2002,4,2,,2002,2,ARNK02201,Jul 10,"Japan, Nepal","Tamotsu Ohnishi, Ang Phurba Sherpa, Dikki Sherpa",,,,Jul 10 2002,213,,,,29.176389,83.656944,0,,ZERO_RESULTS,
214,SARI,Saribung,Selibung,Damodar Himal (W of Bhrikuti),6328,20761,3,5,True,False,False,,Opened in 2002,1,2,,2003,3,SARI03301,Oct 15,USA,"Jim Frush, Steve Furman",,,,Oct 15 2003,214,,,,28.885,84.172,0,,ZERO_RESULTS,
215,GHEN,Ghenge Liru,"Ghenye Lirung, Langtang II",Langtang Himal (WSW of Langtang Lirung),6596,21640,13,3,True,False,False,,Opened in 2002,1,2,,1963,1,GHEN63101,May 28,"UK, Nepal","Peter Taylor, Pasang Sherpa, Pasang Phutar Sherpa (I)",,,,May 28 1963,215,GEOMETRIC_CENTER,"La ville au Bois, 77160 Saint-Hilliers, France",ChIJPzHu5Ms170cRgTYas_qZZrc,28.245833,85.422778,1,77160,OK,"establishment,point_of_interest"
216,NAUL,Naulekh,,Khumbu Himal (S of Mera Peak),6340,20801,12,2,True,False,False,,Opened in 2002,1,2,,1954,1,NAUL54101,Jun 08,New Zealand,"Colin Todd, Bill Beaven",,,,Jun 08 1954,216,,,,27.686667,86.9,0,,ZERO_RESULTS,
217,CHEK,Chekigo,,Rolwaling Himal (ENE of Beding village on Tibetan border),6121,20082,19,2,False,False,True,2002.0,Opened in 2002 as trekking peak,4,2,,2005,1,CHEK05101,May 15,"UK, Switzerland","Bruce Normand, Oliver von Rotz",1st known ascent,,,May 15 2005,217,,,,27.832,86.45,0,,ZERO_RESULTS,
218,KTUN,Khatung Khang,,Annapurna-Nilgiri Himal (SW of Thorong La),6484,21273,1,5,True,False,False,,Opened in 2002,1,2,,1956,1,KTUN56101,Apr 12,Switzerland,"Arthur Baumgartner, Marguerite Deriaz",,,,Apr 12 1956,218,APPROXIMATE,"Khong Khong Basti, Assam 782446, India",ChIJ--vhW15uRTcRvvqxd0Dcnj8,28.660556,84.019306,1,782446,OK,"locality,political"
219,CHAG,Chago,,Makalu Himal (NW of Makalu II on Tibetan border),6893,22615,14,2,True,False,False,,Opened in 2002,4,2,,1954,1,CHAG54101,May 29,"New Zealand, Nepal","Michael Ball, Urkien Sherpa",,,,May 29 1954,219,ROOFTOP,"123 Washington Blvd, Montebello, CA 90640, USA",ChIJDQ2w8crPwoARs_NXhSzVBMg,27.926053,87.054029,1,90640,OK,"establishment,food,point_of_interest,restaurant"
220,NUMR,Numri,,"Khumbu Himal (S of Cho Polu, N of Baruntse)",6635,21768,12,2,True,False,False,,Opened in 2002,1,2,,2002,3,NUMR02301,Nov 07,Germany,"Olaf Rieck, Carsten Schmidt, Lydia Schubert",,,,Nov 07 2002,220,,,,28.022222,86.800833,0,,ZERO_RESULTS,
221,PK41,Peak 41,"""True"" Mera Peak",Khumbu Himal (ESE of Ama Dablam),6648,21811,12,2,True,False,False,2002.0,Opened in 2002,1,2,,2002,3,PK4102301,Oct 16,Slovenia,"Matic Jost, Urban Golob, Uros Samec",Rumored that two Americans and two Swiss (and possibly others) summited in earlier years,,,Oct 16 2002,221,RANGE_INTERPOLATED,"41 Peak Blvd, Muskogee, OK, USA",Eh80MSBQZWFrIEJsdmQsIE11c2tvZ2VlLCBPSywgVVNB,27.774,86.909,7,,OK,street_address
222,KYAZ,Kyazo Ri,Kyajo Ri,Khumbu Himal (SW of Gokyo Lake),6151,20180,12,2,False,False,True,2002.0,Opened in 2002 as trekking peak,1,2,,2002,3,KYAZ02301,Oct 20,"UK, France","Duncan Wilson, Vincent Marche",,,,Oct 20 2002,222,APPROXIMATE,"Kyajo Ri, Namche 56000, Nepal",ChIJCz84-jen6TkR2UlkepCIpow,27.9070584,86.6381836,1,56000,OK,"establishment,natural_feature"
223,PAND,Pandra,,Ohmi Kangri Himal (NW of Lhonak),6670,21883,6,1,True,False,False,,Opened in 2002,1,2,,2002,3,PAND02301,Oct 16,Denmark,"Allan Christensen, Bo Belvedere Christensen, Jan Mathorne",,,,Oct 16 2002,223,APPROXIMATE,"Pandra, Jharkhand, India",ChIJiQ-oMqTg9DkRH5Ol9DO4bcU,27.864,87.993 ,1,,OK,"locality,political"
224,DANG,Danga,,"Ohmi Kangri Himal (WNW of Lhonak, E of Nupchu)",6220,20407,6,1,True,False,False,,Opened in 2002,1,2,,2002,3,DANG02301,Oct 20,Denmark,"Allan Christensen, Bo Belvedere Christensen, Jan Mathorne",,,,Oct 20 2002,224,ROOFTOP,"91 Randhurst Village Dr #117, Mt Prospect, IL 60056, USA",ChIJBzMepiC6D4gRkysMewhKfTc,27.816,87.977,2,60056,OK,"establishment,health,point_of_interest"
225,POKR,Pokharkang,Pokhar Khang,Damodar Himal (N of Pisang Peak),6372,20906,3,5,True,False,False,,Opened in 2002,1,2,,2002,3,POKR02301,Nov 17,"UK, Nepal","Richard Scott, Dave Wynne-Jones, Kaji Sherpa","Japanese team led by Koichi Kato climbed NW Smt on Oct 31, 2002 [which they thought was the highest]",,,Nov 17 2002,225,,,,,,0,,ZERO_RESULTS,
226,NAG1,Nangpai Gosum I,"Nagpai Gosum I, Cho Aui",Khumbu Himal (WSW of Cho Oyu on Tibetan border),7321,24019,12,2,True,False,False,,Opened in 2002,4,1,,0,0,,,,Unclimbed,,,,,226,APPROXIMATE,"Nangpai Gosum, Xigaze 56000, Nepal",ChIJMSq66iy96TkRI-85rxg9IOQ,28.07358,86.614393,1,56000,OK,"establishment,natural_feature"
227,KGRI,Khangri Shar,,Khumbu Himal (W of Pumori),6792,22283,12,2,True,False,False,,Opened in 2002,1,1,,0,0,,,,Unclimbed,,,,,227,,,,28.02,86.812,0,,ZERO_RESULTS,
228,KGRW,Khangri West,,Khumbu Himal (W of Pumori),6658,21844,12,2,True,False,False,,Opened in 2002,1,1,,0,0,,,,Unclimbed,,,,,228,APPROXIMATE,"Khangri, Rajasthan, India",ChIJKwPtQ--LQjkRF421UlG-19w,28.019241,86.790461,1,,OK,"locality,political"
229,PURB,Purbung Himal,Putrung,Damodar Himal (N of Chulu West),6500,21325,3,5,True,False,False,,Opened in 2002,1,1,,0,0,,,,Unclimbed,,,,,229,,,,28.802,84.018,0,,ZERO_RESULTS,
230,TASH,Tashi Kang,Tashi Khang,Mukut Himal (N of Dhampus Peak),6386,20951,16,6,True,False,False,,Opened in 2002,1,2,,2002,2,TASH02201,Aug 14,"Japan, Nepal","Yasue Mogi, Gyalzen Sherpa",,,,Aug 14 2002,230,GEOMETRIC_CENTER,"Tashi Line, Zhuanghe Shi, Dalian Shi, Liaoning Sheng, China",ChIJKWwkfMsGKl4RJpFrynWQ5Eg,28.853,83.629,2,,OK,"establishment,health,pharmacy,point_of_interest,store"
231,TENR,Tengi Ragi Tau,"Agole, Angole",Rolwaling Himal (N of Tesi Laptsa),6938,22762,19,2,True,False,False,,Opened in 2002,1,2,,2002,4,TENR02401,Dec 04,"Japan, Nepal","Koichi Ezaki, Ruchia Takahashi, Pasang Tamang, Tul Bahadur Tamang",,,,Dec 04 2002,231,APPROXIMATE,"Tengi Ragi Tau, Namche, Nepal",ChIJ_4IzQRN16TkRg9ca5fitCMg,27.8575,86.5541666,1,,OK,"establishment,natural_feature"
232,KYAS,Kyashar,"Peak 43, Tangnag Tseng",Khumbu Himal (S of Kantega),6770,22211,12,2,True,False,False,,Opened in 2002,1,2,,2003,3,KYAS03301,Oct 18,"UK, Austria, Swiss","Bruce Normand, Sam Broderick, Andreas Frank",,,,Oct 18 2003,232,APPROXIMATE,"Kyashar, Chaurikharka 56000, Nepal",ChIJ8x9YXIcD6TkRIKnJnG7FO4k,27.755,86.8224999,1,56000,OK,"establishment,natural_feature"
233,NREK,Nirekha,,Khumbu Himal (NW of Lobuje Peak),6159,20207,12,2,False,False,True,2002.0,Opened in 2002 as trekking peak,1,2,,0,0,,,,1st ascent unknown,Climbing history unknown,,,,233,,,,27.977568,86.762939,0,,ZERO_RESULTS,
234,NORB,Norbu Kang,Norbu Khang,Kanjiroba Himal (SE of Phoksumdo Tal),6085,19964,10,7,True,False,False,,Opened in 2002,1,2,,2003,2,NORB03201,Jun 25,"Japan, Nepal","Tamotsu Ohnishi, Tazuko Inoue, Koji Mizutani, Takehiro Yanigahara, Chuldim Nuru Sherpa, Kancha Dawa Sherpa",2010 German team says 2003 Japanese team did not climb main peak,,,Jun 25 2003,234,,,,29.117222,83.092778,0,,ZERO_RESULTS,
235,LNKE,Lunchhung Kamo East,,Kanti Himal (SE of Danfe Sail on Tibetan border),6024,19764,11,7,False,True,False,,,1,2,,1999,2,LNKE99201,Jul 09,"Japan, Nepal","Tamotsu Ohnishi, Takehiko Yanagihara, Chuldim Nuru Sherpa, Kancha Dawa Sherpa",,,,Jul 09 1999,235,,,,,,0,,ZERO_RESULTS,
236,LIK1,Linkhu Chuli Shar,"Bigphera-Go Shar, Pigpferago Shar, Linkhu Chuli I",Rolwaling Himal (S of Parchamo),6719,22044,19,2,True,False,False,,Opened in 2003,1,1,,0,0,,,,Unclimbed,,,,,236,,,,27.808787,86.540882,0,,ZERO_RESULTS,
237,LIK2,Linkhu Chuli Nup,"Bigphera-Go Nup, Pigpferago Nup, Linkhu Chuli II","Rolwaling Himal (SSW of Parchamo, W of Likhu Chuli Shar)",6659,21847,19,2,True,False,False,,Opened in 2003,1,2,,1960,3,LIK260301,Oct 21,"France, Nepal","Alain Barbezat, Cecile Barbezat, Nawang Dorje Sherpa",,,,Oct 21 1960,237,,,,27.805,86.524,0,,ZERO_RESULTS,
238,PANT,Panalotapa,"Paniyo Tapa, Paniyo Tippa",Rolwaling Himal (W of Tengkangpoche),6687,21939,19,2,True,False,False,,Opened in 2003,1,2,,1955,1,PANT55101,May,UK,"Peter Boultbee, Dennis Davis",,,,May 1955,238,,,,27.805444,86.570056,0,,ZERO_RESULTS,
239,SHAL,Shalbachum,"Salbachum, Phrul Rangtshan Ri",Langtang Himal (E of Langtang Lirung on Tibetan border),6707,22005,13,3,True,False,False,,Opened in 2003,4,2,,1959,3,SHAL59301,Oct 25,"Japan, Nepal","Sadao Hojo, Tetsuro Terahata, Dawa Thondup Sherpa, Pasang Temba Sherpa",,,,Oct 25 1959,239,,,,28.272778,85.633333,0,,ZERO_RESULTS,
240,KHUM,Khumbutse,,Khumbu Himal (NW of Lho La on Tibetan border),6639,21781,12,2,True,False,False,,,4,1,,0,0,,,,Unclimbed,1989 Polish Everest team traversed S Smt of Khumbutse (~6400m),,,,240,,,,28.021179,86.872616,0,,ZERO_RESULTS,
241,BOKT,Boktoh,Bokta,Kangchenjunga Himal (SE of Jannu),6114,20059,9,1,False,False,True,,Opened in 2002,1,2,,1991,1,BOKT91101,Apr 10,Yugoslavia,"Marko Prezelj, Uros Rupar, Andrej Stremfelj",Boktoh possibly climbed in 1959 by Lionel Terray and Rene Desmaison during exploration of Jannu SW side,,,Apr 10 1991,241,,,,27.620833,88.0075,0,,ZERO_RESULTS,
242,MOJC,Mojca,Mojka,Kangchenjunga Himal (W of Ramtang Chang),6024,19764,9,1,True,False,False,,Opened in 2002,1,2,,1974,3,MOJC74301,Oct 11,Yugoslavia,"Stane Belak, Danilo Cedilnik",Illegal ascent,,,Oct 11 1974,242,ROOFTOP,"Levičnikova ulica 11, 1000 Ljubljana, Slovenia",ChIJ6aHyHUnNekcRrCW5e1rBi0I,27.770833,88.051111,2,1000,OK,"establishment,point_of_interest,school"
243,PLNG,Palung,Palung Ri,Langtang Himal,7012,23005,12,2,False,True,False,,Peak entirely within China,2,2,,1952,1,PLNG52101,May 13,New Zealand,"Edmund Hillary, George Lowe",,,,May 13 1952,243,APPROXIMATE,"Palung, 44100, Nepal",ChIJJxJJdTgw6zkRYQDlDUQNrfU,28.385556,85.711111,1,44100,OK,"political,sublocality,sublocality_level_1"
244,TUTS,Tutse,"Peak 6, Nephu",Makalu Himal (SE of Makalu),6758,22172,14,2,True,False,False,,Opened in 2003,1,1,,0,0,,,,Unclimbed?,Possibly climbed during acclimatization for Makalu by various teams,,,,244,ROOFTOP,"640 S Queen St, Dover, DE 19904, USA",ChIJh_RzQ6t8x4kRK-hj702oeew,27.771944,87.101389,1,19904,OK,"doctor,establishment,health,point_of_interest"
245,NUPE,Nuptse East I,,Khumbu Himal (W of Nuptse main summit),7795,25574,12,2,True,False,False,,Requires permit for Nuptse,1,2,,2003,3,NUPE03301,Nov 02,Russia,"Valeri Babanov, Yuri Kochelenko",,,,Nov 02 2003,245,GEOMETRIC_CENTER,"Nuptse Marga, Kathmandu 44600, Nepal",ChIJWRAj7pEZ6zkR9aXrD47juqs,27.961679,86.893916,1,44600,OK,route
246,AMOT,Amotsang,Amatson,Damodar Himal (NW of Pokharhan),6393,20974,3,5,True,False,False,,Opened in 2002,1,1,,0,0,,,,Unclimbed?,,,,,246,ROOFTOP,"M-2-22, City Mall, Jalan Lintas, Taman Milik 1, 88300 Kota Kinabalu, Sabah, Malaysia",ChIJa75MbA9pOzIRVke7lw6DX-0,28.835278,84.172222,2,88300,OK,"clothing_store,establishment,point_of_interest,store"
247,YANS,Yansa Tsenji,"Dragpoche, Dhagpache",Langtang Himal (SW of Shalbachum on Tibetan border),6567,21545,13,3,True,False,False,,Opened in 2003,1,1,,0,0,,,,Unclimbed,,,,,247,,,,28.256389,85.611111,0,,ZERO_RESULTS,
248,HIMJ,Himjung,Nemjung Goth,Peri Himal (S of Himlung Himal),7092,23268,18,5,True,False,False,20.0,Opened in 2002,1,2,,2012,3,HIMJ12301,Oct 12,S Korea,"Kim Chang-Ho, An Chi-Young",,,,Oct 12 2012,248,,,,28.758056,84.417778,0,,ZERO_RESULTS,
249,AMPH,Amphu I,,"Khumbu Himal (E of Amphu Laptsa, W of Baruntse)",6740,22113,12,2,True,False,False,,Opened in 2002,1,2,,2013,3,AMPH13301,Oct 09,S Korea,"Ahn Il-Evn, An Chi-Young, Kim Young-Mi, Oh Young-Hoon",,,,Oct 09 2013,249,ROOFTOP,"67/59 ตำบล แม่น้ำ Tambon Mae Nam, Amphoe Ko Samui, Chang Wat Surat Thani 84320, Thailand",ChIJ1ayqwFT3VDARAitzalR2UPM,27.871033,86.955577,1,84320,OK,"establishment,lodging,point_of_interest"
250,CHAB,Chabuk,Tsajirip,Ohmi Kangri Himal (E of Ohmi Kangri on Tibetan border),6792,22283,6,1,True,False,False,,Opened in 2002,4,1,,0,0,,,,Unclimbed,,,,,250,,,,27.9,88.0833,0,,ZERO_RESULTS,
251,CHAK,Chako,,Damodar Himal (ESE of Bhrikuti Shail),6704,21995,3,5,True,False,False,,Opened in 2003,1,2,,2007,2,CHAK07201,Jul 24,"Japan, Nepal","Kazhisa Kamisaka, Akio Omura, Hari Bahadur Chaulagai, Ang Phuri Lama",,,,Jul 24 2007,251,ROOFTOP,"98 Courtneypark Dr E, Mississauga, ON L5T 2Y3, Canada",ChIJ7y3DTXg_K4gR6IjsbV_FXUU,28.8805,84.2847,1,L5T 2Y3,OK,"establishment,food,point_of_interest,restaurant"
252,DOMK,Dome Kang,,Jongsang Himal (ESE of Jongsong on Indian border),7264,23832,7,1,True,False,False,,Opened in 2002,5,2,,2009,1,DOMK09101,Apr 28,"Spain, Nepal","Emilio Lagunilla, Carlos Soria, Chhang Dawa Sherpa, Karma Gyalzen Sherpa, Halung Dorchi Sherpa",,,,Apr 28 2009,252,,,,27.877778,88.151111,0,,ZERO_RESULTS,
253,GHAN,Ghhanyala Hies,,Janak Himal (NW of Janak Chuli on Tibetan border),6744,22126,6,1,True,False,False,,Opened in 2002,4,1,,0,0,,,,Unclimbed,,,,,253,,,,27.895833,88.0825,0,,ZERO_RESULTS,
254,HUNK,Hunku,,Khumbu Himal (NNE of Peak 41),6119,20075,12,2,False,True,False,,"Opened in 2002, delisted in 2013?",1,2,,2012,3,HUNK12302,Nov 11,UK,"Nick Bullock, Andy Houseman",,,,Nov 11 2012,254,,,,27.806111,86.928056,0,,ZERO_RESULTS,
255,JANK,Janak Chuli,"Janak, Outlier",Janak Himal (WNW of Jongsang on Tibetan border),7041,23100,6,1,True,False,False,,Opened in 2002,4,2,,2006,1,JANK06101,May 06,Slovenia,"Andrej Stremfelj, Rok Zalokar",,,,May 06 2006,255,,,,27.872,88.091,0,,ZERO_RESULTS,
256,KABS,Kabru South,,Simhalila Himal (S of Kabru North on Indian border),7318,24009,9,1,True,False,False,,Opened in 2003,5,2,,1994,1,KABS94101,May 12,India,"S. P. Malik, N. Arshad, 11 members",,,,May 12 1994,256,APPROXIMATE,Kabru,ChIJm1vXqMVe5jkREblicwWjDso,27.6341666,88.1183333,1,,OK,"establishment,natural_feature"
257,KABR,Kabru Main,Kabru Central,Simhalila Himal (S of Talung on Indian border),7412,24318,9,1,True,False,False,,Opened in 2014,5,2,,1994,1,KABR94101,May 12,India,"Dan Singh, 2 unknown members",,,,May 12 1994,257,APPROXIMATE,Kabru,ChIJm1vXqMVe5jkREblicwWjDso,27.635,88.118333,1,,OK,"establishment,natural_feature"
258,LASH,Lashar I,Loshar I,Janak Himal (NW of Lashar II on Tibetan border),6842,22448,6,1,True,False,False,,Opened in 2002,4,2,,2005,3,LASH05301,Oct 12,Slovenia,"Andrej Stremfelj, Miha Habjan",,,,Oct 12 2005,258,APPROXIMATE,"Lashari, Pakistan",ChIJCcBPfgJ3GDkR6Ulfs0tSX68,27.896,88.054,1,,OK,"locality,political"
259,LAS2,Lashar II,Loshar II,Janak Himal (SW of Ghhanyala Hies on Tibetan border),6803,22320,6,1,True,False,False,,Opened in 2002,4,1,,0,0,,,,Unclimbed,,,,,259,GEOMETRIC_CENTER,"Street No. 2, Bahawalpur, Pakistan",ChIJW7jZwJOQOzkR3q9AV6qdfAk,27.887,88.065,2,,OK,route
260,NAG2,Nangpai Gosum II,"Nagpai Gosum II, Chamar",Khumbu Himal (WSW of Cho Oyu on Tibetan border),7287,23907,12,2,True,False,False,,Opened in 2002,4,1,,0,0,,,,Unclimbed,,,,,260,APPROXIMATE,"Nangpai Gosum, Xigaze 56000, Nepal",ChIJMSq66iy96TkRI-85rxg9IOQ,28.072222,86.614444,1,56000,OK,"establishment,natural_feature"
261,NANG,Nangamari I,,Ohmi Kangri Himal (W of Chaw Peak on Tibetan border),6547,21480,6,1,True,False,False,,Opened in 2003,4,2,,2010,3,NANG10301,Nov 05,Australia,"Timothy Macartney-Snape, David Barton",,,,Nov 05 2010,261,,,,27.910556,87.868056,0,,ZERO_RESULTS,
262,PANB,Panbari,,Peri Himal (NW of Larkya La),6905,22654,18,5,True,False,False,,Opened in 2002,1,2,,2006,3,PANB06301,Sep 29,Japan,"Yoshimi Kato, Gakuto Komiya, Sayaka Koyama, Kenro Nakajima, Yosuke Urabe",,,,Sep 29 2006,262,APPROXIMATE,"Panbari, West Bengal, India",ChIJxW8kjPqL4zkR87KrovXi8GA,28.718889,84.4825,2,,OK,"locality,political"
263,PHNH,Phungi Himal,,Manaslu Himal (W of Manaslu),6538,21450,15,4,True,False,False,,Opened in 2003,1,1,,0,0,,,,Unclimbed,,,,,263,,,,28.554444,84.485833,0,,ZERO_RESULTS,
264,MARI,Mariyang,,Kanti Himal (SE of Kanti Himal on Tibetan border),6528,21417,11,7,True,False,False,,Opened in 2003,4,1,,0,0,,,,Unclimbed,,,,,264,,,,29.693056,82.890278,0,,ZERO_RESULTS,
265,TKRG,Takargo,Dragker-go,Rolwaling Himal (E of Chobutse),6771,22215,19,2,True,False,False,,Opened in 2003,1,2,,2010,1,TKRG10101,Mar 12,USA,"David Gottlieb, Joseph Puryear",,,,Mar 12 2010,265,,,,27.876,86.509,0,,ZERO_RESULTS,
266,THUL,Thulagi,Mansiri Himal,Manaslu Himal (SW of Manaslu),7059,23159,15,4,True,False,False,,Opened in 2003,1,2,,2015,3,THUL15301,Sep 26,Russia,"Alexander Gukov, Ivan Dozhdev, Ruslan Kirichenko, Valeri Shamalo",,,,Sep 26 2015,266,,,,28.528124,84.520693,0,,ZERO_RESULTS,
267,JOMS,Jomsom Himal,Jomsang Himal,Damodar Himal (WNW of Amotsang Himal),6335,20784,3,5,True,False,False,,Opened in 2002,1,2,,2003,3,JOMS03301,Nov 04,"France, Nepal","Hugues De Varax, Yves Exbrayat, Frederique Gaume, Paulo Grobel, Mingma Temba Sherpa",,,,Nov 04 2003,267,,,,28.871944,84.158333,0,,ZERO_RESULTS,
268,BAMO,Bamongo,,Rolwaling Himal (E of Chekigo on Tibetan border),6406,21017,19,2,True,False,False,,Opened in 2002,4,2,,2013,3,BAMO13301,Oct 30,"Nepal, China","Mingma Gyalje Sherpa, Yong Liu, Pema Chhiring/Chhiri Sherpa",,,,Oct 30 2013,268,,,,27.909167,86.431944,0,,ZERO_RESULTS,
269,CHAW,Chaw Peak,,Ohmi Kangri Himal (WNW of Ohmi Kangri on Tibetan border),6404,21010,6,1,True,False,False,,Opened in 2002,4,1,,0,0,,,,Unclimbed,,,,,269,GEOMETRIC_CENTER,"Hong Kong, The Peak, 山頂山頂道118號山頂廣場1樓16-18號鋪",ChIJqQ1sgHMABDQRHy_67yNuJE4,27.909444,87.943611,2,,OK,"establishment,jewelry_store,point_of_interest,store"
270,DING,Dingjung North,"Kangkuru, Rima Mancho",Rolwaling Himal (S of Pangbuk Ri on Tibetan border),6249,20502,19,2,True,False,False,,Opened in 2014,4,2,,1955,1,DING55101,May 16,UK,"Peter Boultbee, Dennis Davis",This team called the peak Kangkuru,,,May 16 1955,270,APPROXIMATE,"Dingjung, Namche 56000, Nepal",ChIJ581cj56g6TkRTo7qh5TWAiE,27.987778,86.516944,1,56000,OK,"neighborhood,political"
271,KNAG,Kang Nagchugo,Khang Nagchugo,Rolwaling Himal (E of Chekigo on Tibetan border),6737,22103,19,2,True,False,False,,Opened in 2002,4,2,,2008,3,KNAG08301,Oct 17,USA,"Joseph Puryear, David Gottlieb",,,,Oct 17 2008,271,,,,27.906,86.442,0,,ZERO_RESULTS,
272,KBON,Kambong,Konabon,Dhaulagiri Himal (SE of Gurja Himal),6570,21555,4,6,True,False,False,,Opened in 2003,1,1,,0,0,,,,Unclimbed,,,,,272,APPROXIMATE,"Kambong, The Gambia",ChIJ66ksV4Ft6A4Rgx5e-RRWXKs,28.668611,83.313333,2,,OK,"neighborhood,political"
273,KHAM,Khamjung,"Khumjung, Khamjungar",Damodar Himal (W of Saribung and Bhrikuti),6759,22175,3,5,True,False,False,,Opened in 2002,1,2,,0,0,,,,Climbed?,Likely climbed in 1982 by Japanese,,,,273,APPROXIMATE,"Khumjung, Nepal",ChIJ8Z_m7Xap6TkR2kPKWrH9p3U,28.889167,84.129722,1,,OK,"locality,political"
274,KYR1,Kyungka Ri 1,Kyungya Ri 1,Langtang Himal (NE of Shalbachum near Tibetan border),6599,21650,13,3,True,False,False,,Opened in 2003,1,1,,0,0,,,,Unclimbed?,Ascent claimed by Italians in 1963 (Lino Andreotti) by likely on different peak,,,,274,,,,28.325833,85.661667,0,,ZERO_RESULTS,
275,KYR2,Kyungka Ri 2,Kyungya Ri 2,Langtang Himal (NE of Shalbachum on Tibetan border),6506,21345,13,3,True,False,False,,Opened in 2003,4,1,,0,0,,,,Unclimbed,,,,,275,,,,28.303333,85.667222,0,,ZERO_RESULTS,
276,KOJI,Kojichuwa Chuli,,Kanti Himal (NNW of Kanti Himal peak on Tibetan border),6439,21125,11,7,True,False,False,,Opened in 2003,4,2,,2010,1,KOJI10101,May 25,Japan,"Ken Fujikawa, Yuta Kawamura, Satoshi Kimoto",,,,May 25 2010,276,,,,29.867,82.643,0,,ZERO_RESULTS,
277,CHIV,Chhiv Himal,Chhib Himal,Damodar Himal (SW of Saribang and WSW of Bhrikuti),6650,21818,3,5,True,False,False,,Opened in 2002,1,2,,2004,3,CHIV04301,Sep 18,Japan,"Takeshi Wada, Mitsuhiro Koseki, Yubo Shibata, Takeo Yoshinaga",,,,Sep 18 2004,277,,,,28.874,84.16,0,,ZERO_RESULTS,
278,LMOC,Langmoche Ri,,Rolwaling Himal (N of Tesi Laptsa),6552,21496,19,2,True,False,False,,Opened in 2002,1,2,,2012,3,LMOC12301,Nov 17,USA,"Roberto Villanueva, Alan Rousseau",,,,Nov 17 2012,278,,,,27.865556,86.612222,0,,ZERO_RESULTS,
279,LCHA,Lachama Chuli,"Kubi Kangri, Kubi Dongdong",Changla Himal (N of Gorakh Himal on Tibetan border),6721,22051,17,7,True,False,False,,Opened in 2003,4,2,,2007,3,LCHA07301,Sep 14,Japan,"Atsushi Senda, Ryouta Fujii, Keizou Ishikawa, Hiroshi Kobayashi, Kouhei Kotani, Naoki Shimozato, Yuhki Tani",,,,Sep 14 2007,279,,,,30.135556,82.199444,0,,ZERO_RESULTS,
280,PAN1,Panpoche 1,"Pang Phunch 1, Kutang Himal",Manaslu Himal (NE of Sama village near Tibetan border),6620,21719,15,4,True,False,False,,Opened in 2003,1,1,,0,0,,,,Unclimbed,,,,,280,,,,28.628819,84.681699,0,,ZERO_RESULTS,
281,PAN2,Panpoche 2,Pang Phunch 2,Manaslu Himal (NE of Sama village near Tibetan border),6504,21339,15,4,True,False,False,,Opened in 2003,1,1,,0,0,,,,Unclimbed,,,,,281,RANGE_INTERPOLATED,"2 Panoche Rd, Paicines, CA 95043, USA",EiUyIFBhbm9jaGUgUmQsIFBhaWNpbmVzLCBDQSA5NTA0MywgVVNB,28.614167,84.686944,1,95043,OK,street_address
282,PHOL,Phole,,Kangchenjunga Himal (W of Kumbhakarna and Sobitongie),6645,21801,9,1,True,False,False,,Opened in 2002,1,1,,0,0,,,,Unclimbed,,,,,282,ROOFTOP,"90 Broad St, Red Bank, NJ 07701, USA",ChIJF9m79DcwwokRYk77AEPoMbM,27.686944,88.010278,1,07701,OK,"establishment,food,point_of_interest,restaurant"
283,PHUK,Phu Kang,Phu Khang,Peri Himal (N of Cheo Himal on Tibetan border),6694,21962,18,5,True,False,False,,Opened in 2003,4,1,,0,0,,,,Unclimbed,,,,,283,ROOFTOP,"5201 NJ-38, Merchantville, NJ 08109, USA",ChIJEQTkRmPJxokRy4Z9khqpQD0,28.793056,84.4475,1,08109,OK,"establishment,food,point_of_interest,restaurant"
284,LNGK,Langchung Khang,Langpo Chung,Jongsang Himal (NW of Langpo on Indian border),6786,22264,7,1,True,False,False,,Opened in 2002,4,1,,0,0,,,,Unclimbed?,,,,,284,,,,27.8564,88.1782,0,,ZERO_RESULTS,
285,PK04,Peak 4,Shershon Ri,Khumbu Himal (SE of Baruntse),6736,22100,12,2,True,False,False,,Opened in 2003,1,1,,0,0,,,,Unclimbed,,,,,285,ROOFTOP,"4 Peak Ln, Hillsborough Township, NJ 08844, USA",ChIJs8M224Lrw4kRVCcGSPyNsf8,27.826944,87.050833,3,08844,OK,premise
286,NAM2,Nampa II,,Api Himal (W of Nampa),6585,21604,2,7,True,False,False,,Opened in 2002,1,1,,0,0,,,,Unclimbed,,,,,286,GEOMETRIC_CENTER,"2nd St S, Nampa, ID, USA",ChIJX195BhVMrlQRRQljEiMVS_E,30.0425,81.1075,4,,OK,route
287,NAM3,Nampa III,Nampa Chuli,Api Himal (SE of Nampa),6611,21690,2,7,True,False,False,,Opened in 2002,1,1,,0,0,,,,Unclimbed,,,,,287,GEOMETRIC_CENTER,"3rd St S, Nampa, ID 83651, USA",ChIJDUt59mVMrlQRec_1XxRsCWg,29.982778,81.0175,4,83651,OK,route
288,NAMS,Nampa South,,"Api Himal (S of Nampa, W of Nampa Chuli)",6130,20112,2,7,True,False,False,,Opened in 2002,1,1,,0,0,,,,Unclimbed?,,,,,288,ROOFTOP,"229 W Greenhurst Rd, Nampa, ID 83686, USA",ChIJXVEH4VtJrlQRgrdgq5rg_yE,29.966667,81.016667,1,83686,OK,"establishment,point_of_interest,school"
289,SOBI,Sobithongie,,Kangchenjunga Himal (W of Kumbhakarna),6652,21824,9,1,True,False,False,,Opened in 2002,1,1,,0,0,,,,Unclimbed,,,,,289,,,,27.686389,88.028333,0,,ZERO_RESULTS,
290,SHER,Shershon,Peak 3,Makalu Himal (NE of Shershon village on Tibetan border),6432,21102,14,2,True,False,False,,Opened in 2003,4,1,,0,1,,,,Unclimbed,,,,,290,APPROXIMATE,"Shershon, 56900, Nepal",ChIJ7cwBT0j36DkR4UQrbnRXMUg,27.80959,87.080844,1,56900,OK,"neighborhood,political"
291,SWAK,Swaksa Kang,,Kanti Himal (SE of Kanti Himal peak on Tibetan border),6405,21014,11,7,True,False,False,,Opened in 2003,4,1,,0,0,,,,Unclimbed,,,,,291,,,,29.6875,82.86,0,,ZERO_RESULTS,
292,TILJ,Tilje,,Peri Himal (SE of Gyajikang),6530,21424,2,7,True,False,False,,Opened in 2002,1,1,,0,0,,,,Unclimbed,,,,,292,APPROXIMATE,"Tilja, Uttar Pradesh 272125, India",ChIJsyl0474pkTkRXnpA8LAQuZc,28.618056,84.335833,1,272125,OK,"locality,political"
293,TSAR,Tsartse,,Mukut Himal (N of Dhampus Peak),6343,20810,16,6,True,False,False,,Opened in 2002,1,1,,0,0,,,,Unclimbed,,,,,293,ROOFTOP,"R. Cap. Antônio Rosa, 409 - Jardim Paulistano, São Paulo - SP, 01443-010, Brazil",ChIJpRzwnXhXzpQRv4woXaSpEd4,28.860278,83.649722,1,01443-010,OK,"establishment,point_of_interest"
294,YAKA,Yakawa Kang,,Damodar Himal (N of Thorong La),6482,21266,3,5,True,False,False,,Opened in 2003,1,2,,2010,3,YAKA10301,Nov 07,"Japan, Nepal","Hidenobu Tsuji, Dawa Norbu Sherpa, Dawa Tshering Sherpa, Tshering Tashi Sherpa",,,,Nov 07 2010,294,APPROXIMATE,"Yakawakang, Tanki Manang 33500, Nepal",ChIJUaui6-89vjkROv1iheCJXcU,28.8044437,83.9437866,1,33500,OK,"establishment,natural_feature"
295,YAUP,Yaupa,,Makalu Himal (NE of Shershon village on Tibetan border),6422,21070,14,2,True,False,False,,Opened in 2003,4,2,,1989,3,YAUP89301,Sep,"UK, USA","Andy Fanshawe, Vic Saunders, Stephen Sustad",,,,Sep 1989,295,,,,27.833611,87.128889,0,,ZERO_RESULTS,
296,TILK,Til Kang,,Nalakankar Himal (on W Nepal/Tibetan border),6369,20896,17,7,True,False,False,,Opened in 2003,4,1,,0,0,,,,Unclimbed,,,,,296,ROOFTOP,"2000 Dwight Way, Berkeley, CA 94704, USA",ChIJJSZaC4N-hYARHGxzt9jvyOU,30.27,81.414722,1,94704,OK,"establishment,health,point_of_interest"
297,YOKO,Yokopahar,Nampa VIII,Guras Himal (NNE of Nampa towards Tibetan border),6423,21073,2,7,True,False,False,,Opened in 2002,4,1,,0,0,,,,Unclimbed,,,,,297,,,,29.835278,81.110556,0,,ZERO_RESULTS,
298,SALW,Saldim West,"Peak 5, Saldim Ri, Yaphu Ri",Makalu Himal (ENE of Shershon village on Tibetan border),6388,20958,14,2,True,False,False,,Opened in 2003,4,2,,2016,3,SALW16301,Nov 01,Romania,"Vlad Capusan, Zolt Torok",,,,Nov 01 2016,298,,,,27.824167,87.159167,0,,ZERO_RESULTS,
299,SAMD,Samdo,,Manaslu Himal (NNE of Panpoche 1 & 2 on Tibetan border),6335,20784,15,4,True,False,False,,Opened in 2003,4,2,,2009,3,SAMD09302,Oct 20,Japan,"Yasuke Kuramoto, Yoshitaka Kameoka, Kohei Kotani, Seiya Nakasukasa, Daisuke Nakatsuka, Hiroki Yamamoto",,,,Oct 20 2009,299,ROOFTOP,"5511 Orangethorpe Ave, La Palma, CA 90623, USA",ChIJOT8tOGks3YARzJzPLJoWpfQ,28.636111,84.696944,1,90623,OK,"bar,cafe,establishment,food,point_of_interest,restaurant"
300,PURK,Purkhung,"Purkhang, Purkung",Damodar Himal (NE of Thorong La),6126,20098,3,5,True,False,False,,Opened in 2002,1,2,,2004,2,PURK04201,Aug 16,Japan,"Yuchiro Ishihara, Satoru Endo, Hirayusu Hatsushiya, Teryuki Iwasaki, Terukai Kubo, Kazuko Takano, Hiroshi Yumoto, Ang Kami, Da Chhemba, Gelu, Lhakpa Tenzi, Pema Tenji, Wongchu Sherpas",,,,Aug 16 2004,300,,,,28.814722,83.9925,0,,ZERO_RESULTS,
301,DZAS,Dzasampatse,,Khumbu Himal (S of Pasang Lhamu Chuli),6295,20653,12,2,False,True,False,,,1,2,,2004,3,DZAS04301,Oct 18,Slovenia,"Urban Azman, Tadej Golob",,,,Oct 18 2004,301,,,,28.047,86.61,0,,ZERO_RESULTS,
302,SWEL,Swelokhan,,Manaslu Himal (N of Samdo village on Tibetan border),6180,20276,15,4,True,False,False,,Opened in 2003,4,1,,0,0,,,,Unclimbed,,,,,302,,,,28.728056,84.645833,0,,ZERO_RESULTS,
303,MUPK,Mustang Peak,,Mustang Himal (S of Mustang Himal peak on Tibetan border),6229,20436,16,6,False,True,False,,,1,2,,2001,3,MUPK01301,Oct 07,"Japan, Nepal","Tomatsu Ohnishi, Koji Mizutani, Takehiko Yanagihara, Katsuhiko Asahi, Mingma Nuru Sherpa, Chuldin Nuru Sherpa, Kancha Dawa Sherpa",Not same peak as Mustang Himal (6195m) on current Ministry list.,,,Oct 07 2001,303,APPROXIMATE,"Mustang Peak, California 95360, USA",ChIJm75X2BjCkYARZo5Hv1ecadw,,,1,95360,OK,"establishment,natural_feature"
304,JING,Jinjang,"Genjang, Gajang, Jijang",Damodar Himal (E of Thorong La),6111,20049,3,5,True,False,False,,Opened in 2002,1,2,,0,0,,,,Climbed by Japanese in April 1983?,,,,,304,APPROXIMATE,"Jinjang, Metro Prima, 52100 Kuala Lumpur, Wilayah Persekutuan Kuala Lumpur, Malaysia",ChIJl1pSYj9GzDERf7kI8gXgbxo,28.785278,84.035278,1,52100,OK,"neighborhood,political"
305,JOBO,Jobo Rinjang,Jobo Ribjang,Rolwaling Himal (SW of Nangpa La near Tibetan border),6778,22238,19,2,True,False,False,,Opened in 2002,1,2,,2009,1,JOBO09101,Apr 22,USA,"Joe Puryear, David Gottlieb",,,,Apr 22 2009,305,,,,28.022222,86.800833,0,,ZERO_RESULTS,
306,KYAB,Kyabura,"Ghabur, Temachungi","Kangchenjunga Himal (W of Kumbhakarna, Sobitongie and Phole)",6294,20650,9,1,True,False,False,,Opened in 2002,1,1,,0,0,,,,Unclimbed?,,,,,306,GEOMETRIC_CENTER,"Kyambura Game Reserve, Uganda",ChIJG70Vplit2BkRWtyc8U7A27E,27.902778,88.038889,1,,OK,"establishment,park,point_of_interest,premise"
307,KUML,Kumlung,Kang Kuru?,Damodar Himal (NE of Saribung and W of Bhrikuti),6355,20850,3,5,True,False,False,,Opened in 2002,1,2,,2008,3,KUML08301,Oct 14,France,"Paulo Grobel, Paul Vulin",,,,Oct 14 2008,307,APPROXIMATE,"Khumlung, Assam 788830, India",ChIJORa2YzyoTzcRmHaspjk80Nw,28.9025,84.185,1,788830,OK,"locality,political"
308,DGAR,Dhaulagari,Dhaulasiri,"Raksha Urai Himal (E of Bobaye, S of Raksha Urai)",6638,21778,2,7,True,False,False,,Opened in 2002,1,1,,0,0,,,,Unclimbed,,,,,308,APPROXIMATE,"Dhaulagiri, Mudi 33200, Nepal",ChIJDZtku1P7vTkRO3Ho_tKROcQ,28.6984652,83.4873496,1,33200,OK,"establishment,natural_feature"
309,LHAY,Lhayul Peak,,Api Himal (SW of Api Main),6395,20981,2,7,True,False,False,,Opened in 2002,1,1,,0,0,,,,Unclimbed,,,,,309,,,,29.976667,80.868333,0,,ZERO_RESULTS,
310,MERR,Merra,,Kangchenjunga Himal (WNW of Anidesh Chuli),6334,20781,9,1,True,False,False,,Opened in 2002,1,2,,2006,3,MERR06301,Oct 18,Denmark,Claus Ostergaard,,,,Oct 18 2006,310,APPROXIMATE,"Merra, West Bengal 721121, India",ChIJR-xRuKTp9zkRC9QDQsev7YM,27.741048,88.016798,1,721121,OK,"locality,political"
311,PBUK,Pabuk Kang,Kangata,Ohmi Kangri Himal (E of Nangamari I on Tibetan border),6244,20486,6,1,True,False,False,,Opened in 2003,4,1,,0,0,,,,Unclimbed,,,,,311,,,,27.949722,87.843889,0,,ZERO_RESULTS,
312,YANK,Yanme Kang,Yanme Khang,Ohmi Kangri Himal (NW of Nangamari on Tibetan border),6206,20361,6,1,True,False,False,,Opened in 2003,4,1,,0,0,,,,Unclimbed,,,,,312,,,,27.946111,87.850556,0,,ZERO_RESULTS,
313,DANS,Danphe Shail,Danfe Shail,Palchung Himal (N of Kanjiroba on Tibetan border),6103,20023,11,7,True,False,False,,Opened in 2002,4,1,,0,0,,,,Unclimbed,,,,,313,,,,29.672222,83.008889,0,,ZERO_RESULTS,
314,GAN7,Ganesh VII,,Ganesh Himal (E of Ganesh I in Tibet),6350,20833,5,4,False,True,False,,,2,1,,0,0,,,,Unclimbed?,,,,,314,GEOMETRIC_CENTER,"248, 1st Main, A V Road, Near-Victoriya Hospital Chamarajpet Bengaluru,, Karnatak, Chamrajpet, Bengaluru, Karnataka 560018, India",ChIJUYfVS_8VrjsRxwjKqmY0PjQ,,,3,560018,OK,"establishment,moving_company,point_of_interest,storage"
315,PHAR,Pharilapcha,,Khumbu Himal (SW of Gokyo Lake),6017,19741,12,2,False,False,True,2002.0,Opened in 2002,1,2,,2003,1,PHAR03101,May 19,Nepal,"Dinesh Devkota, Ongchu Sherpa, Namgyal Sherpa, Lhakpa Sherpa",,,,May 19 2003,315,,,,27.929167,86.683333,0,,ZERO_RESULTS,
316,THOR,Thorong Peak,Thorung Peak,Muktinath Himal,6144,20157,1,5,True,False,False,,,1,2,,2007,3,THOR07301,Nov 08,"Japan, Nepal","Satoru Endo, Mikio Iga, Terue Katakura, Mitsukuni Oka, Rikio Takahashi, Hiroshi Yumoto, Gadjet Bis Gurung, Ang Dawa Tamang, Hit Bahadur Tamang, Pasang Tamang",1st official ascent (likely many others previously),,,Nov 08 2007,316,APPROXIMATE,"Thorong La, Tanki Manang 33500, Nepal",ChIJ4dYEtow9vjkRr6zdc2LGjEI,28.7933777,83.938669,1,33500,OK,"establishment,natural_feature"
317,CHKA,Chamar Kang,"Chharka, Kangtega","Mukut Himal (NW of Tsharka village, SE of Tingkyu village)",6060,19882,16,6,False,True,False,,,1,2,,2007,3,CHKA07301,Sep 21,"Japan, Nepal","Tamotsu Ohnishi, Toshitsugi Irisawa, Koichi Kato, Chhepa Sherpa",,,,Sep 21 2007,317,,,,,,0,,ZERO_RESULTS,
318,NUPK,Nupche Kang,"Friendship Peak, Nupche Himal",Khumbu Himal (ESE of Nangpa La on Tibetan border),6576,21575,12,2,True,False,False,,Opened in 2014,4,2,,1964,1,NUPK64101,Apr 06,"W Germany, Nepal","Fritz Stammberger, Aila Sherpa",,,,Apr 06 1964,318,,,,28.101389,86.605,0,,ZERO_RESULTS,
319,PUCH,Punchen Himal,Puchen Himal,Shringi Himal (in Tsum Valley N of Pashuwo on Tibetan border),6049,19846,5,4,True,False,False,,,4,1,,0,0,,,,Unclimbed,,,,,319,,,,28.661111,85.146667,0,,ZERO_RESULTS,
320,KAKU,Kang Kuru,,"Mustang Himal (NNE of Tsartse, WSW of Ghami village)",6344,20814,16,6,False,True,False,,,1,2,,2008,1,KAKU08101,Apr 16,USA,"Peter Athans, Theodore Hessler",,,,Apr 16 2008,320,APPROXIMATE,"Kangkuru, 8481, South Africa",ChIJs0bhmDPZnh4R34ZEzLYLsak,28.9,84.188333,1,8481,OK,"locality,political"
321,AMPM,Amphu Middle,Amphu North,Khumbu Himal (NE of Amphu Laptsa),6202,20348,12,2,False,True,False,,Requires permit for Amphu I,1,2,,2008,1,AMPM08101,Apr 20,Germany,"Olaf Rieck, Alexander Graeber",,,,Apr 20 2008,321,ROOFTOP,"315 E Prince Rd, Tucson, AZ 85705, USA",ChIJd9sgqt5z1oYRf8x9SXJFoAs,,,1,85705,OK,"establishment,point_of_interest,school"
322,LUGU,Lugula,,Damodar Himal (E of Bhrikuti Sail on Tibetan border),6899,22635,3,5,True,False,False,,Opened in 2014,4,2,,2010,3,LUGU10301,Nov 02,France,Renald Guillaune,1st official ascent in Spring 2014 by S Koreans,,,Nov 02 2010,322,,,,28.896111,84.261667,0,,ZERO_RESULTS,
323,BHRS,Bhrikuti Shail,,Damodar Himal (NE of Thorong La on Tibetan border),6361,20869,3,5,True,False,False,,,4,2,,2005,1,BHRS05101,May 16,"France, Nepal","Paulo Grobel, Denis Flaven, Bikram Singh",,,,May 16 2005,323,,,,28.898,84.201,0,,ZERO_RESULTS,
324,MYAG,Myagdi Matha,,Dhaulagiri Himal (S of Dhaulagiri IV),6273,20581,4,6,False,True,False,,,1,1,,0,0,,,,Unclimbed?,,,,,324,,,,28.6642,83.323,0,,ZERO_RESULTS,
325,TOBS,Tobsar,Tabsar,Shringi Himal (ENE of Chamar),6065,19898,5,4,True,False,False,,Opened in 2002,1,1,,0,0,,,,Unclimbed,,,,,325,APPROXIMATE,"09133 Tobar, Burgos, Spain",ChIJ8as4eoenSA0RvLdlhmyc4UE,28.594722,85.005278,1,09133,OK,"locality,political"
326,DINS,Dingjung Ri,Dingjung Ri South,Rolwaling Himal (S of Pangbuk Ri on Tibetan border),6196,20328,19,2,True,False,False,,Opened in 2002,4,2,,2008,1,DINS08101,Mar 15,Japan,"Kenro Nakajima, Hiroki Yamamoto",1st known ascent (may be others earlier),,,Mar 15 2008,326,,,,27.973056,86.523333,0,,ZERO_RESULTS,
327,DUDH,Dudh Kundali,"Dui Tal Chuli, Two Lakes Peak",Jagdula Lekh (S of Kanjiroba Himal),6045,19833,10,7,True,False,False,,,1,2,,1953,3,DUDH53301,Nov,"Austria, Nepal, India","Herbert Tichy, Ajiba Sherpa, Gyalzen Sherpa, Pasang Dawa Lama, Pemba Sherpa",,,,Nov 1953,327,ROOFTOP,"2206, Kamshet - Kundali Rd, Kamshet, Maharashtra 410405, India",ChIJyeSbq3eswjsRMCmnXHNLcHc,29.223889,82.545556,1,410405,OK,"establishment,food,point_of_interest"
328,KAGA,Kanta Gaton,Kangfu Gaton,Kanjiroba Himal (SE of Phoksumdo Tal),5910,19390,10,7,True,False,False,,Opened in 2002,1,2,,2009,2,KAGA09201,Aug 16,"France, Nepal","Jean-Rene Minelli, Abel Minelli, Eienne Minelli, Sarah Minelli, Pemba Jangbu Sherpa",1st official ascent,,,Aug 16 2009,328,,,,29.103333,82.995833,0,,ZERO_RESULTS,
329,KAPT,Kaptang,,Kanti Himal (NW of Kanti Himal peak on Tibetan border),5965,19570,11,7,True,False,False,,Opened in 2002,4,2,,2009,3,KAPT09201,Jun 09,"Japan, Nepal","Tamotsu Ohnishi, Toshitsugi Irizawa, Gombu Sherpa",,,,Jun 09 2009,329,GEOMETRIC_CENTER,"By Pass Road, Dhorra By Pass, Dhaurra Mafi, Dhorra, Jamalpur Ka Nagla, Aligarh, Uttar Pradesh 202001, India",ChIJkbp4ECKldDkR9qOT0gzoAUk,29.926389,82.575556,1,202001,OK,"establishment,food,point_of_interest,store"
330,ROMA,Roma,,Saipal Himal (SW of Saipal),5407,17740,20,7,True,False,False,,Delisted in 2014,1,1,,0,0,,,,Unclimbed?,,,,,330,ROOFTOP,"6027 S Sheridan Rd, Tulsa, OK 74145, USA",ChIJbfDRLYeStocR8hu2AF1Lxqk,29.798611,81.345278,1,74145,OK,"establishment,food,point_of_interest,restaurant"
331,RIPI,Ripimo Shar,"Khang Karpo, Kang Karpo",Rolwaling Himal (S of Dingjung Ri on Tibetan border),6647,21808,19,2,True,False,False,,Opened in 2014 (as Khang Karpo),4,2,,1952,1,RIPI52101,May 29,UK,"Tom Bourdillon, Ray Colledge",,,,May 29 1952,331,,,,27.873056,86.518056,0,,ZERO_RESULTS,
332,TSIS,Tsisima,"Chijima, MDM Peak",Janak Himal (WSW of Janak Chuli),6196,20328,6,1,False,True,False,,,1,2,,1963,1,TSIS63101,Jun 03,"Japan, Nepal","Motohiko Kogo, Kunga Norbu",,,,Jun 03 1963,332,APPROXIMATE,"Tsushima, Japan",ChIJRY3L002daTURAoTvZbwvOCs,27.843611,88.152778,1,,OK,"establishment,natural_feature"
333,TAWA,Tawa,,Damodar Himal (NNE of Yakawa Kang),6110,20046,3,5,False,True,False,,,1,2,,2010,3,TAWA10301,Oct 21,"Japan, Nepal","Mikio Iga, Kazuya Fujikura, Chhongba Sherpa, Lhakpa Sherpa",,,,Oct 21 2010,333,ROOFTOP,"487 Glenbrook Rd, Stamford, CT 06906, USA",ChIJ93iTp7GhwokRJo3-cNDrXSc,,,1,06906,OK,"establishment,food,point_of_interest,restaurant"
334,URMA,Urkema,"Baden Powell Scout Peak, Urgyenma",Langtang Himal (W of Ganja La),5890,19324,13,3,True,False,False,,,1,2,,2007,3,URMA07301,Sep 12,"Taiwan, S Korea, Singapore, Australia, Nepal",15 international scout students and 6 Sherpas,,,,Sep 12 2007,334,ROOFTOP,"100 PA-413, Bristol, PA 19007, USA",ChIJlYtrY3ZOwYkRmWVJkVjwLBA,28.166389,85.533611,1,19007,OK,"establishment,point_of_interest"
335,MPNW,Manapathi NW,,"Dhaulagiri Himal (SSW of Dhaulagiri I, NW of Manapathi)",6384,20945,4,6,False,True,False,,,1,2,,1977,1,MPNW77101,Apr 20,"Italy, UK, W Germany","Reinhold Messner, Leo Dickinson, Eric Jones, Otto Wiedemann",,,,Apr 20 1977,335,APPROXIMATE,"Manampathi, Tamil Nadu 603403, India",ChIJ06neezjfUjoR-NvmBEv2nB4,28.645556,83.458333,1,603403,OK,"locality,political"
336,LUNR,Lunag Ri,"Lunag I, Rongshar Ri I, Ondrej Peak",Rolwaling Himal (SW of Nangpa La on Tibetan border),6895,22621,19,2,False,True,False,,Requires permit for Jobo Rinjang,4,1,,0,0,,,,Unclimbed,,,,,336,,,,28.050556,86.551111,0,,ZERO_RESULTS,
337,JASG,Jasemba Goth,Dzasampa Kang,Khumbu Himal (NW of Pasang Lhamu Chuli),6730,22080,12,2,True,False,False,,Opened in 2014,1,2,,1964,1,JASG64101,Apr 08,W Germany,"Georg Huber, Fritz Stammberger",,,,Apr 08 1964,337,,,,28.087222,86.605,0,,ZERO_RESULTS,
338,GOJN,Gojung,Mugu Chuli,Kanti Himal (WNW of Kanti Himal peak on Tibetan border),6310,20702,11,7,False,True,False,,,4,2,,2011,3,GOJN11301,Oct 19,UK,"Mick Fowler, Dave Turnbull",,,,Oct 19 2011,338,GEOMETRIC_CENTER,"1 Jalan Anak Bukit, #L1-CA2 Bukit Timah Plaza, Singapore 588996",ChIJs12GA4kQ2jERHpp_wOoQRBM,29.847895,82.622778,1,588996,OK,"establishment,food,point_of_interest,store"
339,NAN2,Nangamari II,,Ohmi Kangri Himal (S of Nangamari I),6209,20371,6,1,True,False,False,,,1,2,,2016,3,NAN216301,Oct 17,Japan,"Tsuneo Shigehiro, Kensuke Iwai, Kiyo Kuroda, Shiro Matsunaka, Yusuke Morimoto, Kanji Totegi, Miyoko Nagase, Masayuki Takenaka, Saori Tatsuno",,,,Oct 17 2016,339,,,,27.891389,87.866667,0,,ZERO_RESULTS,
340,DRAG,Dragmorpa Ri,"Thakmarpo Ri, Panaya Tippa",Langtang Himal (SW of Tilman's Col on Tibetan border),6185,20292,13,3,True,False,False,,,4,2,,2013,1,DRAG13101,May 30,Russia,Roman Gretzky,Did Gretzky climb Dagmorpa Ri or Paniyo Tippa in Khumbu?,,,May 30 2013,340,,,,28.325278,85.666111,0,,ZERO_RESULTS,
341,SYKG,Syaokang,,Ohmi Kangri Himal (SW of Ohmi Kangri near Tibetan border),5929,19452,6,1,True,False,False,,,1,2,,2012,3,SYKG12301,Oct 25,New Zealand,"John Cocks, Martin Hunter, Geoffrey Lamarche, Paul Maxim, Nick Schearer",,,,Oct 25 2012,341,GEOMETRIC_CENTER,"Shaokang Street, Qianzhen District, Kaohsiung City, Taiwan 806",ChIJK0UC6WMDbjQReBS8lFldVyk,27.863889,87.919444,1,806,OK,route
342,BIJO,Bijora Hiunchuli,,Jagdula Lekh (S of Kande Huinchuli),6111,20049,10,7,True,False,False,,Opened in 2014,1,1,,0,0,,,,Unclimbed,,,,,342,,,,29.291944,82.530833,0,,ZERO_RESULTS,
343,CHUB,Chhuboche,,Damodar Himal (NNE of Pisang Peak),5606,18392,3,5,True,False,False,,,1,2,,2013,3,CHUB13301,Nov 16,UK,"Brian Jackson, Hugh Wrightson, Pasang Sherpa, Tendi Wangya",,,,Nov 16 2013,343,,,,28.720278,84.2375,0,,ZERO_RESULTS,
344,LUNW,Lunag West,,Rolwaling Himal (W of Lunag I on Tibetan border),6492,21299,19,2,False,True,False,,Requires permit for Jobo Rinjang,4,2,,2013,3,LUNW13301,Oct 22,USA,"Scott Adamson, Chris Wright",,,,Oct 22 2013,344,GEOMETRIC_CENTER,"Lunar Ct, West Lafayette, IN 47906, USA",ChIJYxU7x3v8EogR5Pr_Zozy26s,28.05,86.536,1,47906,OK,route
345,DOMO,Domo,Jongsang SE Peak,Jongsang Himal (SE of Jongsong on Indian border),7447,24432,7,1,False,True,False,,,5,2,,1930,1,DOMO30101,Jun 08,"Germany, Nepal","Guenter Dyhrenfurth, Lewa Sherpa",,,,Jun 08 1930,345,ROOFTOP,"6322 Brookside Plaza, Kansas City, MO 64113, USA",ChIJLQIMMw7vwIcRd16YUf_6sFE,27.8833,88.15,1,64113,OK,"bar,establishment,food,point_of_interest,restaurant"
346,LUN2,Lunag II,,Rolwaling Himal (SW of Nangpa La near Tibetan border),6812,22349,19,2,False,True,False,,Requires permit for Jobo Rinjang,1,2,,2010,3,LUN210301,Oct 26,France,"Mathieu Detrie, Max Belleville, Mathiew Maynadier, Sebastien Ratel",,,,Oct 26 2010,346,GEOMETRIC_CENTER,"Lunar St, Scottsburg, IN 47170, USA",ChIJP1enwPvaa4gRDVaZdO3kNyU,,,10,47170,OK,route
347,TRIA,Triangle Peak,,Jugal Himal (NNW of Dome Blanc on Tibetan border),6484,21273,8,3,False,True,False,,,4,2,,2013,3,TRIA13301,Oct 09,France,"Sebastien Moatti, Max Bonniot",Climbed from Tibetan side,,,Oct 09 2013,347,,,,,,0,,ZERO_RESULTS,
348,KASI,Kasi Dalpha,,Jagdula Lekh (S of Kande Huinchuli),6386,20951,10,7,True,False,False,,Opened in 2014,1,1,,0,0,,,,Unclimbed,,,,,348,,,,29.283056,82.554722,0,,ZERO_RESULTS,
349,NPHU,Narphu,,"Damodar Himal (WNW of Pisang Peak, E of Chulu East Peak)",5921,19426,3,5,True,False,False,,,1,2,,2014,3,NPHU14301,Nov 22,"UK, Nepal","Brian Jackson, Heather Bentley, Catherine Husted, Dawn Richardson, James Salt, Rhiannon Thomson, Mingma Dorje Sherpa, Pasang Sherpa Shikhar Pandey",1st official ascent,,,Nov 22 2014,349,APPROXIMATE,"Narphu, Bhutan",ChIJQ5E_XkqNWzcRn5Mbr16BzJI,28.659722,84.174444,1,,OK,"locality,political"
350,POTA,Pota Himal North,Peak Hawley,Dhaulagiri Himal (NE of Putha Hiunchuli),6182,20282,4,6,True,False,False,,Opened in 2014,1,2,,2008,1,POTA08101,May 09,France,Francois Damilano,,,,May 09 2008,350,GEOMETRIC_CENTER,"Jessore Road, Madhyamgram, Vivekananda Nagar, Madhyamgram, Near Badu Road Crossing, West Bengal 700129, India",ChIJ8fvgsEWf-DkRIDmMGOuwIiY,28.775833,83.1975,1,700129,OK,"establishment,point_of_interest"
351,PANN,Pangbuk North,Jobo LeCoultre,Rolwaling Himal (NE of Pangbuk Ri on Tibetan border),6478,21253,19,2,False,True,False,,,4,2,,2013,3,PANN13301,Nov 01,USA,"Scott Adamson, Christopher Wright",,,,Nov 01 2013,351,,,,,,0,,ZERO_RESULTS,
352,MUST,Mustang Himal,,Mustang Himal (S of Mansail on Tibetan border),6195,20325,16,6,True,False,False,,Opened in 2014,1,2,,2014,3,MUST14301,Nov 02,USA,"Melissa Arnot, Ben Jones, Jon Mancuso",,,,Nov 02 2014,352,APPROXIMATE,"Mustangbhot Himal, Zhongba, Xigaze, China, 33100",ChIJfcKeTKdXvjkRIZjh7UVqpB0,29.286111,83.81,1,33100,OK,"establishment,natural_feature"
353,MNSL,Mansail,Manshail,Mustang Himal (NW of Lo Manthang on Tibetan border),6235,20456,16,6,True,False,False,,Opened in 2014,1,2,,2014,3,MNSL14301,Sep 29,Japan,"Yukiko Inoue, Eri Hasegawa, Mariko Nakamura, Kei Taniguchi",,,,Sep 29 2014,353,GEOMETRIC_CENTER,"Boat Harbour NSW 2316, Australia",ChIJJ7Udjs2Cc2sR6-XoNpj8BYU,29.301944,83.810278,1,2316,OK,"bus_station,establishment,point_of_interest,transit_station"
354,CPHU,Chhochenphu Himal,,Ohmi Kangri Himal (SW of Pabuk Kang near Tibetan border),6260,20538,6,1,True,False,False,,Opened in 2014,1,1,,0,0,,,,Unclimbed,,,,,354,,,,27.831944,87.767222,0,,ZERO_RESULTS,
355,TANK,Tankya I,,Kanti Himal (NE of Mariyang on Tibetan border),6305,20686,11,7,True,False,False,,Opened in 2014,4,1,,0,0,,,,Unclimbed,,,,,355,GEOMETRIC_CENTER,"86/20 ซอยหอพักคุณหญิงอิศรา ถนนงามวงศ์วาน ซอยงามวงศ์วาน 46, ลาดยาว, จตุจักร, Bangkok 10900, Thailand",ChIJY8aAXOac4jARx49VBachRLo,29.706111,82.916944,1,10900,OK,"establishment,food,grocery_or_supermarket,point_of_interest,store"
356,GORK,Gorakh Khang,,Gorakh Khang (ENE of Simikot on Tibetan border),6254,20518,17,7,True,False,False,,Opened in 2014,4,1,,0,0,,,,Unclimbed,,,,,356,,,,30.044167,82.3375,0,,ZERO_RESULTS,
357,RAUN,Raungsiyar,,Rolwaling Himal (N of Pimu),6224,20420,19,2,True,False,False,,Opened in 2014,1,2,,2015,3,RAUN15301,Oct 04,Nepal,"Dawa Gyalje Sherpa, Nima Tenji Sherpa, Tashi Sherpa",,,,Oct 04 2015,357,ROOFTOP,"6401 France Ave S, Minneapolis, MN 55435, USA",ChIJqZad0rom9ocROGwxD-IENUk,27.907778,86.559444,2,55435,OK,"doctor,establishment,health,point_of_interest"
358,LDAK,Langdak,,Rolwaling Himal (N of Raungsiyar and Pimu),6220,20407,19,2,True,False,False,,Opened in 2014,1,2,,2015,3,LDAK15301,Oct 05,Nepal,"Dawa Gyalje Sherpa, Nima Tenji Sherpa, Tashi Sherpa",,,,Oct 05 2015,358,APPROXIMATE,"Landak Regency, West Kalimantan, Indonesia",ChIJc2KDMSIp_TERHg8Ta5ZrGrI,27.916944,86.563611,2,,OK,"administrative_area_level_2,political"
359,TKRE,Takargo East,"Thakar Go East, Dragker-go East",Rolwaling Himal (ESE of Takargo),6152,20184,19,2,True,False,False,,Opened in 2014,1,2,,2015,3,TKRE15301,Oct 06,Nepal,"Dawa Gyalje Sherpa, Nima Tenji Sherpa, Tashi Sherpa",,,,Oct 06 2015,359,,,,27.871944,86.523333,0,,ZERO_RESULTS,
360,OMIT,Omitso Go,Omi Tso Go,Rolwaling Himal (NE of Kang Nachugo on Tibetan border),6332,20774,19,2,True,False,False,,Opened in 2014,4,1,,0,0,,,,Unclimbed,,,,,360,,,,27.915278,86.458056,0,,ZERO_RESULTS,
361,CBAM,Chhopa Bamare,Chomo Pamari,Rolwaling Himal (NW of Lamabagar on Tibetan border),6109,20043,19,2,True,False,False,,Opened in 2014,4,1,,0,0,,,,Unclimbed,,,,,361,,,,28.057222,86.091944,0,,ZERO_RESULTS,
362,YALW,Yalung Kang West,,Kangchenjunga Himal (W summit of Yalung Kang),8077,26499,9,1,True,False,False,,Opened in 2014,1,1,,0,0,,,,Unclimbed,,,,,362,APPROXIMATE,Jalung Kang,ChIJ3UKSHDdY5jkRJGyibMOk2Ks,27.706111,88.125556,1,,OK,"establishment,natural_feature"
363,KANN,Kangchenjunga North,,Kangchenjunga Himal (small knob north of Main summit),7938,26043,9,1,True,False,False,,Opened in 2014,5,1,,0,0,,,,Unclimbed?,Possibly traversed on KANG ascents from north,,,,363,APPROXIMATE,Kangchenjunga,ChIJU4iVF0pY5jkRTG3ch4BEb3E,27.7024914,88.147535,1,,OK,"establishment,natural_feature"
364,KBNE,Kangbachen East,Kambachen East,Kangchenjunga Himal (plateau SE of Kangbachen?),7780,25525,9,1,True,False,False,,Opened in 2014,1,1,,0,0,,,,Unclimbed,,,,,364,APPROXIMATE,"Kangbachen, Lelep 57500, Nepal",ChIJyS7RkN1Z5jkR9Ac5bCcoHH0,27.7166,88.1105,1,57500,OK,"establishment,natural_feature"
365,HERZ,Herzog Peak,Khangsar Khang West,Annapurna Himal (WSW of Roc Noir),7555,24787,1,5,True,False,False,,Opened in 2014,1,2,,0,0,,,,Climbed?,Likely climbed on traverses to ANNE,,,,365,,,,28.609167,83.860278,0,,ZERO_RESULTS,
366,GANW,Gangapurna West,"Lachenal Peak, Asapurna",Annapurna Himal (W of Gangapurna),7140,23425,1,5,True,False,False,,Opened in 2014,1,1,,0,0,,,,Unclimbed?,,,,,366,APPROXIMATE,"Gangapurna, 33500, Nepal",ChIJ1zwrz7whvjkRL6G_qZCrPn4,28.601111,83.943889,1,33500,OK,"establishment,natural_feature"
367,CHMR,Chamar,Shringi Himal,Shringi Himal (SSE of Chamar),7161,23494,5,4,True,False,False,,,1,1,,0,0,,,,Unclimbed?,,,,,367,,,,28.555278,84.946667,0,,ZERO_RESULTS,
368,NGAP,Nepal Gap Peak,Nepal Gyap Peak,Kangchenjunga Himal (ENE of Gimmegela on Indian border),7007,22989,9,1,True,False,False,,Opened in 2014,5,1,,0,0,,,,Unclimbed?,,,,,368,,,,27.746389,88.180833,0,,ZERO_RESULTS,
369,GAUS,Gaurishankar South,Gauri,Rolwaling Himal (S of Gaurishankar),7010,22999,19,2,True,False,False,,Opened in 2014,1,2,,1979,3,GAUS79301,Nov 09,UK,"Peter Boardman, Pemba Lama, Timothy Leach, Guy Neithardt",,,,Nov 09 1979,369,APPROXIMATE,"Gauri Sankar, 45500, Nepal",ChIJbW0Mj16B6TkRRntZizeuw0Q,27.95,86.3333333,1,45500,OK,"establishment,natural_feature"
370,BURK,Burke Kang,Burke Khang,Khumbu Himal (ENE of Hungchhi on Tibetan border),6942,22776,12,2,True,False,False,,Opened in 2014,4,1,,0,0,,,,Unclimbed,,,,,370,,,,28.036944,86.773889,0,,ZERO_RESULTS,
371,HMLE,Himlung East,,Peri Himal (E of Himlung Himal on Tibetan border),6932,22743,18,5,True,False,False,,Opened in 2014,4,2,,2017,1,HMLE17101,May 08,"France, Nepal","Paulo Grobel, Isabelle Guillaume, Rajan Lama Bhote, Jangbu Sherpa",,,,May 08 2017,371,,,,28.769167,84.438889,0,,ZERO_RESULTS,
372,YNGS,Yangra Kangri South,"Yangra South, Ganesh I South",Ganesh Himal (NW of Ganesh III on Tibetan border),6863,22516,5,4,True,False,False,,Opened in 2014,4,1,,0,0,,,,Unclimbed?,,,,,372,APPROXIMATE,Yangra,ChIJi8CG2cm66jkR92TnM6OJTwg,28.346389,85.11,1,,OK,"establishment,natural_feature"
373,NUPL,Nup La Kang,Nupla Khang,Khumbu Himal (N of Nup La on Tibetan border),6861,22510,12,2,True,False,False,,Opened in 2014,4,1,,0,0,,,,Unclimbed,,,,,373,,,,28.074167,86.766944,0,,ZERO_RESULTS,
374,CHUM,Chumbu,,Khumbu Himal (WSW of Khangri Shar near Tibetan border),6859,22503,12,2,True,False,False,,Opened in 2014,1,1,,0,0,,,,Unclimbed,,,,,374,GEOMETRIC_CENTER,"Chumbu Rd, Chingola, Zambia",ChIJvzMNBtSobRkRYY_7s2U5eSg,28.018889,86.7925,1,,OK,route
375,PHUG,Phu Kang Go,"Phu Khang Go, Athahra Saya Khola Himal",Peri Himal (SE of Cheo on Tibetan border),6767,22201,18,5,True,False,False,,Opened in 2014,4,2,,2011,3,PHUG11301,Oct 27,"France, Belgium","Paulo Grobel, Benoit Van Lerberghe",,,,Oct 27 2011,375,ROOFTOP,"5201 NJ-38, Merchantville, NJ 08109, USA",ChIJEQTkRmPJxokRy4Z9khqpQD0,28.734722,84.493889,1,08109,OK,"establishment,food,point_of_interest,restaurant"
376,GURA,Guras,,Guras Himal (NE of Nampa on Tibetan border),6744,22126,2,7,True,False,False,,Opened in 2014,4,1,,0,0,,,,Unclimbed,,,,,376,ROOFTOP,"5530 13400 S, Herriman, UT 84096, USA",ChIJ-aQXs-CEUocRES2LY1NkiS4,30.043056,81.108889,1,84096,OK,"establishment,food,point_of_interest,restaurant"
377,THRK,Tharke Kang,Tharke Khang,Khumbu Himal (S of Nup La on Tibetan border),6710,22014,12,2,True,False,False,,Opened in 2014,4,1,,0,0,,,,Unclimbed,,,,,377,,,,28.043889,86.751667,0,,ZERO_RESULTS,
378,HUGO,Hulang Go,,Peri Himal (WNW of Ratna Chuli on Tibetan border),6687,21939,18,5,True,False,False,,Opened in 2014,5,1,,0,0,,,,Unclimbed,,,,,378,,,,28.872778,84.345556,0,,ZERO_RESULTS,
379,SHNW,Shershon Northwest,,Makalu Himal (NW of Shershon on Tibetan border),6682,21923,14,2,True,False,False,,Opened in 2014,4,2,,1980,3,SHNW80301,Oct 15,"UK, France","Doug Scott, Roger Baxter-Jones, Georges Bettembourg",,,,Oct 15 1980,379,APPROXIMATE,"Shershon, 56900, Nepal",ChIJ7cwBT0j36DkR4UQrbnRXMUg,27.855278,87.110833,1,56900,OK,"neighborhood,political"
380,AGLE,Agole East,Angole East,Rolwaling Himal (E of Tengi Ragi Tau),6675,21900,19,2,True,False,False,,Opened in 2014,1,1,,0,0,,,,Unclimbed,,,,,380,ROOFTOP,"330 Townsend St, San Francisco, CA 94107, USA",ChIJMZRbK9R_j4ARICcvBjze6Yc,27.850278,86.563611,1,94107,OK,"establishment,point_of_interest"
381,ROLK,Rolwaling Kang,Rolwaling Khang,Rolwaling Himal (NNE of Tarkago),6664,21864,19,2,True,False,False,,Opened in 2014,1,2,,2016,3,ROLK16301,Oct 19,Japan,"Yasuhiro Hanatani, Yuichiro Iida, Maho Ishio, Yohei Kayama, Keisuke Tsunoda, Takuya Yoshikawa",,,,Oct 19 2016,381,,,,27.8975,86.523056,0,,ZERO_RESULTS,
382,YARW,Yarwa,,Guras Himal (NW of Nampa on Tibetan border),6644,21798,2,7,True,False,False,,Opened in 2014,1,1,,0,0,,,,Unclimbed,,,,,382,GEOMETRIC_CENTER,"Yarwa Road, Jimeta, Nigeria",ChIJ_c2nod9q_BARWc0voiFdFe8,30.054167,81.0925,1,,OK,route
383,YANG,Yangri,Jugal,Jugal Himal (N of Phurbi Chhyachu on Tibetan border),6535,21440,8,3,True,False,False,,Opened in 2014,4,1,,0,0,,,,Unclimbed,,,,,383,GEOMETRIC_CENTER,"Zhongba, Xigaze, Tibet, China",ChIJqaLdAdmLuTkRGdFWRV5yGYc,28.142778,85.873889,2,,OK,"establishment,point_of_interest"
384,LCHN,Lachama North,,Changla Himal (N of Lachama Chuli on Tibetan border),6628,21745,17,7,True,False,False,,Opened in 2014,4,1,,0,0,,,,Unclimbed,,,,,384,GEOMETRIC_CENTER,"Na Lachu, 719 00 Slezská Ostrava, Czechia",ChIJbbvC4an8E0cR3It4HppOqwg,30.143333,82.2,1,719 00,OK,route
385,CHNG,Changdi,,Palchung Himal (SE of Kanti Himal peak on Tibetan border),6623,21729,11,7,True,False,False,,Opened in 2014,4,1,,0,0,,,,Unclimbed,,,,,385,GEOMETRIC_CENTER,"Panxian, Liupanshui, Guizhou, China",ChIJH7u3tBhGxDYROUAebihw0IE,29.719167,82.798611,1,,OK,"establishment,point_of_interest"
386,GOLD,Goldum Peak,Pangri Goldumba,Jugal Himal,6632,21759,8,3,True,False,False,,Opened in 2014,4,1,,0,0,,,,Unclimbed,,,,,386,APPROXIMATE,"Gold Dust Peak, Colorado 81632, USA",ChIJ8bRG7lnUQYcRu_Pluj0vJZw,28.328056,85.729167,1,81632,OK,"establishment,natural_feature"
387,THOC,Thoche Go,,Peri Himal (SE of Cheo Himal on Tibetan border),6602,21660,18,5,True,False,False,,Opened in 2014,4,1,,0,0,,,,Unclimbed,,,,,387,APPROXIMATE,"Thoche, Nepal",ChIJJVl8rth9lTkR5LvtPftfQ8Q,28.757778,84.459722,1,,OK,"locality,political"
388,KCHS,Kangchung Shar,"Khangchung, Kangcho Shar, UIAA Peak",Khumbu Himal (NE of Gokyo Lake),6063,19892,12,2,True,False,False,,Opened in 2014,1,2,,1984,3,KCHS84301,Nov 01,Yugoslavia,Francek Knez,Ascents reported by Jan Kielkowski: on 1 Nov 1984 by Francek Knez; on 21 Nov 1984 by Trevor Pilling,,,Nov 01 1984,388,,,,27.983611,86.739722,0,,ZERO_RESULTS,
389,PHUN,Phu Kang North,Phu Khang North,Peri Himal (N of Cheo Himal on Tibetan border),6580,21588,18,5,True,False,False,,Opened in 2014,4,1,,0,0,,,,Unclimbed,,,,,389,ROOFTOP,"5201 NJ-38, Merchantville, NJ 08109, USA",ChIJEQTkRmPJxokRy4Z9khqpQD0,28.820833,84.437778,1,08109,OK,"establishment,food,point_of_interest,restaurant"
390,PTHE,Pethangtse East,,Khumbu Himal (ESE of Pethangtse on Tibetan border),6572,21562,12,2,True,False,False,,Opened in 2014,4,2,,2008,1,PTHE08101,May 16,UK,"Andrew Hughes, Alistair Barnard, Nichcolas Beighton, Chris Fawcett, Daniel Greig-Smith, Benjamin Sherwood",Climbed by British Services Makalu Expedition led by Andrew Hughes,,,May 16 2008,390,,,,27.949444,87.036111,0,,ZERO_RESULTS,
391,PHNG,Phungi,,Peri Himal (SE of Ratna Chuli on Tibetan border),6524,21404,18,5,True,False,False,,Opened in 2014,4,1,,0,0,,,,Unclimbed,,,,,391,APPROXIMATE,"Phungi, Chhattisgarh 497116, India",ChIJaavj7Mq1iTkRnKnSdCBYmJ0,28.83,84.402778,1,497116,OK,"locality,political"
392,KNTE,Kanti Himal East,,Kanti Himal (ENE of Kanti Himal on Tibetan border),6516,21378,11,7,True,False,False,,Opened in 2014,4,1,,0,0,,,,Unclimbed,,,,,392,GEOMETRIC_CENTER,"SRIRUPA CINEMA ROAD,BESIDE SARASWATI CLUB, VILL-HATABARI,, Damodar Pur, Kanthi, Contai, West Bengal 721401, India",ChIJB3jCb_AmAzoRX44mt0SHHT8,29.853056,82.702222,1,721401,OK,"establishment,health,point_of_interest,store"
393,JARK,Jarkya,,Manaslu Himal (N of Larkya La on Tibetan border),6473,21237,15,4,True,False,False,,Opened in 2014,4,1,,0,0,,,,Unclimbed,,,,,393,APPROXIMATE,"Baragaon Jarkhya, Rajasthan, India",ChIJOyc1V8uvbTkRKXF1L5rVPFw,28.741944,84.526944,2,,OK,"locality,political"
394,MARW,Mariyang West,,Kanti Himal (WSW of Mariyang on Tibetan border),6455,21178,11,7,True,False,False,,Opened in 2014,4,1,,0,0,,,,Unclimbed,,,,,394,,,,29.689444,82.828889,0,,ZERO_RESULTS,
395,MAYT,Mayonthang Kang,Mayun Thang Khang,Kanti Himal (NW of Changdi Himal on Tibetan border),6449,21158,11,7,True,False,False,,Opened in 2014,4,1,,0,0,,,,Unclimbed,,,,,395,,,,29.769722,82.746667,0,,ZERO_RESULTS,
396,LNJU,Langju,,Shringi Himal (S of Tobsar),6426,21083,5,4,True,False,False,,Opened in 2014,1,1,,0,0,,,,Unclimbed,,,,,396,APPROXIMATE,"Langjuzhen, Jinxi, Fuzhou, Jiangxi, China",ChIJg5YWYWK8OzQR_QWUQwQqKPE,28.545833,85.055278,1,,OK,"political,sublocality,sublocality_level_2"
397,JYAC,Jyachhung,,Byas Risi Himal (NNW of Nampa on Tibetan border),6338,20794,2,7,True,False,False,,Opened in 2014,4,1,,0,0,,,,Unclimbed,,,,,397,,,,30.106389,81.085833,0,,ZERO_RESULTS,
398,GYLA,Gyala,,Manaslu Himal (NNE of Larkya La on Tibetan border),6363,20876,15,4,True,False,False,,Opened in 2014,4,1,,0,0,,,,Unclimbed,,,,,398,APPROXIMATE,"Đala, Serbia",ChIJCYNO-UiOREcRkpN9wCkUbuA,28.751944,84.558889,1,,OK,"locality,political"
399,DOLM,Dolma Kang,,Rolwaling Himal (SE of Gaurishankar on Tibetan border),6332,20774,19,2,True,False,False,,Opened in 2014,4,1,,0,0,,,,Unclimbed?,,,,,399,,,,27.937222,86.350278,0,,ZERO_RESULTS,
400,KAIP,Kaipuchonam,,Kanti Himal (WNW of Changdi on Tibetan border),6329,20764,11,7,True,False,False,,Opened in 2014,4,1,,0,0,,,,Unclimbed,,,,,400,,,,29.725556,82.783333,0,,ZERO_RESULTS,
401,LDNG,Langdung,,Rolwaling Himal (NE of Kang Nachugo on Tibetan border),6386,20951,19,2,True,False,False,,Opened in 2014,4,1,,0,0,,,,Unclimbed,,,,,401,GEOMETRIC_CENTER,"ĐT972, Chính Lý, Lý Nhân, Hà Nam, Vietnam",ChIJSUZo2yzENTER3eG_3GihSdg,27.947778,86.484167,1,,OK,"establishment,place_of_worship,point_of_interest"
402,DZA2,Dzanye II,,Janak Himal (S of Danzye Peak),6318,20728,6,1,True,False,False,,Opened in 2014,4,2,,2015,3,DZA215301,Oct 04,Japan,"Takanori Mashimo, Kotaro Myatsu, Kenta Kimura, Shinnosuke Ashikari, Shun Katsurai, Takehiro Nozawa",,,,Oct 04 2015,402,,,,27.902222,88.041111,0,,ZERO_RESULTS,
403,PAMA,Pama Himal,,Shringi Himal (N of Chamar on Tibetan border),6300,20669,5,4,True,False,False,,Opened in 2014,4,1,,0,0,,,,Unclimbed,,,,,403,,,,28.580278,84.951111,0,,ZERO_RESULTS,
404,PERH,Peri Himal,,Peri Himal (SE of Cheo Himal on Tibetan border),6296,20656,18,5,True,False,False,,Opened in 2014,4,1,,0,0,,,,Unclimbed,,,,,404,,,,28.747222,84.481667,0,,ZERO_RESULTS,
405,TAKL,Takla Kang,Takla Khang,Kanti Himal (SSE of Kanti Himal peak on Tibetan border),6276,20591,11,7,True,False,False,,Opened in 2014,4,1,,0,0,,,,Unclimbed,,,,,405,,,,29.761111,82.695278,0,,ZERO_RESULTS,
406,KOGI,Kogi Khang North,Kogi Kang North,Kanti Himal (ESE of Kanti Himal peak on Tibetan border),6275,20587,11,7,True,False,False,,Opened in 2014,4,1,,0,0,,,,Unclimbed,,,,,406,,,,29.814444,82.739167,0,,ZERO_RESULTS,
407,ASAJ,Asajya Tuppa,,Gorakh Himal (ENE of Simikot on Tibetan border),6265,20554,17,7,True,False,False,,Opened in 2014,4,1,,0,0,,,,Unclimbed,,,,,407,,,,30.0625,82.279722,0,,ZERO_RESULTS,
408,KOJS,Kojichuwa South,,Kanti Himal (SW of Kojichuwa Chuli on Tibetan border),6264,20551,11,7,True,False,False,,Opened in 2014,4,1,,0,0,,,,Unclimbed,,,,,408,ROOFTOP,"Japan, 〒761-3110 Kagawa-ken, Kagawa-gun, Naoshima-chō, (Sonota), ８４５−７",ChIJR1tZ5SfwUzUR_TSV-Xq4BGQ,29.848611,82.631111,1,761-3110,OK,"cafe,establishment,food,point_of_interest"
409,PKAR,Pankar Himal,,Manaslu Himal (ENE of Samagaon on Tibetan border),6264,20551,15,4,True,False,False,,Opened in 2014,4,1,,0,0,,,,Unclimbed,,,,,409,GEOMETRIC_CENTER,"Gf5, Akshar Complex, Near Shivranjani Cross Road, Satellite, Satellite, Shivranjani, Jodhpur, Ahmedabad, Gujarat 380015, India",ChIJodFHNs6EXjkRG9RYqsnU0Qo,28.616389,84.7425,1,380015,OK,"clothing_store,establishment,point_of_interest,store"
410,SAUL,Saula,,Manaslu Himal (ENE of Samagaon on Tibetan border),6235,20456,15,4,True,False,False,,Opened in 2014,4,1,,0,0,,,,Unclimbed,,,,,410,APPROXIMATE,"Saula, Harju County, Estonia",ChIJT8go21XckkYRh5tNd96jk38,28.613889,84.756111,1,,OK,"locality,political"
411,YALA,Yala Chuli,Yara Chuli,Palchung Himal (SE of Changdi on Tibetan border),6236,20459,11,7,True,False,False,,Opened in 2014,4,1,,0,0,,,,Unclimbed,,,,,411,,,,29.689444,82.828889,0,,ZERO_RESULTS,
412,RHIM,Rhimbu,,Shringi Himal (S of Tobsar),6210,20374,5,4,True,False,False,,Opened in 2014,1,1,,0,0,,,,Unclimbed,,,,,412,ROOFTOP,"Rhombus, Morley Rd, Farnham GU9 8LX, UK",ChIJf2EE5AUtdEgRYz8z5MCfEXo,28.559444,85.0475,1,GU9 8LX,OK,premise
413,SANC,Sanctuary Peak,,Kanjiroba Himal (N of Kanjiroba North),6207,20364,10,7,True,False,False,,Opened in 2014,1,1,,0,0,,,,Unclimbed,,,,,413,ROOFTOP,"4205 W Grandview Rd, Salem, IN 47167, USA",ChIJSUSfVV1RaYgROZMfVJhlgKw,29.423889,82.625833,2,47167,OK,"establishment,point_of_interest"
414,LASA,Lasa,,Byas Risi Himal (NNW of Nampa on Tibetan border),6189,20305,2,7,True,False,False,,Opened in 2014,4,1,,0,0,,,,Unclimbed,,,,,414,ROOFTOP,"727 N Broadway #120, Los Angeles, CA 90012, USA",ChIJk3enX1rGwoARARB8Q8dTh1I,30.135833,81.084167,1,90012,OK,"establishment,food,point_of_interest,restaurant"
415,PERI,Peri,,Langtang Himal (SE of Langtang Ri on Tibetan border),6174,20256,13,3,True,False,False,,Opened in 2014,4,2,,2016,3,PERI16301,Dec 06,"Italy, Nepal","Werner Frei, Pasang Sherpa, Sandesh Sherpa",,,,Dec 06 2016,415,APPROXIMATE,"Pér, 9099 Hungary",ChIJfzf6qnnIa0cR6tNWsu0CoUM,28.353056,85.723611,9,9099,OK,"locality,political"
416,DWIJ,Dwijen Himal,,Shringi Himal (NE of Ghap village on Tibetan border),6169,20240,5,4,True,False,False,,Opened in 2014,4,1,,0,0,,,,Unclimbed,,,,,416,,,,28.593333,84.903333,0,,ZERO_RESULTS,
417,JABR,Jabou Ri,,Rolwaling Himal (S of Tarkago),6166,20230,19,2,True,False,False,,Opened in 2014,1,2,,2015,3,JABR15301,Sep 15,USA,"Ryan Waters, Eric Larsen",,,,Sep 15 2015,417,ROOFTOP,"11878 Gravois Rd, Sappington, MO 63127, USA",ChIJ68iGzN7O2IcR1Jy2-9xccXI,27.853889,86.515278,1,63127,OK,"accounting,establishment,finance,point_of_interest"
418,BEDG,Beding Go,Bedding Go,Rolwaling Himal (N of Beding village on Tibetan border),6125,20095,19,2,True,False,False,,Opened in 2014,4,2,,2015,3,BEDG15301,Oct 21,"Nepal, Canada, Brazil, Ireland","Mingma Tshering/Tsiri Sherpa, Dean Carriere, Dino De Almeida Camargo, Cian O'Brolchain, Nima Gyalzen Sherpa, Pasang Tenzing Sherpa, Tshering Pemba Sherpa",,,,Oct 21 2015,418,ROOFTOP,"1226 Industrial Blvd, Crossville, TN 38555, USA",ChIJOwoEk7hQZ4gRT-mTuYhGR98,27.925833,86.393056,1,38555,OK,"establishment,furniture_store,home_goods_store,lodging,point_of_interest,store"
419,TAKN,Takphu North,,Nalakankar Himal (on W Nepal/Tibetan border),6142,20151,17,7,True,False,False,,Opened in 2014,4,2,,2016,3,TAKN16301,Oct 12,"Germany, Nepal","Herbert Bader, Karl Henge, Tassilo Hock, Josef Knitz, Annabelle Rochelt, Alois Sinz, Bhai Krishna Khadka",,,,Oct 12 2016,419,,,,30.303611,81.422222,0,,ZERO_RESULTS,
420,BHUL,Bhulu Lhasa,,Kanjiroba Himal (NNW of Kanjiroba North),6102,20020,10,7,True,False,False,,Opened in 2014,1,2,,1964,3,BHUL64301,Oct 31,"UK, Nepal","John Tyson, John Cole, Robert Kendall, Mingma Sherpa",,,,Oct 31 1964,420,,,,29.441389,82.599444,0,,ZERO_RESULTS,
421,LNAK,Lhonak,Rifil Peak,Janak Himal (WNW of Drohmo),6070,19915,6,1,True,False,False,,Opened in 2014,1,1,,0,0,,,,Unclimbed,Possibly climbed by Japanese Dzanye II team in Autumn 2015,,,,421,APPROXIMATE,"Lhonak, Sikkim 737120, India",ChIJrZiOU-nh5jkRJG-FDIQBqEU,27.831944,88.057222,1,737120,OK,"locality,political"
422,ROLM,Rolmi,,Shringi Himal (S of Tobsar),6056,19869,5,4,True,False,False,,Opened in 2014,1,1,,0,0,,,,Unclimbed,,,,,422,ROOFTOP,"3001 S Academy Blvd, Colorado Springs, CO 80916, USA",ChIJ_9P7Oa5FE4cRnZokk2afX08,28.567778,85.050278,1,80916,OK,"establishment,place_of_worship,point_of_interest"
423,ACHN,Aichyn,"Aychin, Ashvin",Chandi Himal (SW of Changwathang),6055,19865,17,7,True,False,False,,Opened in 2014,1,2,,2015,3,ACHN15301,Sep 03,Japan,"Hiroki Senda, et al",,,,Sep 03 2015,423,,,,30.270833,81.859722,0,,ZERO_RESULTS,
424,ARDN,Ardang,,Phupharka Himal (NW of Simikot),6034,19797,17,7,True,False,False,,Opened in 2014,1,1,,0,0,,,,Unclimbed,,,,,424,APPROXIMATE,"Ardang Lekthe, Assam 782470, India",ChIJX8K3xd54RjcRgBY7aKmWJWI,30.198889,81.623333,1,782470,OK,"locality,political"
425,LUNG,Lungchhung,,Palchung Himal (NE of Kanjiroba on Tibetan border),6043,19826,11,7,True,False,False,,Opened in 2014,4,1,,0,0,,,,Unclimbed,,,,,425,,,,29.628333,83.122222,0,,ZERO_RESULTS,
426,KHNG,Khung,,Palchung Himal (NE of Kanjiroba on Tibetan border),6024,19764,11,7,True,False,False,,Opened in 2014,4,1,,0,0,,,,Unclimbed,,,,,426,APPROXIMATE,"Khung, Nepal",ChIJS84gM8E2ljkRq0Eqi2gIXy4,29.624722,83.144167,1,,OK,"locality,political"
427,CHND,Chandi Himal,,Chandi Himal (NE of Simikot on Tibetan border),6142,20151,17,7,True,False,False,,Opened in 2002,4,1,,0,0,,,,Unclimbed,Climbed illegally by Sean Burch in October 2016?,,,,427,,,,30.359167,81.951389,0,,ZERO_RESULTS,
428,KALI,Kali Himal,"Chota Ri, Baruntse North",Khumbu Himal (NW of Baruntse),6985,22917,12,2,True,False,False,,Opened in 2002,1,2,,1983,1,KALI83101,Apr 05,Netherlands,"Joost Ubblink, Edwin Van Nieuwkerk",,,,Apr 05 1983,428,GEOMETRIC_CENTER,"Gf5, Akshar Complex, Near Shivranjani Cross Road, Satellite, Satellite, Shivranjani, Jodhpur, Ahmedabad, Gujarat 380015, India",ChIJodFHNs6EXjkRG9RYqsnU0Qo,27.877222,86.975556,1,380015,OK,"clothing_store,establishment,point_of_interest,store"
429,DHEC,Dhechyan Kang,,Damodar Himal (ESE of Gaugiri on Tibetan border),6019,19747,3,5,True,False,False,,Opened in 2014,4,1,,0,0,,,,Unclimbed,,,,,429,,,,29.035833,84.251944,0,,ZERO_RESULTS,
430,EKRA,Ek Rate Danda,,"Khumbu Himal (in Hongku Valley, S of Chamlang)",6213,20384,12,2,True,False,False,,Opened in 2002,1,1,,0,0,,,,Unclimbed,,,,,430,,,,27.708889,87.005,0,,ZERO_RESULTS,
431,GHYN,Ghyun Himal I,,Mustang Himal (N of Ghyun Khola on Tibetan border),6110,20046,16,6,True,False,False,,Opened in 2014,4,1,,0,0,,,,Unclimbed,,,,,431,,,,29.244167,83.781944,0,,ZERO_RESULTS,
432,GORH,Gorakh Himal,,Gorakh Himal (NE of Simikot on Tibetan border),6198,20335,17,7,True,False,False,,Opened in 2002,4,1,,0,0,,,,Unclimbed,,,,,432,APPROXIMATE,"Gorakh Hill Station, Pakistan",ChIJ91B6acilyj4R6uI9Y7BCbfs,24.816667,82.313889,1,,OK,"establishment,natural_feature"
433,HONK,Hongku,"Honku, Sura Peak","Khumbu Himal (in Hongku Valley, N of Chamlang)",6764,22192,12,2,True,False,False,,Opened in 2003,1,1,,0,0,,,,Unclimbed,Climbed in 2015?,,,,433,ROOFTOP,"2379 E Colorado Blvd, Pasadena, CA 91107, USA",ChIJf-DJb6jcwoARy9_8TVKXGPg,27.826,86.977,1,91107,OK,"dentist,establishment,health,point_of_interest"
434,KARK,Karko,,Saipal Himal (WNW of Saipal),6015,19734,20,7,True,False,False,,Opened in 2002,1,1,,0,0,,,,Unclimbed?,,,,,434,APPROXIMATE,Karko 791002,ChIJSUB3ohKqajcR2yB51dbV7zE,29.920278,81.219167,5,791002,OK,"locality,political"
435,KARS,Karsang Kang,"Kharsang, Kesang Khang, UAAA Peak",Damodar Himal (NE of Saribung),6225,20423,3,5,True,False,False,,Opened in 2014,1,2,,2008,3,KARS08301,Oct 11,France,"Paulo Grobel, Mary Cler",,,,Oct 11 2008,435,,,,28.933333,84.169444,0,,ZERO_RESULTS,
436,KHAY,Khayang,,Manaslu Himal (E of Samdo Peak on Tibetan border),6186,20295,15,4,True,False,False,,Opened in 2003,4,1,,0,0,,,,Unclimbed?,,,,,436,APPROXIMATE,"Khayang, Manipur 795142, India",ChIJpUH05QNFSDcRpUzkW91VGdE,28.633611,84.715278,2,795142,OK,"locality,political"
437,GYLZ,Gyalzen Peak,Gyaltsen Peak,Jugal Himal (SE of Leonpo Gang),6151,20180,8,3,True,False,False,,,4,1,,0,0,,,,Unclimbed?,This is not the Gyalgen Peak that was climbed in 1955 by the Scottish Women's Himalayan Expedition led by Monica Jackson.,,,,437,,,,28.183056,85.838333,0,,ZERO_RESULTS,
438,LSAM,Lungsampa,"Lung Sampa, Lumsumna",Khumbu Himal (S of Nangpai Gosum II),6500,21325,12,2,True,False,False,,Opened in 2002,1,2,,2014,0,,,Spain,"Jordi Corominas, Jordi Tosas",Tosas and Corominas unconfirmed ascent in 2014 via SSW Ridge,,,,438,,,,28.026111,86.621944,0,,ZERO_RESULTS,
439,MERS,Mera South,,Khumbu Himal (SW of Mera),6064,19895,12,2,True,False,False,,Opened in 2002,1,1,,0,0,,,,Unclimbed?,,,,,439,APPROXIMATE,"Mera 627200, Romania",ChIJUxs1DNs_tEAR7UZ4ukcTLAU,27.70916,86.868289,2,627200,OK,"locality,political"
440,PASH,Pashuwo,Pashubo,Ganesh Himal (N of Lampo on Tibetan border),6177,20266,5,4,True,False,False,,Opened in 2003,4,1,,0,0,,,,Unclimbed,,,,,440,,,,28.533056,85.162222,0,,ZERO_RESULTS,
441,SATO,Sat Peak,Sato Peak,Ohmi Kangri Himal (S of Sharphu range),6164,20223,6,1,True,False,False,,Opened in 2002,1,1,,0,0,,,,Unclimbed?,Possibly climbed by Japanese in 1960s,,,,441,ROOFTOP,"125 Leedom Way, Newtown, PA 18940, USA",ChIJBSWF-69UwYkRJtaXf-Fxh2I,27.711111,87.914167,1,18940,OK,"establishment,point_of_interest"
442,TSKP,Tso Karpo,,"Kanjiroba Himal (E of Kanjiroba, W of Tso Karpo Kang)",6518,21385,10,7,True,False,False,,Opened in 2002,1,1,,0,0,,,,Unclimbed,,,,,442,,,,29.366667,82.714167,0,,ZERO_RESULTS,
443,SPH2,Sharphu II,,Ohmi Kangri Himal (WNW of Kangchenjunga),6328,20761,6,1,True,False,False,,Opened in 2002,1,1,,0,0,,,,Unclimbed?,,,,,443,,,,27.731111,87.907222,0,,ZERO_RESULTS,
444,SPH3,Sharphu III,,Ohmi Kangri Himal (WNW of Kangchenjunga),6220,20407,6,1,True,False,False,,Opened in 2002,1,1,,0,0,,,,Unclimbed?,,,,,444,GEOMETRIC_CENTER,"Sharp, Henderson, NV 89002, USA",ChIJe983r7fVyIARQi6CxkRl3mE,27.711667,87.914722,1,89002,OK,route
445,SPH4,Sharphu IV,,Ohmi Kangri Himal (WNW of Kangchenjunga),6172,20249,6,1,True,False,False,,Opened in 2002,1,1,,0,0,,,,Unclimbed?,,,,,445,,,,27.745556,87.919167,0,,ZERO_RESULTS,
446,SPH5,Sharphu V,,Ohmi Kangri Himal (WNW of Kangchenjunga),6158,20203,6,1,True,False,False,,Opened in 2002,1,1,,0,0,,,,Unclimbed?,,,,,446,,,,27.773889,87.925556,0,,ZERO_RESULTS,
447,SPH6,Sharphu VI,,Ohmi Kangri Himal (WNW of Kangchenjunga),6076,19934,6,1,True,False,False,,Opened in 2002,1,1,,0,0,,,,Unclimbed?,,,,,447,,,,27.697222,87.916667,0,,ZERO_RESULTS,
448,MNSS,Mansail South,Manshail South,Mustang Himal (S of Mansail on Tibetan border),6248,20499,16,6,True,False,False,,Opened in 2014,1,1,,0,0,,,,Unclimbed,,,,,448,ROOFTOP,"4602 Eisenhower Blvd S, Tampa, FL 33634, USA",ChIJNale2RPCwogRM4YmStmpjWU,29.294444,83.810278,1,33634,OK,"establishment,point_of_interest"
449,GDNG,Gave Ding,,Changla Himal (N of Lachama Chuli on Tibetan border),6581,21591,17,7,False,True,False,,Requires permit for Lachama Chuli,4,2,,2015,3,GDNG15301,Oct 22,UK,"Michael Fowler, Paul Ramsden",,,,Oct 22 2015,449,,,,30.125833,82.165833,0,,ZERO_RESULTS,
450,NGO3,Ngojumba Kang III,Hillary Peak,Khumbu Himal (NE of Cho Oyu on Tibetan border),7681,25200,12,2,True,False,False,,Opened in 2014 as Hillary Peak,4,1,,0,0,,,,Unclimbed,,,,,450,,,,28.107,86.713,0,,ZERO_RESULTS,
451,KIMS,Kimshung,"Kinshung, Tsangbu Ri",Langtang Himal (NE of Langtang Lirung),6781,22247,13,3,False,True,False,,,1,1,,0,0,,,,,,,,,451,ROOFTOP,"6901 Stockton Blvd # 330, Sacramento, CA 95823, USA",ChIJCenPVW7FmoARS8bEG-TQ9HM,28.2725,85.552778,1,95823,OK,"establishment,jewelry_store,point_of_interest,store"
452,PAWR,Pawar Central,Chaar Baatsa,Pawar Himal (N of Larkya La),6621,21722,18,5,False,True,False,,,1,2,,2015,1,PAWR15101,May 09,France,"Paulo Grobel, Frank Bonhomme, Christian Hurgon, Dhan Bahadur Magar, Dipen  Nuppa Bhote, Jangbu Sherpa, Rajan Lama Bhote",,,,May 09 2015,452,GEOMETRIC_CENTER,"Royal Centre Suite 1750, 1055 West Georgia Street, Vancouver, BC V6E 3P3, Canada",ChIJ7yDfYH9xhlQRY9fOAkaNro8,,,1,V6E 3P3,OK,"establishment,point_of_interest"
453,NGOR,Nagoru,,Peri Himal (NW of Himlung Himal),6165,20226,18,5,False,True,False,,,1,2,,2016,3,NGOR16301,Oct 21,"Austria, Nepal","Wolfgang Drexler, Lawang Tamang",,,,Oct 21 2016,453,GEOMETRIC_CENTER,"Ulitsa Na Goru Lyubvi, Abakan, Khakasiya Republits, Russia",ChIJ0zGI-kMiLF0RvrlLcCq7Pd8,28.815833,84.281944,4,,OK,route
454,SALD,Saldim,,Makalu Himal (ENE of Shershon village on Tibetan border),6374,20912,14,2,True,False,False,,Opened in 2003,4,1,,0,0,,,,Unclimbed,,,,,454,,,,27.821389,87.173056,0,,ZERO_RESULTS,
455,LANY,Langtang Yubra,Yubra Himal,Langtang Himal (ENE of Langtang Lirung),6048,19843,13,3,False,False,True,,Opened in 2016,1,1,,0,0,,,,Unclimbed?,,,,,455,,,,28.27722222,85.56861111,0,,ZERO_RESULTS,
456,LARK,Larkya Peak,Granite Peak,Manaslu Himal (N of Manaslu North),6416,21050,15,4,False,False,True,,,1,2,,2017,3,LARK17301,Sep 27,Georgia,,,,,Sep 27 2017,456,,,,28.66361111,84.53555556,0,,ZERO_RESULTS,
