,accuracy,formatted_address,google_place_id,input_string,latitude,longitude,number_of_results,postcode,status,type
0,APPROXIMATE,"Argentière, 74400 Chamonix, France",ChIJn9yry7xMiUcRKy3DvNdKSSc,"Argentiere, Haute-Savoie, France",45.983986,6.926873,1,74400,OK,"political,sublocality,sublocality_level_1"
1,APPROXIMATE,"74310 Les Houches, France",ChIJI3AKp1JQiUcRcJ665CqrCAQ,"Les Houches, Haute-Savoie, France",45.890388,6.798735,1,74310,OK,"locality,political"
2,GEOMETRIC_CENTER,"Route de Troyes, 51120 Sézanne, France",ChIJfxmlQ28y6UcRmmPMtYAxKVs,"Troyes, Val-de-Marne, France",48.7099511,3.7326581,1,51120,OK,route
3,APPROXIMATE,"74400 Chamonix, France",ChIJ5y7-LQZMiUcRgKO65CqrCAQ,"Chamonix, Haute-Savoie, France",45.923697,6.869433,1,74400,OK,"locality,political"
4,APPROXIMATE,"74310 Les Houches, France",ChIJI3AKp1JQiUcRcJ665CqrCAQ,"Les Houches, Haute-Savoie, France",45.890388,6.798735,1,74310,OK,"locality,political"
5,APPROXIMATE,"74310 Les Houches, France",ChIJI3AKp1JQiUcRcJ665CqrCAQ,"Les Houches, Haute-Savoie, France",45.890388,6.798735,1,74310,OK,"locality,political"
6,APPROXIMATE,"74310 Les Houches, France",ChIJI3AKp1JQiUcRcJ665CqrCAQ,"Les Houches, Haute-Savoie, France",45.890388,6.798735,1,74310,OK,"locality,political"
7,APPROXIMATE,"Marseille, France",ChIJM1PaREO_yRIRIAKX_aUZCAQ,"Marseille, Bouches-du-Rhone, France",43.296482,5.36978,1,,OK,"locality,political"
8,APPROXIMATE,"Ventura, CA, USA",ChIJTTmXUBWt6YAR6Op6Nnz17yQ,"Ventura, California",34.274646,-119.2290316,1,,OK,"locality,political"
9,APPROXIMATE,"Manchester, UK",ChIJ2_UmUkxNekgRqmv-BDgUvtk,"Manchester, England",53.4807593,-2.2426305,1,,OK,"locality,political"
10,APPROXIMATE,"Denver, CO, USA",ChIJzxcfI6qAa4cR1jaKJ_j0jhE,"Denver, Colorado",39.7392358,-104.990251,1,,OK,"locality,political"
11,APPROXIMATE,"Vail, CO 81657, USA",ChIJB89dUQVwaocRxKOafh_AzMk,"Vail, Colorado",39.6402638,-106.3741955,1,81657,OK,"locality,political"
12,APPROXIMATE,"Denver, CO, USA",ChIJzxcfI6qAa4cR1jaKJ_j0jhE,"Denver, Colorado",39.7392358,-104.990251,1,,OK,"locality,political"
13,APPROXIMATE,"Glenwood Springs, CO 81601, USA",ChIJ-XofNJcJQYcRJRFhTBNZfow,"Glenwood Springs, Colorado",39.5505376,-107.3247762,1,81601,OK,"locality,political"
14,APPROXIMATE,"Vail, CO 81657, USA",ChIJB89dUQVwaocRxKOafh_AzMk,"Vail, Colorado",39.6402638,-106.3741955,1,81657,OK,"locality,political"
15,APPROXIMATE,"Boulder, CO, USA",ChIJ06-NJ06Na4cRWIAboHw7Ocg,"Boulder, Colorado",40.0149856,-105.2705456,1,,OK,"locality,political"
16,APPROXIMATE,"Jamestown, CO, USA",ChIJZTl5qZDna4cR5pFPnUu2B2Y,"Jamestown, Colorado",40.1155412,-105.3886051,1,,OK,"locality,political"
17,APPROXIMATE,"Ogden, UT, USA",ChIJe02c2pQOU4cRLLM0e9fcYQA,"Ogden, Utah",41.223,-111.9738304,1,,OK,"locality,political"
18,APPROXIMATE,"Lafayette, CO, USA",ChIJw8KoeGzza4cRBNat_qxzXnc,"Lafayette, Colorado",39.9935959,-105.0897058,1,,OK,"locality,political"
19,APPROXIMATE,"Jackson, WY, USA",ChIJS3_P_FgaU1MRXIM6scsBHD0,"Jackson, Wyoming",43.4799291,-110.7624282,1,,OK,"locality,political"
20,APPROXIMATE,"Mammoth Lakes, CA 93546, USA",ChIJnxezeV8MloARbY3uD9fZFPE,"Mammoth Lakes, California",37.648546,-118.972079,1,93546,OK,"locality,political"
21,APPROXIMATE,"Lakewood, CO, USA",ChIJt3LdXG-Ba4cRl87Q8fpdkJ4,"Lakewood, Colorado",39.7047095,-105.0813734,1,,OK,"locality,political"
22,APPROXIMATE,"Lakewood, CO, USA",ChIJt3LdXG-Ba4cRl87Q8fpdkJ4,"Lakewood, Colorado",39.7047095,-105.0813734,1,,OK,"locality,political"
23,APPROXIMATE,"Aspen, CO 81611, USA",ChIJfTxB93w5QIcRcvYseNxCK8E,"Aspen, Colorado",39.1910983,-106.8175387,1,81611,OK,"locality,political"
24,APPROXIMATE,"Khunde, Khumjung 56000, Nepal",ChIJdYrACuQI6TkRA7QSAyNCKrs,"Khunde, Khumbu",27.823514,86.7057931,1,56000,OK,"neighborhood,political"
25,APPROXIMATE,"Paris, France",ChIJD7fiBh9u5kcRYJSMaMOCCwQ,"Paris, France",48.856614,2.3522219,1,,OK,"locality,political"
26,APPROXIMATE,"05340 Pelvoux, France",ChIJyYxb8Ln4iUcR8KSX_aUZCAQ,"Pelvoux, Hautes-Alpes, France",44.9138562,6.4071141,1,05340,OK,"locality,political"
27,APPROXIMATE,"74170 Saint-Gervais-les-Bains, France",ChIJ75odSANXiUcRd6tzAmzNWaY,"St. Gervais, Haute-Savoie, France",45.892013,6.712187,1,74170,OK,"locality,political"
28,APPROXIMATE,"Grenoble, France",ChIJb76J1ov0ikcRmFOZbs0QjGE,"Grenoble, Isere, France",45.188529,5.724524,1,,OK,"locality,political"
29,APPROXIMATE,"Grenoble, France",ChIJb76J1ov0ikcRmFOZbs0QjGE,"Grenoble, Isere, France",45.188529,5.724524,1,,OK,"locality,political"
30,APPROXIMATE,"05120 Les Vigneaux, France",ChIJb7w6CXj9iUcRNlLr17uMnyQ,"Les Vigneaux, Hautes-Alpes, France",44.823422,6.541893,1,05120,OK,"locality,political"
31,APPROXIMATE,"05120 Les Vigneaux, France",ChIJb7w6CXj9iUcRNlLr17uMnyQ,"Les Vigneaux, Hautes-Alpes, France",44.823422,6.541893,1,05120,OK,"locality,political"
32,APPROXIMATE,"05240 La Salle-les-Alpes, France",ChIJcxLuY376iUcRYKGX_aUZCAQ,"La Salle-les-Alpes, Hautes-Alpes, France",44.9444609,6.566546,1,05240,OK,"locality,political"
33,APPROXIMATE,"05460 Abriès, France",ChIJv8a10pXXiUcR8KqX_aUZCAQ,"Abries, Hautes-Alpes, France",44.793991,6.927618,1,05460,OK,"locality,political"
34,APPROXIMATE,"05100 Briançon, France",ChIJEUF0A2jkiUcRoKmX_aUZCAQ,"Briancon, Hautes-Alpes, France",44.899416,6.643179,1,05100,OK,"locality,political"
35,APPROXIMATE,"Paris, France",ChIJD7fiBh9u5kcRYJSMaMOCCwQ,"Paris, France",48.856614,2.3522219,1,,OK,"locality,political"
36,APPROXIMATE,"La Grave, France",ChIJQ1v8quIZikcRQKeX_aUZCAQ,"La Grave, Hautes-Alpes, France",45.045842,6.304706,1,,OK,"locality,political"
37,APPROXIMATE,"La Grave, France",ChIJQ1v8quIZikcRQKeX_aUZCAQ,"La Grave, Hautes-Alpes, France",45.045842,6.304706,1,,OK,"locality,political"
38,APPROXIMATE,"31220 Cazères, France",ChIJnc8Gk_EoqRIRiFirlZo11Ss,"Cazeres-sur-Garonne, Haute-Garonne, France",43.205201,1.086645,1,31220,OK,"locality,political"
39,APPROXIMATE,"38640 Claix, France",ChIJB6CfH1SMikcRMHy-5CqrCAQ,"Claix, Isere, France",45.1199439,5.672925,1,38640,OK,"locality,political"
40,APPROXIMATE,"Pont-de-Claix, France",ChIJnSSHUHyLikcReQhfrLSq9q4,"Le Pont-de-Claix, Isere, France",45.123218,5.69782,1,,OK,"locality,political"
41,APPROXIMATE,"45270 Bellegarde, France",ChIJMRcBPG505UcRT3kabCgLhFw,"Bellegarde, Loiret, France",47.988024,2.442961,1,45270,OK,"locality,political"
42,APPROXIMATE,"38120 Saint-Égrève, France",ChIJDUihY9bzikcRYGy-5CqrCAQ,"St. Egreve, Isere, France",45.233131,5.681538,1,38120,OK,"locality,political"
43,APPROXIMATE,"05100 Briançon, France",ChIJEUF0A2jkiUcRoKmX_aUZCAQ,"Briancon, Hautes-Alpes, France",44.899416,6.643179,1,05100,OK,"locality,political"
44,APPROXIMATE,"91800 Brunoy, France",ChIJldrA7nMK5kcR5zpOLP1udFM,"Brunoy, Essonne, France",48.698071,2.504543,1,91800,OK,"locality,political"
45,APPROXIMATE,"Grenoble, France",ChIJb76J1ov0ikcRmFOZbs0QjGE,"Grenoble, Isere, France",45.188529,5.724524,1,,OK,"locality,political"
46,APPROXIMATE,"Toulouse, France",ChIJ_1J17G-7rhIRMBBBL5z2BgQ,"Toulouse, Haute-Garonne, France",43.604652,1.444209,1,,OK,"locality,political"
47,APPROXIMATE,"Nice, France",ChIJMS2FahDQzRIRcJqX_aUZCAQ,"Nice, Alpes-Maritimes, France",43.7101728,7.2619532,1,,OK,"locality,political"
48,ROOFTOP,"1350 Spring St NW #1, Atlanta, GA 30309, USA",ChIJz4_nc1oE9YgRxihstPqFSoM,,33.791638,-84.389488,1,30309,OK,"bar,establishment,food,point_of_interest,restaurant"
49,ROOFTOP,"1350 Spring St NW #1, Atlanta, GA 30309, USA",ChIJz4_nc1oE9YgRxihstPqFSoM,,33.791638,-84.389488,1,30309,OK,"bar,establishment,food,point_of_interest,restaurant"
50,APPROXIMATE,"Solukhumbu, Nepal",ChIJb-S8mdoN6TkRtXIlDPQujDQ,Solukhumbu,27.7909733,86.6611083,1,,OK,"administrative_area_level_3,political"
51,APPROXIMATE,"Dunedin, New Zealand",ChIJPVFfD-DkK6gRQZl5hIbvAAU,"Dunedin, New Zealand",-45.8787605,170.5027976,1,,OK,"locality,political"
52,APPROXIMATE,"Ravensbourne, Dunedin 9022, New Zealand",ChIJ-fgGslSsLqgRAKh5hIbvAAU,"Ravensburne, Dunedin, New Zealand",-45.8661934,170.5538733,1,9022,OK,"political,sublocality,sublocality_level_1"
53,APPROXIMATE,"Auckland, New Zealand",ChIJ--acWvtHDW0RF5miQ2HvAAU,"Auckland, New Zealand",-36.8484597,174.7633315,1,,OK,"locality,political"
54,APPROXIMATE,"Mosgiel, New Zealand",ChIJM_y7bXkBLKgRwI95hIbvAAU,"Mosgiel, Otago, New Zealand",-45.8768527,170.3493124,1,,OK,"locality,political"
55,APPROXIMATE,"Lans, Austria",ChIJT8IJyAVpnUcRzfk7xzT0ov4,"Lans, Tirol, Austria",47.2384429,11.4317914,1,,OK,"locality,political"
56,APPROXIMATE,"6167 Neustift im Stubaital, Austria",ChIJmfb49MZGnUcRpjEyedj1Tg4,"Neustift, Tirol, Austria",47.1090461,11.3052459,1,6167,OK,"locality,political"
57,APPROXIMATE,"39040 Villnöß, Province of Bolzano - South Tyrol, Italy",ChIJIecr7aAReEcRADKRFYcJBwQ,"Villnoss, Bolzano, Italy",46.6405526,11.6848581,1,39040,OK,"administrative_area_level_3,political"
58,APPROXIMATE,"Innsbruck, Austria",ChIJc8r44c9unUcRDZsdKH0cIJ0,"Innsbruck, Tirol, Austria",47.2692124,11.4041024,1,,OK,"locality,political"
59,APPROXIMATE,"Zürich, Switzerland",ChIJGaK-SZcLkEcRA9wf5_GNbuY,"Zurich, Switzerland",47.3768866,8.541694,1,,OK,"locality,political"
60,APPROXIMATE,"Christchurch, New Zealand",ChIJAe3FY0gvMm0RRZl5hIbvAAU,"Christchurch, New Zealand",-43.5320544,172.6362254,1,,OK,"locality,political"
61,APPROXIMATE,"Greymouth, New Zealand",ChIJUxDVTdk_L20RoHJ5hIbvAAU,"Greymouth, New Zealand",-42.4503925,171.2107623,1,,OK,"locality,political"
62,APPROXIMATE,"Arthur's Pass 7875, New Zealand",ChIJP1rSW2tPLm0RoOF5hIbvAAU,"Arthurs Pass, New Zealand",-42.9401153,171.5620073,1,7875,OK,"locality,political"
63,APPROXIMATE,"Christchurch, New Zealand",ChIJAe3FY0gvMm0RRZl5hIbvAAU,"Christchurch, New Zealand",-43.5320544,172.6362254,1,,OK,"locality,political"
64,APPROXIMATE,"New Plymouth, New Zealand",ChIJDc5kI-b5FG0RoOmiQ2HvAAU,"New Plymouth, New Zealand",-39.0556253,174.0752278,1,,OK,"locality,political"
65,APPROXIMATE,"Arthur's Pass 7875, New Zealand",ChIJP1rSW2tPLm0RoOF5hIbvAAU,"Arthurs Pass, New Zealand",-42.9401153,171.5620073,1,7875,OK,"locality,political"
66,APPROXIMATE,"Huntly, New Zealand",ChIJo_qgev9HbW0R4M6iQ2HvAAU,"Huntley, New Zealand",-37.5573009,175.1592664,1,,OK,"locality,political"
67,APPROXIMATE,"Kawasaki, Kanagawa Prefecture, Japan",ChIJV1C9AXtfGGARy9PPyhfzyYg,"Kawasaki, Kanagawa, Japan",35.5298198,139.7024039,1,,OK,"locality,political"
68,APPROXIMATE,"Tokyo, Japan",ChIJ51cu8IcbXWARiRtXIothAS4,"Tokyo, Japan",35.6894875,139.6917064,1,,OK,"administrative_area_level_1,locality,political"
69,APPROXIMATE,"Tokyo, Japan",ChIJ51cu8IcbXWARiRtXIothAS4,"Tokyo, Japan",35.6894875,139.6917064,1,,OK,"administrative_area_level_1,locality,political"
70,APPROXIMATE,"Sagamihara, Kanagawa Prefecture, Japan",ChIJ0Rg03D8bGWARA77Ah2GxZf4,"Sagamihara, Kanagawa, Japan",35.5714621,139.3731765,1,,OK,"locality,political"
71,APPROXIMATE,"Sagamihara, Kanagawa Prefecture, Japan",ChIJ0Rg03D8bGWARA77Ah2GxZf4,"Sagamihara, Kanagawa, Japan",35.5714621,139.3731765,1,,OK,"locality,political"
72,APPROXIMATE,"Miura, Kanagawa Prefecture, Japan",ChIJa_DObU48GGARGhQ690MGki0,"Miura, Kanagawa, Japan",35.1441706,139.6207704,1,,OK,"locality,political"
73,APPROXIMATE,"Barcelona, Spain",ChIJ5TCOcRaYpBIRCmZHTz37sEQ,"Barcelona, Spain",41.3850639,2.1734035,1,,OK,"locality,political"
74,APPROXIMATE,"Barcelona, Spain",ChIJ5TCOcRaYpBIRCmZHTz37sEQ,"Barcelona, Spain",41.3850639,2.1734035,1,,OK,"locality,political"
75,APPROXIMATE,"Barcelona, Spain",ChIJ5TCOcRaYpBIRCmZHTz37sEQ,"Barcelona, Spain",41.3850639,2.1734035,1,,OK,"locality,political"
76,APPROXIMATE,"Barcelona, Spain",ChIJ5TCOcRaYpBIRCmZHTz37sEQ,"Barcelona, Spain",41.3850639,2.1734035,1,,OK,"locality,political"
77,APPROXIMATE,"Argentière, 74400 Chamonix, France",ChIJn9yry7xMiUcRKy3DvNdKSSc,"Argentiere, Haute-Savoie, France",45.983986,6.926873,1,74400,OK,"political,sublocality,sublocality_level_1"
78,APPROXIMATE,"Barcelona, Spain",ChIJ5TCOcRaYpBIRCmZHTz37sEQ,"Barcelona, Spain",41.3850639,2.1734035,1,,OK,"locality,political"
79,APPROXIMATE,"Barcelona, Spain",ChIJ5TCOcRaYpBIRCmZHTz37sEQ,"Barcelona, Spain",41.3850639,2.1734035,1,,OK,"locality,political"
80,APPROXIMATE,"Barcelona, Spain",ChIJ5TCOcRaYpBIRCmZHTz37sEQ,"Barcelona, Spain",41.3850639,2.1734035,1,,OK,"locality,political"
81,APPROXIMATE,"Barcelona, Spain",ChIJ5TCOcRaYpBIRCmZHTz37sEQ,"Barcelona, Spain",41.3850639,2.1734035,1,,OK,"locality,political"
82,APPROXIMATE,"Khunde, Khumjung 56000, Nepal",ChIJdYrACuQI6TkRA7QSAyNCKrs,"Khunde, Khumbu",27.823514,86.7057931,1,56000,OK,"neighborhood,political"
83,APPROXIMATE,"Khumbu Glacier, Khumjung 56000, Nepal",ChIJH3KzaOWr6TkRHAp3LqlCPHs,"Khumjung, Khumbu",27.9720199,86.8308194,2,56000,OK,"establishment,natural_feature"
84,APPROXIMATE,"Khunde, Khumjung 56000, Nepal",ChIJdYrACuQI6TkRA7QSAyNCKrs,"Khunde, Khumbu",27.823514,86.7057931,1,56000,OK,"neighborhood,political"
85,APPROXIMATE,"Tucson, AZ, USA",ChIJK-0sC0Fl1oYRFccWTTgtw3M,"Tucson, Arizona",32.2217429,-110.926479,1,,OK,"locality,political"
86,APPROXIMATE,"Vancouver, BC, Canada",ChIJs0-pQ_FzhlQRi_OBm-qWkbs,"Vancouver, British Colombia",49.2827291,-123.1207375,1,,OK,"locality,political"
87,APPROXIMATE,"Canberra ACT 2601, Australia",ChIJIZBcsGlNFmsRYFZpp27qAAU,"Canberra, ACT, Australia",-35.2809368,149.1300092,1,2601,OK,"locality,political"
88,APPROXIMATE,"Mosman NSW 2088, Australia",ChIJo_-SrTusEmsREMIyFmh9AQU,"Mosman, NSW, Australia",-33.829075,151.24409,1,2088,OK,"locality,political"
89,APPROXIMATE,"Garran ACT 2605, Australia",ChIJ5YsL9pq0F2sRcFtpp27qAAU,"Garran, ACT, Australia",-35.342,149.108,1,2605,OK,"locality,political"
90,APPROXIMATE,"Greta South VIC 3675, Australia",ChIJw4yH3Yn7JmsR4FCgMKR5BQQ,"Greta South, Victoria, Australia",-36.6313773,146.2391485,1,3675,OK,"locality,political"
91,APPROXIMATE,"Sydney NSW, Australia",ChIJP3Sa8ziYEmsRUKgyFmh9AQM,"Sydney, NSW, Australia",-33.8688197,151.2092955,1,,OK,"colloquial_area,locality,political"
92,APPROXIMATE,"Calgary, AB, Canada",ChIJ1T-EnwNwcVMROrZStrE7bSY,"Calgary, Alberta",51.0486151,-114.0708459,1,,OK,"locality,political"
93,APPROXIMATE,"Sylvania NSW 2224, Australia",ChIJBQ6aAbC5EmsR0MwyFmh9AQU,"Sylvania, NSW, Australia",-34.01253,151.10604,1,2224,OK,"locality,political"
94,APPROXIMATE,"Boulder, CO, USA",ChIJ06-NJ06Na4cRWIAboHw7Ocg,"Boulder, Colorado",40.0149856,-105.2705456,1,,OK,"locality,political"
95,APPROXIMATE,"Golden, CO, USA",ChIJ92xohxKYa4cR3FWAIFRGxhQ,"Golden, Colorado",39.755543,-105.2210997,1,,OK,"locality,political"
96,APPROXIMATE,"Nederland, CO 80466, USA",ChIJW1JFTsTGa4cRskzsqphcZI0,"Nederland, Colorado",39.9613759,-105.5108312,1,80466,OK,"locality,political"
97,APPROXIMATE,"Boulder, CO, USA",ChIJ06-NJ06Na4cRWIAboHw7Ocg,"Boulder, Colorado",40.0149856,-105.2705456,1,,OK,"locality,political"
98,APPROXIMATE,"Breckenridge, CO 80424, USA",ChIJwecmbD32aocReqKAZn-PjWI,"Breckenridge, Colorado",39.4816537,-106.0383518,1,80424,OK,"locality,political"
99,APPROXIMATE,"Denver, CO, USA",ChIJzxcfI6qAa4cR1jaKJ_j0jhE,"Denver, Colorado",39.7392358,-104.990251,1,,OK,"locality,political"
100,APPROXIMATE,"Boulder, CO, USA",ChIJ06-NJ06Na4cRWIAboHw7Ocg,"Boulder, Colorado",40.0149856,-105.2705456,1,,OK,"locality,political"
101,APPROXIMATE,"Boulder, CO, USA",ChIJ06-NJ06Na4cRWIAboHw7Ocg,"Boulder, Colorado",40.0149856,-105.2705456,1,,OK,"locality,political"
102,APPROXIMATE,"Boulder, CO, USA",ChIJ06-NJ06Na4cRWIAboHw7Ocg,"Boulder, Colorado",40.0149856,-105.2705456,1,,OK,"locality,political"
103,APPROXIMATE,"Sendai, Miyagi Prefecture, Japan",ChIJ01XNMO4qil8R7rFGuOB5Jbo,"Sendai, Miyagi, Japan",38.268215,140.8693558,1,,OK,"locality,political"
104,APPROXIMATE,"Fujinomiya, Shizuoka Prefecture, Japan",ChIJGWeAlR7aG2ARfBoHEYNO3_M,"Fujimomiya, Shizuoka, Japan",35.2220541,138.6216428,1,,OK,"locality,political"
105,APPROXIMATE,"Fujinomiya, Shizuoka Prefecture, Japan",ChIJGWeAlR7aG2ARfBoHEYNO3_M,"Fujimomiya, Shizuoka, Japan",35.2220541,138.6216428,1,,OK,"locality,political"
106,APPROXIMATE,"Sakata, Yamagata Prefecture, Japan",ChIJo1dVzT2bjl8RxenugqXPXRQ,"Sakata, Yamagata, Japan",38.9147858,139.8365708,1,,OK,"locality,political"
107,APPROXIMATE,"Fujinomiya, Shizuoka Prefecture, Japan",ChIJGWeAlR7aG2ARfBoHEYNO3_M,"Fujimomiya, Shizuoka, Japan",35.2220541,138.6216428,1,,OK,"locality,political"
108,APPROXIMATE,"Woodburn, OR 97071, USA",ChIJQZ9JLiZclVQRQswVE_cKgjM,"Woodburn, Oregon",45.143731,-122.8553724,1,97071,OK,"locality,political"
109,APPROXIMATE,"Tacoma, WA, USA",ChIJZ5VlK-5UkFQRgp6w6wecIWI,"Tacoma, Washington",47.2528768,-122.4442906,1,,OK,"locality,political"
110,APPROXIMATE,"Boulder, CO, USA",ChIJ06-NJ06Na4cRWIAboHw7Ocg,"Boulder, Colorado",40.0149856,-105.2705456,1,,OK,"locality,political"
111,APPROXIMATE,"Hailey, ID 83333, USA",ChIJ1QZ9clXUq1QRUYn0gdm3XGo,"Hailey, Idaho",43.5196288,-114.3153245,1,83333,OK,"locality,political"
112,APPROXIMATE,"Anchorage, AK, USA",ChIJQT-zBHaRyFYR42iEp1q6fSU,"Anchorage, Alaska",61.2180556,-149.9002778,1,,OK,"locality,political"
113,APPROXIMATE,"Lander, WY 82520, USA",ChIJrwBXldXbTFMREz2dvpp3akY,"Lander, Wyoming",42.833014,-108.7306725,1,82520,OK,"locality,political"
114,APPROXIMATE,"Flawil, Switzerland",ChIJA_UTep7nmkcRuijYoar73wU,"Flawil, St. Gallen, Switzerland",47.4133707,9.1870297,1,,OK,"locality,political"
115,GEOMETRIC_CENTER,"Yosemite National Park, California, USA",ChIJxeyK9Z3wloAR_gOA7SycJC0,"Yosemite, California",37.8651011,-119.5383294,1,,OK,"establishment,park,point_of_interest"
116,APPROXIMATE,"Lander, WY 82520, USA",ChIJrwBXldXbTFMREz2dvpp3akY,"Lander, Wyoming",42.833014,-108.7306725,1,82520,OK,"locality,political"
117,APPROXIMATE,"Missoula, MT, USA",ChIJy2fzUCrMXVMRLoCUyncS4-k,"Missoula, Montana",46.8787176,-113.996586,1,,OK,"locality,political"
118,APPROXIMATE,"Madison, WI, USA",ChIJ_xkgOm1TBogRmEFIurX8DE4,"Madison, Wisconsin",43.0730517,-89.4012302,1,,OK,"locality,political"
119,APPROXIMATE,"Madison, WI, USA",ChIJ_xkgOm1TBogRmEFIurX8DE4,"Madison, Wisconsin",43.0730517,-89.4012302,1,,OK,"locality,political"
120,APPROXIMATE,"Seattle, WA, USA",ChIJVTPokywQkFQRmtVEaUZlJRA,"Seattle, Washington",47.6062095,-122.3320708,1,,OK,"locality,political"
121,APPROXIMATE,"Seattle, WA, USA",ChIJVTPokywQkFQRmtVEaUZlJRA,"Seattle, Washington",47.6062095,-122.3320708,1,,OK,"locality,political"
122,APPROXIMATE,"Madison, WI, USA",ChIJ_xkgOm1TBogRmEFIurX8DE4,"Madison, Wisconsin",43.0730517,-89.4012302,1,,OK,"locality,political"
123,APPROXIMATE,"Imst, Austria",ChIJOe0G5JjdnEcRuXIVRdOOXms,"Imst, Tirol, Austria",47.24013,10.73954,1,,OK,"locality,political"
124,APPROXIMATE,"Pitztal, 6481, Austria",ChIJmXEn3bTZnEcRJkIBr-rqU48,"Pitztal, Tirol, Austria",47.1202371,10.7832318,1,6481,OK,"establishment,natural_feature"
125,APPROXIMATE,"6511 Zams, Austria",ChIJYR8UKVLEnEcRvB8brbqpbSM,"Zams, Tirol, Austria",47.1575863,10.5894458,1,6511,OK,"locality,political"
126,APPROXIMATE,"Imst, Austria",ChIJOe0G5JjdnEcRuXIVRdOOXms,"Imst, Tirol, Austria",47.24013,10.73954,1,,OK,"locality,political"
127,APPROXIMATE,"Imst, Austria",ChIJOe0G5JjdnEcRuXIVRdOOXms,"Imst, Tirol, Austria",47.24013,10.73954,1,,OK,"locality,political"
128,APPROXIMATE,"La Sage, 1985 Evolène, Switzerland",ChIJc9nNj7Yoj0cROapJuxM4VrM,"La Sage, Valais, Switzerland",46.0993812,7.5142037,1,1985,OK,"colloquial_area,political"
129,APPROXIMATE,"Harsin, 6950 Nassogne, Belgium",ChIJXbRrm1E0wEcRjMD84zdVfts,"Harsin, Belgium",50.1735662,5.3479488,1,6950,OK,"political,sublocality,sublocality_level_1"
130,APPROXIMATE,"Brussels, Belgium",ChIJ_58PdIbEw0cRMIBML6uZAAE,"Brussels, Belgium",50.8503463,4.3517211,1,,OK,"administrative_area_level_1,locality,political"
131,APPROXIMATE,"Geneva, Switzerland",ChIJ6-LQkwZljEcRObwLezWVtqA,"Geneva, Switzerland",46.2043907,6.1431577,1,,OK,"locality,political"
132,APPROXIMATE,"Hyon, 7022 Mons, Belgium",ChIJJ7_TiE5FwkcRph41--mu3ak,"Hyon, Belgium",50.4395855,3.9607279,1,7022,OK,"political,sublocality,sublocality_level_1"
133,APPROXIMATE,"8630 Rüti, Switzerland",ChIJS2KYD4y3mkcRYGQKXP1OeEo,"Tann-Rueti, Zurich, Switzerland",47.2566995,8.854421,1,8630,OK,"locality,political"
134,GEOMETRIC_CENTER,"7276 Davos, Switzerland",ChIJ34mCz9qjhEcRolgq3Y97i38,"Davos-Frauenkirch, Graubunden, Switzerland",46.766606,9.799247,1,7276,OK,"establishment,point_of_interest,train_station,transit_station"
135,APPROXIMATE,"3906 Saas Fee, Switzerland",ChIJp2CD9qJFj0cRzho9eqWJgOU,"Saas-Fee, Valais, Switzerland",46.1091073,7.9297122,1,3906,OK,"locality,political"
136,APPROXIMATE,"Giubiasco, Switzerland",ChIJNWur7WVKhEcRNeez7WcLiXc,"Giubiasco, Ticino, Switzerland",46.172106,9.0103933,1,,OK,"locality,political"
137,APPROXIMATE,"Gland, Switzerland",ChIJG1-D1JFDjEcRchf82JvO1BI,"Gland, Vaud, Switzerland",46.4203001,6.2698809,1,,OK,"locality,political"
138,APPROXIMATE,"Langnau im Emmental, Switzerland",ChIJcTPUKDHPj0cREzOY7y0h7R8,"Langnau, Bern, Switzerland",46.9378622,7.7906824,1,,OK,"locality,political"
139,APPROXIMATE,"Zürich, Switzerland",ChIJGaK-SZcLkEcRA9wf5_GNbuY,"Zurich, Switzerland",47.3768866,8.541694,1,,OK,"locality,political"
140,APPROXIMATE,"3995 Ernen, Switzerland",ChIJmzwdgOp8j0cR6oMm3pSFgAk,"Ernen, Valais, Switzerland",46.3985001,8.1457733,1,3995,OK,"locality,political"
141,APPROXIMATE,"Davos, Switzerland",ChIJnaVk3xChhEcR2JYt34kGM9A,"Davos, Graubunden, Switzerland",46.8027453,9.8359701,1,,OK,"locality,political"
142,APPROXIMATE,"Buckten, Switzerland",ChIJEU46_YszkEcRsBoZQIj_AAQ,"Buckten, Baselland, Switzerland",47.4101428,7.8446974,1,,OK,"locality,political"
143,APPROXIMATE,"Davos, Switzerland",ChIJnaVk3xChhEcR2JYt34kGM9A,"Davos, Graubunden, Switzerland",46.8027453,9.8359701,1,,OK,"locality,political"
144,APPROXIMATE,"8304 Wallisellen, Switzerland",ChIJRZuOWEigmkcRCrRpMv-i5yk,"Wallisellen, Zurich, Switzerland",47.4156189,8.5889722,1,8304,OK,"locality,political"
145,APPROXIMATE,"Stäfa, Switzerland",ChIJr1kHFlywmkcRJE6N8Zum6yI,"Stafa, Zurich, Switzerland",47.2392343,8.7351356,1,,OK,"locality,political"
146,APPROXIMATE,"3906 Saas Fee, Switzerland",ChIJp2CD9qJFj0cRzho9eqWJgOU,"Saas-Fee, Valais, Switzerland",46.1091073,7.9297122,1,3906,OK,"locality,political"
147,APPROXIMATE,"Gland, Switzerland",ChIJG1-D1JFDjEcRchf82JvO1BI,"Gland, Vaud, Switzerland",46.4203001,6.2698809,1,,OK,"locality,political"
148,GEOMETRIC_CENTER,"7270 Davos, Switzerland",ChIJW5sqR1WhhEcRApvbzEDLTYk,"Davos-Platz, Graubunden, Switzerland",46.7918114,9.8209558,1,7270,OK,"establishment,point_of_interest,train_station,transit_station"
149,APPROXIMATE,"Stäfa, Switzerland",ChIJr1kHFlywmkcRJE6N8Zum6yI,"Stafa, Zurich, Switzerland",47.2392343,8.7351356,1,,OK,"locality,political"
150,APPROXIMATE,"Nan, Thailand",ChIJu20dDgmOJzERwJWGOLGCgAs,,18.7756318,100.7730417,1,,OK,"administrative_area_level_1,political"
151,APPROXIMATE,"Marseille, France",ChIJM1PaREO_yRIRIAKX_aUZCAQ,"Marseille, Bouches-du-Rhone, France",43.296482,5.36978,1,,OK,"locality,political"
152,APPROXIMATE,"Paris, France",ChIJD7fiBh9u5kcRYJSMaMOCCwQ,"Paris, France",48.856614,2.3522219,1,,OK,"locality,political"
153,APPROXIMATE,"Namur, Belgium",ChIJP2UsDG2ZwUcRBVIWxLYmVsE,"Namur, Belgium",50.4673883,4.8719854,1,,OK,"locality,political"
154,APPROXIMATE,"Marseille, France",ChIJM1PaREO_yRIRIAKX_aUZCAQ,"Marseille, Bouches-du-Rhone, France",43.296482,5.36978,1,,OK,"locality,political"
155,APPROXIMATE,"52000 Chaumont, France",ChIJC55EVA7l7EcRMSu11kcpedc,"Chaumont, Haute-Marne, France",48.113748,5.1392559,1,52000,OK,"locality,political"
156,APPROXIMATE,"Saint-Yon, France",ChIJs8Gdzb7R5UcR8ECLaMOCCwQ,"St. Yon, Essonne, France",48.5601429,2.183599,1,,OK,"locality,political"
157,APPROXIMATE,"71300 Montceau-les-Mines, France",ChIJJxGWx8S180cRYOIOszTOCQQ,"Montceau-les-Mines, Saone-et-Loire, France",46.67413,4.362979,1,71300,OK,"locality,political"
158,APPROXIMATE,"Nice, France",ChIJMS2FahDQzRIRcJqX_aUZCAQ,"Nice, Alpes-Maritimes, France",43.7101728,7.2619532,1,,OK,"locality,political"
159,APPROXIMATE,"05240 La Salle-les-Alpes, France",ChIJcxLuY376iUcRYKGX_aUZCAQ,"La Salle-les-Alpes, Hautes-Alpes, France",44.9444609,6.566546,1,05240,OK,"locality,political"
160,APPROXIMATE,"45770 Saran, France",ChIJwWPf2F_65EcR8NM3BdfIDQQ,"Saran, Loiret, France",47.94791,1.880734,1,45770,OK,"locality,political"
161,APPROXIMATE,"94400 Vitry-sur-Seine, France",ChIJSYqKQJFz5kcR-uqmUec4XNw,"Vitry-sur-Seine, Val-de-Marne, France",48.792001,2.39851,1,94400,OK,"locality,political"
162,APPROXIMATE,"05100 Briançon, France",ChIJEUF0A2jkiUcRoKmX_aUZCAQ,"Briancon, Hautes-Alpes, France",44.899416,6.643179,1,05100,OK,"locality,political"
163,APPROXIMATE,"Geneva, Switzerland",ChIJ6-LQkwZljEcRObwLezWVtqA,"Geneva, Switzerland",46.2043907,6.1431577,1,,OK,"locality,political"
164,ROOFTOP,"1350 Spring St NW #1, Atlanta, GA 30309, USA",ChIJz4_nc1oE9YgRxihstPqFSoM,,33.791638,-84.389488,1,30309,OK,"bar,establishment,food,point_of_interest,restaurant"
165,ROOFTOP,"1350 Spring St NW #1, Atlanta, GA 30309, USA",ChIJz4_nc1oE9YgRxihstPqFSoM,,33.791638,-84.389488,1,30309,OK,"bar,establishment,food,point_of_interest,restaurant"
166,APPROXIMATE,"Seoul, South Korea",ChIJzWXFYYuifDUR64Pq5LTtioU,"Seoul, S Korea",37.566535,126.9779692,1,,OK,"locality,political"
167,APPROXIMATE,"Seoul, South Korea",ChIJzWXFYYuifDUR64Pq5LTtioU,"Seoul, S Korea",37.566535,126.9779692,1,,OK,"locality,political"
168,APPROXIMATE,"Seoul, South Korea",ChIJzWXFYYuifDUR64Pq5LTtioU,"Seoul, S Korea",37.566535,126.9779692,1,,OK,"locality,political"
169,APPROXIMATE,"92000 Nanterre, France",ChIJvyXf2YRk5kcR4kfBahzuIXs,"Nanterre, Hauts-de-Seine, France",48.892423,2.215331,1,92000,OK,"locality,political"
170,APPROXIMATE,"95500 Gonesse, France",ChIJMR6JMsFq5kcRtCgNwkUo4FI,"Gonesse, Val d'Oise, France",48.9864632,2.4497721,1,95500,OK,"locality,political"
171,APPROXIMATE,"La Source, 45100 Orléans, France",ChIJC2Jo4Qbk5EcRHMIYBzgEKgI,"Orleans-la-Source, Loiret, France",47.8364544,1.9325511,1,45100,OK,"neighborhood,political"
172,APPROXIMATE,"Paris, France",ChIJD7fiBh9u5kcRYJSMaMOCCwQ,"Paris, France",48.856614,2.3522219,1,,OK,"locality,political"
173,APPROXIMATE,"Geneva, Switzerland",ChIJ6-LQkwZljEcRObwLezWVtqA,"Geneva, Switzerland",46.2043907,6.1431577,1,,OK,"locality,political"
174,APPROXIMATE,"Gold Hill, OR 97525, USA",ChIJNSVQB9yFxVQRGg0pInVvA3o,"Gold Hill, Oregon",42.4317894,-123.0506035,1,97525,OK,"locality,political"
175,APPROXIMATE,"Ashland, OR 97520, USA",ChIJVdvutIxiz1QRrfEteLgfO5s,"Ashland, Oregon",42.1945758,-122.7094767,1,97520,OK,"locality,political"
176,APPROXIMATE,"Medford, OR, USA",ChIJbR82N1t8z1QRbhNBVWxz2wc,"Medford, Oregon",42.3265152,-122.8755949,1,,OK,"locality,political"
177,APPROXIMATE,"Seattle, WA, USA",ChIJVTPokywQkFQRmtVEaUZlJRA,"Seattle, Washington",47.6062095,-122.3320708,1,,OK,"locality,political"
178,APPROXIMATE,"Seattle, WA, USA",ChIJVTPokywQkFQRmtVEaUZlJRA,"Seattle, Washington",47.6062095,-122.3320708,1,,OK,"locality,political"
179,APPROXIMATE,"Medford, OR, USA",ChIJbR82N1t8z1QRbhNBVWxz2wc,"Medford, Oregon",42.3265152,-122.8755949,1,,OK,"locality,political"
180,APPROXIMATE,"Anchorage, AK, USA",ChIJQT-zBHaRyFYR42iEp1q6fSU,"Anchorage, Alaska",61.2180556,-149.9002778,1,,OK,"locality,political"
181,APPROXIMATE,"Tokyo, Japan",ChIJ51cu8IcbXWARiRtXIothAS4,"Tokyo, Japan",35.6894875,139.6917064,1,,OK,"administrative_area_level_1,locality,political"
182,APPROXIMATE,"Tokyo, Japan",ChIJ51cu8IcbXWARiRtXIothAS4,"Tokyo, Japan",35.6894875,139.6917064,1,,OK,"administrative_area_level_1,locality,political"
183,APPROXIMATE,"Tokyo, Japan",ChIJ51cu8IcbXWARiRtXIothAS4,"Tokyo, Japan",35.6894875,139.6917064,1,,OK,"administrative_area_level_1,locality,political"
184,APPROXIMATE,"Urawa Ward, Saitama, Saitama Prefecture, Japan",ChIJuZwasTTAGGARhhpOgPhAgfs,"Urawa, Saitama, Japan",35.8616514,139.645435,1,,OK,"locality,political,ward"
185,APPROXIMATE,"Tokyo, Japan",ChIJ51cu8IcbXWARiRtXIothAS4,"Tokyo, Japan",35.6894875,139.6917064,1,,OK,"administrative_area_level_1,locality,political"
186,APPROXIMATE,"Tokyo, Japan",ChIJ51cu8IcbXWARiRtXIothAS4,"Tokyo, Japan",35.6894875,139.6917064,1,,OK,"administrative_area_level_1,locality,political"
187,APPROXIMATE,"Tokyo, Japan",ChIJ51cu8IcbXWARiRtXIothAS4,"Tokyo, Japan",35.6894875,139.6917064,1,,OK,"administrative_area_level_1,locality,political"
188,APPROXIMATE,"Boulder, CO, USA",ChIJ06-NJ06Na4cRWIAboHw7Ocg,"Boulder, Colorado",40.0149856,-105.2705456,1,,OK,"locality,political"
189,APPROXIMATE,"Calgary, AB, Canada",ChIJ1T-EnwNwcVMROrZStrE7bSY,"Calgary, Alberta",51.0486151,-114.0708459,1,,OK,"locality,political"
190,APPROXIMATE,"Mt Shasta, CA 96067, USA",ChIJQQgCJdPgzVQRB4ZLyAEtao4,"Mt. Shasta, California & Vavenby, British Columbia",41.3098746,-122.3105666,1,96067,OK,"locality,political"
191,APPROXIMATE,"Nan, Thailand",ChIJu20dDgmOJzERwJWGOLGCgAs,,18.7756318,100.7730417,1,,OK,"administrative_area_level_1,political"
192,APPROXIMATE,"23900 Lecco, Province of Lecco, Italy",ChIJVTN5KtMChEcRAgbIC6erfI8,"Lecco, Italy",45.8565698,9.3976704,1,23900,OK,"locality,political"
193,APPROXIMATE,"23811 Ballabio LC, Italy",ChIJRR0ShVUDhEcRvYuX468NFO0,"Ballabio, Como, Italy",45.8961902,9.4251632,1,23811,OK,"locality,political"
194,APPROXIMATE,"21012 Cassano Magnago, VA, Italy",ChIJ36GXA6iJhkcRCfhDT8mhcI4,"Cassano Magnago, Varese, Italy",45.6717299,8.8272627,1,21012,OK,"locality,political"
195,APPROXIMATE,"23811 Ballabio LC, Italy",ChIJRR0ShVUDhEcRvYuX468NFO0,"Ballabio, Como, Italy",45.8961902,9.4251632,1,23811,OK,"locality,political"
196,APPROXIMATE,"23900 Lecco, Province of Lecco, Italy",ChIJVTN5KtMChEcRAgbIC6erfI8,"Lecco, Italy",45.8565698,9.3976704,1,23900,OK,"locality,political"
197,APPROXIMATE,"23845 Costa Masnaga, Province of Lecco, Italy",ChIJe-Z5JUWhhkcR8GpoLgJ4BgQ,"Costamasnaga, Como, Italy",45.7684041,9.2678861,1,23845,OK,"administrative_area_level_3,political"
198,APPROXIMATE,"23900 Lecco, Province of Lecco, Italy",ChIJVTN5KtMChEcRAgbIC6erfI8,"Lecco, Italy",45.8565698,9.3976704,1,23900,OK,"locality,political"
199,APPROXIMATE,"Tokyo, Japan",ChIJ51cu8IcbXWARiRtXIothAS4,"Tokyo, Japan",35.6894875,139.6917064,1,,OK,"administrative_area_level_1,locality,political"
200,APPROXIMATE,"Yokohama, Kanagawa Prefecture, Japan",ChIJCWW2u-xbGGARAFQoYPaDlgY,"Yokohama, Japan",35.4437078,139.6380256,1,,OK,"locality,political"
201,APPROXIMATE,"Tsuchiura, Ibaraki Prefecture, Japan",ChIJn-WKrcASImAR0NDS_e7uS84,"Tsuchiura, Ibaraki, Japan",36.0782972,140.2043331,1,,OK,"locality,political"
202,APPROXIMATE,"Tokyo, Japan",ChIJ51cu8IcbXWARiRtXIothAS4,"Tokyo, Japan",35.6894875,139.6917064,1,,OK,"administrative_area_level_1,locality,political"
203,APPROXIMATE,"Tokyo, Japan",ChIJ51cu8IcbXWARiRtXIothAS4,"Tokyo, Japan",35.6894875,139.6917064,1,,OK,"administrative_area_level_1,locality,political"
204,APPROXIMATE,"Yotsukaido, Chiba Prefecture, Japan",ChIJ-a9UX4KFImARFuxamr92rG8,"Yotsukaido, Chiba, Japan",35.6698162,140.1679247,1,,OK,"locality,political"
205,APPROXIMATE,"39048 Selva di Val Gardena BZ, Italy",ChIJ6XMateUUeEcRPIH7TRrm0Bg,"Selva Gardena, Bolzano, Italy",46.5564624,11.7546575,1,39048,OK,"locality,political"
206,APPROXIMATE,"78000 Versailles, France",ChIJvSD0dbR95kcRukqEDa0AnoY,"Versailles, Yvelines, France",48.801408,2.130122,1,78000,OK,"locality,political"
207,APPROXIMATE,"10015 Ivrea, Metropolitan City of Turin, Italy",ChIJ_cXz1peEiEcRWMtj5GnAAcM,"Ivrea, Torino, Italy",45.4672764,7.8800589,1,10015,OK,"locality,political"
208,APPROXIMATE,"88000 Épinal, France",ChIJnzmpjH2gk0cR3kbdUHWkKO0,"Epinal, Vosges, France",48.172402,6.449403,1,88000,OK,"locality,political"
209,APPROXIMATE,"39047 Santa Cristina Gherdëina, Province of Bolzano - South Tyrol, Italy",ChIJYUwhGGQTeEcRrAudQE6BuUM,"Santa Cristina, Bolzano, Italy",46.5681399,11.7192798,1,39047,OK,"administrative_area_level_3,political"
210,APPROXIMATE,"Angers, France",ChIJnY7lANp4CEgRMJwNHlI3DQQ,"Angers, Maine-et-Loire, France",47.478419,-0.563166,1,,OK,"locality,political"
211,APPROXIMATE,"Angers, France",ChIJnY7lANp4CEgRMJwNHlI3DQQ,"Angers, Maine-et-Loire, France",47.478419,-0.563166,1,,OK,"locality,political"
212,APPROXIMATE,"Grenoble, France",ChIJb76J1ov0ikcRmFOZbs0QjGE,"Grenoble, Isere, France",45.188529,5.724524,1,,OK,"locality,political"
213,APPROXIMATE,"6167 Neustift im Stubaital, Austria",ChIJmfb49MZGnUcRpjEyedj1Tg4,"Neustift, Tirol, Austria",47.1090461,11.3052459,1,6167,OK,"locality,political"
214,APPROXIMATE,"Bagnes, Switzerland",ChIJS_06NYrUjkcRs6zj5Gcv8dU,"Bagnes, Valais, Switzerland",46.07173,7.22404,1,,OK,"locality,political"
215,APPROXIMATE,"Salvan, Switzerland",ChIJPdzsXiexjkcRDDmzWB5WFok,"Salvan, Valais, Switzerland",46.1200551,7.0202955,1,,OK,"locality,political"
216,APPROXIMATE,"Turin, Metropolitan City of Turin, Italy",ChIJJb4YZBJtiEcRv3ec1gP4A4k,"Torino, Italy",45.070312,7.6868565,1,,OK,"locality,political"
217,,,,"Hillivol, Denmark",,,0,,ZERO_RESULTS,
218,APPROXIMATE,"39030 Mareo, Province of Bolzano - South Tyrol, Italy",ChIJZzFKi_0ieEcReiyF0lIeT8o,"Marebbe, Bolzano, Italy",46.6377536,12.033979,1,39030,OK,"administrative_area_level_3,political"
219,APPROXIMATE,"Essonne, France",ChIJH3mvlvjP5UcRMCuLaMOCCwM,"Essonne, France",48.4585698,2.1569416,1,,OK,"administrative_area_level_2,political"
220,APPROXIMATE,"Boulder, CO, USA",ChIJ06-NJ06Na4cRWIAboHw7Ocg,"Boulder, Colorado",40.0149856,-105.2705456,1,,OK,"locality,political"
221,APPROXIMATE,"Milan, Metropolitan City of Milan, Italy",ChIJ53USP0nBhkcRjQ50xhPN_zw,"Milano, Italy",45.4642035,9.189982,1,,OK,"locality,political"
222,APPROXIMATE,"Innsbruck, Austria",ChIJc8r44c9unUcRDZsdKH0cIJ0,"Innsbruck, Tirol, Austria",47.2692124,11.4041024,1,,OK,"locality,political"
223,APPROXIMATE,"6175 Kematen in Tirol, Austria",ChIJ7Q7vtNEUnUcRYIrmLVeXAAQ,"Kematen, Tirol, Austria",47.2549263,11.2737976,1,6175,OK,"locality,political"
224,APPROXIMATE,"33100 Udine, Province of Udine, Italy",ChIJ9QC7_K9KekcRWDiW9CnZVzA,"Udine, Italy",46.0710668,13.2345794,1,33100,OK,"locality,political"
225,APPROXIMATE,"22100 Como, Province of Como, Italy",ChIJY-0nEEichkcRJPVfeK-Wm7k,"Como, Italy",45.8080597,9.0851765,1,22100,OK,"locality,political"
226,APPROXIMATE,"39047 Santa Cristina Gherdëina, Province of Bolzano - South Tyrol, Italy",ChIJYUwhGGQTeEcRrAudQE6BuUM,"Santa Cristina, Bolzano, Italy",46.5681399,11.7192798,1,39047,OK,"administrative_area_level_3,political"
227,APPROXIMATE,"Livorno, Province of Livorno, Italy",ChIJow9-62fp1RIR1BPaIn3zLWA,"Livorno, Italy",43.548473,10.3105674,1,,OK,"locality,political"
228,APPROXIMATE,"6167 Neustift im Stubaital, Austria",ChIJmfb49MZGnUcRpjEyedj1Tg4,"Neustift, Tirol, Austria",47.1090461,11.3052459,1,6167,OK,"locality,political"
229,APPROXIMATE,"6167 Neustift im Stubaital, Austria",ChIJmfb49MZGnUcRpjEyedj1Tg4,"Neustift, Tirol, Austria",47.1090461,11.3052459,1,6167,OK,"locality,political"
230,APPROXIMATE,"39046 Urtijëi, Province of Bolzano - South Tyrol, Italy",ChIJuduAp_kSeEcRO6CWKLI12Do,"Ortisei, Bolzano, Italy",46.5734348,11.6742025,1,39046,OK,"locality,political"
231,APPROXIMATE,"6491 Schönwies, Austria",ChIJWxl4UkzDnEcRwMM78Q5td-Y,"Schoenwies, Tirol, Austria",47.1983973,10.6588837,1,6491,OK,"locality,political"
232,APPROXIMATE,"Woluwe-Saint-Pierre, Belgium",ChIJidlP6I_bw0cRbB-_KFNZQTc,"Woluwe-St. Pierre, Belgium",50.8299809,4.4335038,1,,OK,"locality,political"
233,APPROXIMATE,"Jackson, WY, USA",ChIJS3_P_FgaU1MRXIM6scsBHD0,"Jackson, Wyoming",43.4799291,-110.7624282,1,,OK,"locality,political"
234,APPROXIMATE,"Denver, CO, USA",ChIJzxcfI6qAa4cR1jaKJ_j0jhE,"Denver, Colorado",39.7392358,-104.990251,1,,OK,"locality,political"
235,APPROXIMATE,"Danville, CA, USA",ChIJhwVQCRLzj4AR1S-D85d7Wxg,"Danville, California",37.8215929,-121.9999606,1,,OK,"locality,political"
236,APPROXIMATE,"Golden, CO, USA",ChIJ92xohxKYa4cR3FWAIFRGxhQ,"Golden, Colorado",39.755543,-105.2210997,1,,OK,"locality,political"
237,APPROXIMATE,"Oakland, CA, USA",ChIJA-2qKIt9hYARZ5N1NdUVtHE,"Oakland, California",37.8043637,-122.2711137,1,,OK,"locality,political"
238,APPROXIMATE,"Bellingham, WA, USA",ChIJF4dF8i6WhVQR8OA5zamcetU,"Bellingham, Washington",48.7519112,-122.4786854,1,,OK,"locality,political"
239,APPROXIMATE,"Carbondale, CO 81623, USA",ChIJ1yELJZerQYcRz0qT93lh0Hc,"Carbondale, Colorado",39.4022054,-107.2111628,1,81623,OK,"locality,political"
240,APPROXIMATE,"Christchurch, New Zealand",ChIJAe3FY0gvMm0RRZl5hIbvAAU,"Christchurch, New Zealand",-43.5320544,172.6362254,1,,OK,"locality,political"
241,APPROXIMATE,"Christchurch, New Zealand",ChIJAe3FY0gvMm0RRZl5hIbvAAU,"Christchurch, New Zealand",-43.5320544,172.6362254,1,,OK,"locality,political"
242,APPROXIMATE,"Christchurch, New Zealand",ChIJAe3FY0gvMm0RRZl5hIbvAAU,"Christchurch, New Zealand",-43.5320544,172.6362254,1,,OK,"locality,political"
243,APPROXIMATE,"Christchurch, New Zealand",ChIJAe3FY0gvMm0RRZl5hIbvAAU,"Christchurch, New Zealand",-43.5320544,172.6362254,1,,OK,"locality,political"
244,APPROXIMATE,"Ipswich QLD 4305, Australia",ChIJF8nOI8u1lmsREIze81qjAgU,"Ipswich, QLD, Australia",-27.623,152.76,1,4305,OK,"locality,political"
245,APPROXIMATE,"Nairobi, Kenya",ChIJp0lN2HIRLxgRTJKXslQCz_c,"Nairobi, Kenya",-1.2920659,36.8219462,1,,OK,"locality,political"
246,APPROXIMATE,"Folsom, CA, USA",ChIJf3rZiRvhmoARKs7hMS5MTtQ,"Folsom, California",38.6779591,-121.1760583,1,,OK,"locality,political"
247,APPROXIMATE,"Nairobi, Kenya",ChIJp0lN2HIRLxgRTJKXslQCz_c,"Nairobi, Kenya",-1.2920659,36.8219462,1,,OK,"locality,political"
248,APPROXIMATE,"North Sydney NSW 2060, Australia",ChIJ2b2yeLWvEmsRQMQyFmh9AQU,"North Sydney, NSW, Australia",-33.83965,151.20541,1,2060,OK,"locality,political"
249,APPROXIMATE,"Albany, CA, USA",ChIJPQVb0tJ4hYARLxEHP9E4sNU,"Albany, California",37.88687,-122.2977475,1,,OK,"locality,political"
250,APPROXIMATE,"39030 Ahrntal, Province of Bolzano - South Tyrol, Italy",ChIJQ8KNloXtd0cRkDaRFYcJBwQ,"Ahrntal, Bolzano, Italy",47.0020051,11.933166,1,39030,OK,"administrative_area_level_3,political"
251,APPROXIMATE,"Heidelberg, Germany",ChIJzdzMDgXBl0cR1zokRADq5u8,"Heidelberg, Baden-Wuerttemberg, W Germany",49.3987524,8.6724335,1,,OK,"locality,political"
252,APPROXIMATE,"6290 Mayrhofen, Austria",ChIJbzLYLzjdd0cRDtGuTzM_vt4,"Mayrhofen, Tirol, Austria",47.1691898,11.8651456,1,6290,OK,"locality,political"
253,APPROXIMATE,"Lampertheim, Germany",ChIJ-X05jYfTl0cRgJmwKVBDIgQ,"Lampertheim, Hesse, W Germany",49.5997267,8.466599,1,,OK,"locality,political"
254,APPROXIMATE,"Lampertheim, Germany",ChIJ-X05jYfTl0cRgJmwKVBDIgQ,"Lampertheim, Hesse, W Germany",49.5997267,8.466599,1,,OK,"locality,political"
255,APPROXIMATE,"Uderns, Austria",ChIJa42Jub3Qd0cRtfzg-YEfTIE,"Uderns, Tirol, Austria",47.3229206,11.8642098,1,,OK,"locality,political"
256,APPROXIMATE,"Norwich, UK",ChIJE_UzUdWq0EcRL0USDuClTGg,"Norwich, England",52.6308859,1.297355,1,,OK,"locality,political"
257,APPROXIMATE,"Zell am Ziller, Austria",ChIJNaf0qlnbd0cRAJnmLVeXAAQ,"Zell am Ziller, Tirol, Austria",47.2333597,11.8818949,1,,OK,"locality,political"
258,APPROXIMATE,"Munich, Germany",ChIJ2V-Mo_l1nkcRfZixfUq4DAE,"Munich, Bavaria, W Germany",48.1351253,11.5819805,1,,OK,"locality,political"
259,APPROXIMATE,"39031 Bruneck, Province of Bolzano - South Tyrol, Italy",ChIJXZs5jCQgeEcRKRh-7-QPkNg,"Brunico, Bolzano, Italy",46.7965736,11.9380416,1,39031,OK,"locality,political"
260,APPROXIMATE,"Brno, Czechia",ChIJEVE_wDqUEkcRsLEUZg-vAAQ,"Brno, Czechoslovakia",49.1950602,16.6068371,1,,OK,"locality,political"
261,APPROXIMATE,"7050 Arosa, Switzerland",ChIJ3T5UiFW8hEcRKMrhXh0MT1I,"Arosa, Graubunden, Switzerland",46.7823704,9.6799111,1,7050,OK,"locality,political"
262,APPROXIMATE,"7050 Arosa, Switzerland",ChIJ3T5UiFW8hEcRKMrhXh0MT1I,"Arosa, Graubunden, Switzerland",46.7823704,9.6799111,1,7050,OK,"locality,political"
263,APPROXIMATE,"Basel, Switzerland",ChIJTzBpJ8dJkEcRkIpt83DrHDY,"Basel, Switzerland",47.5595986,7.5885761,1,,OK,"locality,political"
264,APPROXIMATE,"7050 Arosa, Switzerland",ChIJ3T5UiFW8hEcRKMrhXh0MT1I,"Arosa, Graubunden, Switzerland",46.7823704,9.6799111,1,7050,OK,"locality,political"
265,APPROXIMATE,"7050 Arosa, Switzerland",ChIJ3T5UiFW8hEcRKMrhXh0MT1I,"Arosa, Graubunden, Switzerland",46.7823704,9.6799111,1,7050,OK,"locality,political"
266,APPROXIMATE,"Prague, Czechia",ChIJi3lwCZyTC0cRkEAWZg-vAAQ,"Prague, Czechoslovakia",50.0755381,14.4378005,1,,OK,"locality,political"
267,APPROXIMATE,"Teplice, Czechia",ChIJOX8yMYmOCUcRUPwVZg-vAAQ,"Teplice, Czechoslovakia",50.6444579,13.835284,1,,OK,"locality,political"
268,APPROXIMATE,"Bohosudov, 417 42 Krupka, Czechia",ChIJWSEZOSmOCUcRGZx1KcN5lhU,"Bohosudov, Czechoslovakia",50.681863,13.8716769,1,417 42,OK,"neighborhood,political"
269,APPROXIMATE,"549 54 Police nad Metují, Czechia",ChIJd2YgR3BdDkcRUKwVZg-vAAQ,"Police nad Metuji, Czechoslovakia",50.5368675,16.2335098,1,549 54,OK,"locality,political"
270,APPROXIMATE,"Munich, Germany",ChIJ2V-Mo_l1nkcRfZixfUq4DAE,"Munich, Bavaria, W Germany",48.1351253,11.5819805,1,,OK,"locality,political"
271,APPROXIMATE,"Zagreb, Croatia",ChIJOcwCyZLWZUcRisL7KJYkRTo,"Zagreb, Croatia, Yugoslavia",45.8150108,15.9819189,1,,OK,"locality,political"
272,APPROXIMATE,"Zagreb, Croatia",ChIJOcwCyZLWZUcRisL7KJYkRTo,"Zagreb, Croatia, Yugoslavia",45.8150108,15.9819189,1,,OK,"locality,political"
273,APPROXIMATE,"Zagreb, Croatia",ChIJOcwCyZLWZUcRisL7KJYkRTo,"Zagreb, Croatia, Yugoslavia",45.8150108,15.9819189,1,,OK,"locality,political"
274,APPROXIMATE,"Zagreb, Croatia",ChIJOcwCyZLWZUcRisL7KJYkRTo,"Zagreb, Croatia, Yugoslavia",45.8150108,15.9819189,1,,OK,"locality,political"
275,APPROXIMATE,"Zagreb, Croatia",ChIJOcwCyZLWZUcRisL7KJYkRTo,"Zagreb, Croatia, Yugoslavia",45.8150108,15.9819189,1,,OK,"locality,political"
276,APPROXIMATE,"Zagreb, Croatia",ChIJOcwCyZLWZUcRisL7KJYkRTo,"Zagreb, Croatia, Yugoslavia",45.8150108,15.9819189,1,,OK,"locality,political"
277,,,,"Kamnik, Slovenia, Yugoslavia",,,0,,ZERO_RESULTS,
278,APPROXIMATE,"Monthey, Switzerland",ChIJR-W61sG8jkcRZzRRKKVs2uY,"Monthey, Valais, Switzerland",46.2521873,6.9469598,1,,OK,"locality,political"
279,APPROXIMATE,"73700 Bourg-Saint-Maurice, France",ChIJOXYlgjRmiUcRsLa65CqrCAQ,"Bourg St. Maurice, Savoie, France",45.618598,6.769548,1,73700,OK,"locality,political"
280,APPROXIMATE,"Orsières, Switzerland",ChIJe9z22JE0iUcRp7WZaq3xf4A,"Praz-de-Fort, Valais, Switzerland",46.0282108,7.1470995,1,,OK,"locality,political"
281,APPROXIMATE,"Verbier, 1936 Bagnes, Switzerland",ChIJc6mm987PjkcRkYgnDZw-3v8,"Verbier, Valais, Switzerland",46.0960814,7.2285512,1,1936,OK,"political,sublocality,sublocality_level_1"
282,APPROXIMATE,"Levron, 1942 Vollèges, Switzerland",ChIJIRxlz9fOjkcRTYeKpiLtDw0,"Levron, Valais, Switzerland",46.09897,7.16415,1,1942,OK,"colloquial_area,political"
283,APPROXIMATE,"Verbier, 1936 Bagnes, Switzerland",ChIJc6mm987PjkcRkYgnDZw-3v8,"Verbier, Valais, Switzerland",46.0960814,7.2285512,1,1936,OK,"political,sublocality,sublocality_level_1"
284,APPROXIMATE,"Avignon, France",ChIJB528OYfrtRIRNnsd-m6bQuY,"Avignon, Vaucluse, France",43.949317,4.805528,1,,OK,"locality,political"
285,APPROXIMATE,"69190 Saint-Fons, France",ChIJraSrOtvp9EcRMB275CqrCAQ,"St. Fons, Rhone, France",45.708874,4.853374,1,69190,OK,"locality,political"
286,APPROXIMATE,"26420 La Chapelle-en-Vercors, France",ChIJLftvV5aYikcR8Ma_5CqrCAQ,"La Chapelle-en-Vercors, Drome, France",44.968247,5.416081,1,26420,OK,"locality,political"
287,APPROXIMATE,"26420 La Chapelle-en-Vercors, France",ChIJLftvV5aYikcR8Ma_5CqrCAQ,"La Chapelle-en-Vercors, Drome, France",44.968247,5.416081,1,26420,OK,"locality,political"
288,APPROXIMATE,"Springdale, PA, USA",ChIJZ_e9UAGVNIgRsE2QtDLmHAc,"Springdale, Pennsylvania",40.5409008,-79.7839373,1,,OK,"locality,political"
289,APPROXIMATE,"Murrysville, PA, USA",ChIJ169WHHLBNIgR22UGKKdNaGQ,"Murrysville, Pennsylvania",40.4284015,-79.697545,1,,OK,"locality,political"
290,APPROXIMATE,"Pittsburgh, PA, USA",ChIJA4UGSG_xNIgRNBuiWqEV-Y0,"Pittsburgh, Pennsylvania",40.4406248,-79.9958864,1,,OK,"locality,political"
291,APPROXIMATE,"Ridgewood, NJ 07450, USA",ChIJOYyoQ6XkwokRsJcmXQpaGAc,"Ridgewood, New Jersey",40.9792645,-74.1165313,1,07450,OK,"locality,political"
292,APPROXIMATE,"Oakland, CA, USA",ChIJA-2qKIt9hYARZ5N1NdUVtHE,"Oakland, California",37.8043637,-122.2711137,1,,OK,"locality,political"
293,APPROXIMATE,"Solebury, PA 18938, USA",ChIJ2xApcCsHxIkRVNp_akB0nxw,"Solebury, Pennsylvania",40.3806,-75.008292,1,18938,OK,"locality,political"
294,APPROXIMATE,"Athens, Greece",ChIJ8UNwBh-9oRQR3Y1mdkU1Nic,"Athens, Greece",37.9838096,23.7275388,1,,OK,"locality,political"
295,APPROXIMATE,"Athens, Greece",ChIJ8UNwBh-9oRQR3Y1mdkU1Nic,"Athens, Greece",37.9838096,23.7275388,1,,OK,"locality,political"
296,APPROXIMATE,"Kavala, Greece",ChIJAfxmkHK7rhQRbEdqRDfhZ_U,"Kavala, Greece",40.937607,24.412866,1,,OK,"locality,political"
297,ROOFTOP,"1350 Spring St NW #1, Atlanta, GA 30309, USA",ChIJz4_nc1oE9YgRxihstPqFSoM,,33.791638,-84.389488,1,30309,OK,"bar,establishment,food,point_of_interest,restaurant"
298,APPROXIMATE,"Kavala, Greece",ChIJAfxmkHK7rhQRbEdqRDfhZ_U,"Kavala, Greece",40.937607,24.412866,1,,OK,"locality,political"
299,APPROXIMATE,"Athens, Greece",ChIJ8UNwBh-9oRQR3Y1mdkU1Nic,"Athens, Greece",37.9838096,23.7275388,1,,OK,"locality,political"
300,GEOMETRIC_CENTER,"Calver Bridge, Hope Valley S32 3XA, UK",ChIJ0QeJEtwpekgRrO0EsJ-nbW8,"Calver, Sheffield, England",53.2662088,-1.6310538,2,S32 3XA,OK,"bar,establishment,point_of_interest"
301,ROOFTOP,"Bradwell block, Sheephill Rd, Sheffield S11 7TU, UK",ChIJK0JS7qWBeUgRl28V5OIRPM4,"Bradwell, Sheffield, England",53.3434787,-1.5636652,2,S11 7TU,OK,premise
302,APPROXIMATE,"Barnsley, UK",ChIJw2i3wbdieUgRitBTvwJsR8I,"Barnsley, S Yorkshire, England",53.55263,-1.479726,1,,OK,"locality,political"
303,APPROXIMATE,"Brighouse, UK",ChIJzZs1NE3ce0gRsdXYkNt4Stc,"Brighouse, W Yorkshire, England",53.699729,-1.782501,1,,OK,"locality,political"
304,APPROXIMATE,"Manchester, UK",ChIJ2_UmUkxNekgRqmv-BDgUvtk,"Manchester, England",53.4807593,-2.2426305,1,,OK,"locality,political"
305,APPROXIMATE,"Southampton, UK",ChIJCSkVvleJc0gR8HHaTGpajKc,"Southampton, Hampshire, England",50.9097004,-1.4043509,1,,OK,"locality,political"
306,APPROXIMATE,"Sheffield, UK",ChIJFb7o-qkKeUgReLAGr_UnKD4,"Sheffield, S Yorkshire, England",53.381129,-1.470085,1,,OK,"locality,political"
307,APPROXIMATE,"London, UK",ChIJdd4hrwug2EcRmSrV3Vo6llI,"London, England",51.5073509,-0.1277583,1,,OK,"locality,political"
308,GEOMETRIC_CENTER,"Pogmoor Rd, Barnsley S75 2EF, UK",ChIJAUMTxsxkeUgRqnQxIAPv03E,"Pogmoor, Barnsley, S Yorkshire, England",53.5556481,-1.5042335,1,S75 2EF,OK,route
309,APPROXIMATE,"Newport-on-Tay DD6, UK",ChIJN5bQFJNEhkgRWSwDnC--eXI,"Newport-on-Tay, Fife, Scotland",56.440473,-2.940732,1,DD6,OK,"locality,political"
310,APPROXIMATE,"Portland, OR, USA",ChIJJ3SpfQsLlVQRkYXR9ua5Nhw,"Portland, Oregon",45.5230622,-122.6764815,1,,OK,"locality,political"
311,APPROXIMATE,"Eagle River, Anchorage, AK 99577, USA",ChIJiUspZMCMyFYRp_UYSpwkZoM,"Eagle River, Alaska",61.3293186,-149.56805,1,99577,OK,"neighborhood,political"
312,APPROXIMATE,"Seattle, WA, USA",ChIJVTPokywQkFQRmtVEaUZlJRA,"Seattle, Washington",47.6062095,-122.3320708,1,,OK,"locality,political"
313,APPROXIMATE,"Nan, Thailand",ChIJu20dDgmOJzERwJWGOLGCgAs,,18.7756318,100.7730417,1,,OK,"administrative_area_level_1,political"
314,APPROXIMATE,"Pasadena, CA, USA",ChIJUQszONzCwoARSo_RGhZBKwU,"Pasadena, California",34.1477849,-118.1445155,1,,OK,"locality,political"
315,APPROXIMATE,"Stanmore, UK",ChIJC_ATD2kUdkgRkSRhF3QYnwI,"Stanmore, Middlesex, England",51.616419,-0.319686,1,,OK,"locality,political"
316,APPROXIMATE,"Reykjavík, Iceland",ChIJw-3c7rl01kgRcWDSMKIskew,"Reykjavik, Iceland",64.1265206,-21.8174392,1,,OK,"locality,political"
317,APPROXIMATE,"Whatstandwell, Matlock DE4 5EP, UK",ChIJ7zDNh4iLeUgRfU3TuucVubc,"Whatstandwell, Matlock, Derby, England",53.083362,-1.496392,1,DE4 5EP,OK,"locality,political"
318,APPROXIMATE,"Harrogate, UK",ChIJAb11cSNOeUgR_6TeqvuEwAM,"Harrogate, N Yorkshire, England",53.99212,-1.541812,1,,OK,"locality,political"
319,APPROXIMATE,"Nan, Thailand",ChIJu20dDgmOJzERwJWGOLGCgAs,,18.7756318,100.7730417,1,,OK,"administrative_area_level_1,political"
320,APPROXIMATE,"Littleton, CO, USA",ChIJKzvi-z98a4cRwDzWrumXBQc,"Littleton, Colorado",39.613321,-105.0166498,1,,OK,"locality,political"
321,APPROXIMATE,"Sofia, Bulgaria",ChIJ9Xsxy4KGqkARYF6_aRKgAAQ,"Sofia, Bulgaria",42.6977082,23.3218675,1,,OK,"locality,political"
322,APPROXIMATE,"Sofia, Bulgaria",ChIJ9Xsxy4KGqkARYF6_aRKgAAQ,"Sofia, Bulgaria",42.6977082,23.3218675,1,,OK,"locality,political"
323,APPROXIMATE,"Sofia, Bulgaria",ChIJ9Xsxy4KGqkARYF6_aRKgAAQ,"Sofia, Bulgaria",42.6977082,23.3218675,1,,OK,"locality,political"
324,APPROXIMATE,"Sofia, Bulgaria",ChIJ9Xsxy4KGqkARYF6_aRKgAAQ,"Sofia, Bulgaria",42.6977082,23.3218675,1,,OK,"locality,political"
325,APPROXIMATE,"Sofia, Bulgaria",ChIJ9Xsxy4KGqkARYF6_aRKgAAQ,"Sofia, Bulgaria",42.6977082,23.3218675,1,,OK,"locality,political"
326,APPROXIMATE,"Pernik, Bulgaria",ChIJz0npQUnLqhQRgFW_aRKgAAQ,"Pernik, Bulgaria",42.6051862,23.0378368,1,,OK,"locality,political"
327,APPROXIMATE,"Sofia, Bulgaria",ChIJ9Xsxy4KGqkARYF6_aRKgAAQ,"Sofia, Bulgaria",42.6977082,23.3218675,1,,OK,"locality,political"
328,APPROXIMATE,"Sofia, Bulgaria",ChIJ9Xsxy4KGqkARYF6_aRKgAAQ,"Sofia, Bulgaria",42.6977082,23.3218675,1,,OK,"locality,political"
329,APPROXIMATE,"Sofia, Bulgaria",ChIJ9Xsxy4KGqkARYF6_aRKgAAQ,"Sofia, Bulgaria",42.6977082,23.3218675,1,,OK,"locality,political"
330,APPROXIMATE,"Sofia, Bulgaria",ChIJ9Xsxy4KGqkARYF6_aRKgAAQ,"Sofia, Bulgaria",42.6977082,23.3218675,1,,OK,"locality,political"
331,APPROXIMATE,"Sofia, Bulgaria",ChIJ9Xsxy4KGqkARYF6_aRKgAAQ,"Sofia, Bulgaria",42.6977082,23.3218675,1,,OK,"locality,political"
332,APPROXIMATE,"Troyan, Bulgaria",ChIJZ_LDMM5-qUARzt6rfO92Ig0,"Troyan, Bulgaria",42.8903751,24.7129702,1,,OK,"locality,political"
333,APPROXIMATE,"Pernik, Bulgaria",ChIJz0npQUnLqhQRgFW_aRKgAAQ,"Pernik, Bulgaria",42.6051862,23.0378368,1,,OK,"locality,political"
334,APPROXIMATE,"Sofia, Bulgaria",ChIJ9Xsxy4KGqkARYF6_aRKgAAQ,"Sofia, Bulgaria",42.6977082,23.3218675,1,,OK,"locality,political"
335,APPROXIMATE,"Sofia, Bulgaria",ChIJ9Xsxy4KGqkARYF6_aRKgAAQ,"Sofia, Bulgaria",42.6977082,23.3218675,1,,OK,"locality,political"
336,APPROXIMATE,"Sofia, Bulgaria",ChIJ9Xsxy4KGqkARYF6_aRKgAAQ,"Sofia, Bulgaria",42.6977082,23.3218675,1,,OK,"locality,political"
337,APPROXIMATE,"Sofia, Bulgaria",ChIJ9Xsxy4KGqkARYF6_aRKgAAQ,"Sofia, Bulgaria",42.6977082,23.3218675,1,,OK,"locality,political"
338,APPROXIMATE,"Boulder, CO, USA",ChIJ06-NJ06Na4cRWIAboHw7Ocg,"Boulder, Colorado",40.0149856,-105.2705456,1,,OK,"locality,political"
339,APPROXIMATE,"Ridgefield, CT 06877, USA",ChIJkf3H-FuqwokRsOJF6jEVjtc,"Ridgefield, Connecticut",41.2840635,-73.4975412,1,06877,OK,"locality,political"
340,APPROXIMATE,"Grand Junction, CO, USA",ChIJV3DnIuPWRocRVny_zlH0Y8w,"Grand Junction, Colorado",39.0638705,-108.5506486,1,,OK,"locality,political"
341,APPROXIMATE,"Golden, CO, USA",ChIJ92xohxKYa4cR3FWAIFRGxhQ,"Golden, Colorado",39.755543,-105.2210997,1,,OK,"locality,political"
342,APPROXIMATE,"Boulder, CO, USA",ChIJ06-NJ06Na4cRWIAboHw7Ocg,"Boulder, Colorado",40.0149856,-105.2705456,1,,OK,"locality,political"
343,APPROXIMATE,"Boulder, CO, USA",ChIJ06-NJ06Na4cRWIAboHw7Ocg,"Boulder, Colorado",40.0149856,-105.2705456,1,,OK,"locality,political"
344,APPROXIMATE,"Bournemouth, UK",ChIJ_WegsaCYc0gRlCypaxXgLjs,"Bournemouth, Dorset, England",50.719164,-1.880769,1,,OK,"locality,political"
345,APPROXIMATE,"Sandbach CW11, UK",ChIJY1OEAU5YekgRDTu_sF1f9AA,"Sandbach, Cheshire, England",53.146561,-2.367382,1,CW11,OK,"locality,political"
346,APPROXIMATE,"Romsey SO51, UK",ChIJIVOTekaKc0gRX27A5zsvHZI,"Romsey, Hampshire, England",50.98893,-1.49658,1,SO51,OK,"locality,political"
347,APPROXIMATE,"Bristol, UK",ChIJYdizgWaDcUgRH9eaSy6y5I4,"Bristol, Avon, England",51.454513,-2.58791,1,,OK,"locality,political"
348,APPROXIMATE,"Boulder, CO, USA",ChIJ06-NJ06Na4cRWIAboHw7Ocg,"Boulder, Colorado",40.0149856,-105.2705456,1,,OK,"locality,political"
349,APPROXIMATE,"Chelsea, QC, Canada",ChIJIx3LwzXi0UwRMFlNrq0MBAU,"Chelsea, Quebec",45.5401738,-75.867482,1,,OK,"locality,political"
350,APPROXIMATE,"Calgary, AB, Canada",ChIJ1T-EnwNwcVMROrZStrE7bSY,"Calgary, Alberta",51.0486151,-114.0708459,1,,OK,"locality,political"
351,APPROXIMATE,"Calgary, AB, Canada",ChIJ1T-EnwNwcVMROrZStrE7bSY,"Calgary, Alberta",51.0486151,-114.0708459,1,,OK,"locality,political"
352,APPROXIMATE,"Calgary, AB, Canada",ChIJ1T-EnwNwcVMROrZStrE7bSY,"Calgary, Alberta",51.0486151,-114.0708459,1,,OK,"locality,political"
353,APPROXIMATE,"Calgary, AB, Canada",ChIJ1T-EnwNwcVMROrZStrE7bSY,"Calgary, Alberta",51.0486151,-114.0708459,1,,OK,"locality,political"
354,APPROXIMATE,"Seoul, South Korea",ChIJzWXFYYuifDUR64Pq5LTtioU,"Seoul, S Korea",37.566535,126.9779692,1,,OK,"locality,political"
355,APPROXIMATE,"Seoul, South Korea",ChIJzWXFYYuifDUR64Pq5LTtioU,"Seoul, S Korea",37.566535,126.9779692,1,,OK,"locality,political"
356,APPROXIMATE,"Seoul, South Korea",ChIJzWXFYYuifDUR64Pq5LTtioU,"Seoul, S Korea",37.566535,126.9779692,1,,OK,"locality,political"
357,APPROXIMATE,"Seoul, South Korea",ChIJzWXFYYuifDUR64Pq5LTtioU,"Seoul, S Korea",37.566535,126.9779692,1,,OK,"locality,political"
358,APPROXIMATE,"Seoul, South Korea",ChIJzWXFYYuifDUR64Pq5LTtioU,"Seoul, S Korea",37.566535,126.9779692,1,,OK,"locality,political"
359,APPROXIMATE,"Seoul, South Korea",ChIJzWXFYYuifDUR64Pq5LTtioU,"Seoul, S Korea",37.566535,126.9779692,1,,OK,"locality,political"
360,APPROXIMATE,"2840 Holte, Denmark",ChIJaVFEtd1OUkYRwBVSHcyvAAo,"Holte, Denmark",55.8172508,12.4722496,1,2840,OK,"locality,political"
361,APPROXIMATE,"Copenhagen, Denmark",ChIJIz2AXDxTUkYRuGeU5t1-3QQ,"Copenhagen, Denmark",55.6760968,12.5683372,1,,OK,"locality,political"
362,APPROXIMATE,"2860 Søborg, Denmark",ChIJ5c_yx_dRUkYRwjw-EqmkfjY,"Soborg, Denmark",55.735202,12.514807,1,2860,OK,"locality,political"
363,APPROXIMATE,"2800 Lyngby, Denmark",ChIJCY4Z0gxOUkYRiiNSYBNwaso,"Lyngby, Denmark",55.763516,12.4949429,1,2800,OK,"locality,political"
364,APPROXIMATE,"2800 Lyngby, Denmark",ChIJCY4Z0gxOUkYRiiNSYBNwaso,"Lyngby, Denmark",55.763516,12.4949429,1,2800,OK,"locality,political"
365,APPROXIMATE,"Copenhagen, Denmark",ChIJIz2AXDxTUkYRuGeU5t1-3QQ,"Copenhagen, Denmark",55.6760968,12.5683372,1,,OK,"locality,political"
366,APPROXIMATE,"Locarno, Switzerland",ChIJIyho3_zJhUcRmjrqL5kHkf8,"Locarno, Ticino, Switzerland",46.1669988,8.7942643,1,,OK,"locality,political"
367,APPROXIMATE,"6702 Claro, Switzerland",ChIJgwUgo09MhEcRyRnv1rh0-SM,"Claro, Ticino, Switzerland",46.25298,9.02308,1,6702,OK,"locality,political"
368,APPROXIMATE,"Balerna, Switzerland",ChIJyxDV1G33hEcRnJ7FLkOY4Gw,"Balerna, Ticino, Switzerland",45.8484251,9.0077495,1,,OK,"locality,political"
369,APPROXIMATE,"8304 Wallisellen, Switzerland",ChIJRZuOWEigmkcRCrRpMv-i5yk,"Wallisellen, Zurich, Switzerland",47.4156189,8.5889722,1,8304,OK,"locality,political"
370,APPROXIMATE,"3782 Lauenen, Switzerland",ChIJpWUgyfDvjkcRBl9hXBfAnFg,"Lauenen, Bern, Switzerland",46.4243976,7.3223569,1,3782,OK,"locality,political"
371,APPROXIMATE,"3782 Lauenen, Switzerland",ChIJpWUgyfDvjkcRBl9hXBfAnFg,"Lauenen, Bern, Switzerland",46.4243976,7.3223569,1,3782,OK,"locality,political"
372,APPROXIMATE,"Seoul, South Korea",ChIJzWXFYYuifDUR64Pq5LTtioU,"Seoul, S Korea",37.566535,126.9779692,1,,OK,"locality,political"
373,APPROXIMATE,"Seoul, South Korea",ChIJzWXFYYuifDUR64Pq5LTtioU,"Seoul, S Korea",37.566535,126.9779692,1,,OK,"locality,political"
374,APPROXIMATE,"Seoul, South Korea",ChIJzWXFYYuifDUR64Pq5LTtioU,"Seoul, S Korea",37.566535,126.9779692,1,,OK,"locality,political"
375,APPROXIMATE,"74120 Megève, France",ChIJ0alOYJHii0cRsJy65CqrCAQ,"Megeve, Haute-Savoie, France",45.856876,6.61775,1,74120,OK,"locality,political"
376,APPROXIMATE,"Anéran Camors, 65240 Cazaux-Fréchet-Anéran-Camors, France",ChIJmWRcqVJoqBIRi518iHp4R34,"Aneran-Camors, Haute-Pyrennees, France",42.833554,0.412839,1,65240,OK,"political,sublocality,sublocality_level_1"
377,APPROXIMATE,"01630 Saint-Genis-Pouilly, France",ChIJd8AfemlijEcRkATC5CqrCAQ,"St. Genis, France",46.2437479,6.02513,1,01630,OK,"locality,political"
378,APPROXIMATE,"38120 Saint-Égrève, France",ChIJDUihY9bzikcRYGy-5CqrCAQ,"St. Egreve, Isere, France",45.233131,5.681538,1,38120,OK,"locality,political"
379,,,,"Sergy, St. Genis Pouelly, Ain, France",,,0,,ZERO_RESULTS,
380,APPROXIMATE,"Murcia, Spain",ChIJf4yS1fiBYw0RmqvEOJsSJ9Y,"Murcia, Spain",37.9922399,-1.1306544,1,,OK,"locality,political"
381,APPROXIMATE,"Paris, France",ChIJD7fiBh9u5kcRYJSMaMOCCwQ,"Paris, France & Chappaqua, New York",48.856614,2.3522219,1,,OK,"locality,political"
382,APPROXIMATE,"Brussels, Belgium",ChIJ_58PdIbEw0cRMIBML6uZAAE,"Brussels, Belgium",50.8503463,4.3517211,1,,OK,"administrative_area_level_1,locality,political"
383,APPROXIMATE,"91230 Montgeron, France",ChIJbyPrtKEK5kcR0EOLaMOCCwQ,"Montgeron, Essonne, France",48.703859,2.4604529,1,91230,OK,"locality,political"
384,APPROXIMATE,"Rennes, France",ChIJhZDWpy_eDkgRMKvkNs2lDAQ,"Rennes, Ille-et-Vilaine, France",48.117266,-1.6777926,1,,OK,"locality,political"
385,APPROXIMATE,"Sèvres, France",ChIJNeiYQw575kcRbIc1tR8E4ww,"Sevres, Hauts-de-Seine, France",48.8212407,2.2109771,1,,OK,"locality,political"
386,APPROXIMATE,"Moval, France",ChIJpcGl18QikkcR4AkfszTOCQQ,"Moval, Territoire de Belfort, France",47.587687,6.885318,1,,OK,"locality,political"
387,APPROXIMATE,"Naples, Metropolitan City of Naples, Italy",ChIJ6_p622YIOxMRfriMZcxDOtI,"Naples, Italy",40.8517746,14.2681244,1,,OK,"locality,political"
388,APPROXIMATE,"65590 Bordères-Louron, France",ChIJzQiE9BJCqBIRBjJu_WdezXk,"Borderes Louron, Hautes-Pyrenees, France",42.870981,0.394759,1,65590,OK,"locality,political"
389,APPROXIMATE,"Richwiller, France",ChIJCQfJM0KDkUcRkDA5mrlfCgQ,"Richwiller, Haut-Rhin, France",47.779024,7.285138,1,,OK,"locality,political"
390,APPROXIMATE,"Richwiller, France",ChIJCQfJM0KDkUcRkDA5mrlfCgQ,"Richwiller, Haut-Rhin, France",47.779024,7.285138,1,,OK,"locality,political"
391,APPROXIMATE,"Salleri, 56000, Nepal",ChIJKzSSG_k_6TkRK0Oy25uuWfU,"Salleri, Solukhumbu",27.4957598,86.5703554,1,56000,OK,"political,sublocality,sublocality_level_1"
392,,,,"Pangboche, Khumbu",,,0,,ZERO_RESULTS,
393,,,,"Chaurikharka, Khumbu",,,0,,ZERO_RESULTS,
394,APPROXIMATE,"Khumbu Glacier, Khumjung 56000, Nepal",ChIJH3KzaOWr6TkRHAp3LqlCPHs,"Khumjung, Khumbu",27.9720199,86.8308194,2,56000,OK,"establishment,natural_feature"
395,,,,"Yilajung, Khumbu",,,0,,ZERO_RESULTS,
396,APPROXIMATE,"London, UK",ChIJdd4hrwug2EcRmSrV3Vo6llI,"London, England",51.5073509,-0.1277583,1,,OK,"locality,political"
397,APPROXIMATE,"Harrogate, UK",ChIJAb11cSNOeUgR_6TeqvuEwAM,"Harrogate, N Yorkshire, England",53.99212,-1.541812,1,,OK,"locality,political"
398,APPROXIMATE,"Houston, TX, USA",ChIJAYWNSLS4QIYROwVl894CDco,"Houston, Texas",29.7604267,-95.3698028,1,,OK,"locality,political"
399,APPROXIMATE,"Wilsall, MT 59086, USA",ChIJQ-ze4RQIRVMR-batcZPUMmc,"Wilsall, Montana",45.9938227,-110.660209,1,59086,OK,"locality,political"
400,APPROXIMATE,"Golden, CO, USA",ChIJ92xohxKYa4cR3FWAIFRGxhQ,"Golden, Colorado",39.755543,-105.2210997,1,,OK,"locality,political"
401,APPROXIMATE,"Longmont, CO, USA",ChIJSTPM1Qj5a4cRNSej8-6hfcE,"Longmont, Colorado",40.1672068,-105.1019275,1,,OK,"locality,political"
402,APPROXIMATE,"Denver, CO, USA",ChIJzxcfI6qAa4cR1jaKJ_j0jhE,"Denver, Colorado",39.7392358,-104.990251,1,,OK,"locality,political"
403,APPROXIMATE,"Boulder, CO, USA",ChIJ06-NJ06Na4cRWIAboHw7Ocg,"Boulder, Colorado",40.0149856,-105.2705456,1,,OK,"locality,political"
404,APPROXIMATE,"Boulder, CO, USA",ChIJ06-NJ06Na4cRWIAboHw7Ocg,"Boulder, Colorado",40.0149856,-105.2705456,1,,OK,"locality,political"
405,APPROXIMATE,"Boulder, CO, USA",ChIJ06-NJ06Na4cRWIAboHw7Ocg,"Boulder, Colorado",40.0149856,-105.2705456,1,,OK,"locality,political"
406,APPROXIMATE,"Brisbane QLD, Australia",ChIJM9KTrJpXkWsRQK_e81qjAgQ,"Brisbane, QLD, Australia",-27.4697707,153.0251235,1,,OK,"colloquial_area,locality,political"
407,APPROXIMATE,"Middle Park VIC 3206, Australia",ChIJ7W2p5Ohn1moR0OiMIXVWBAU,"Middle Park, Victoria, Australia",-37.851944,144.963056,1,3206,OK,"locality,political"
408,,,,"Silver Bridle, QLD, New Zealand",,,0,,ZERO_RESULTS,
409,APPROXIMATE,"Moorooka QLD 4105, Australia",ChIJVQyGqKRakWsRAJHe81qjAgU,"Moorooka, QLD, Australia",-27.535,153.026,1,4105,OK,"locality,political"
410,APPROXIMATE,"Brisbane QLD, Australia",ChIJM9KTrJpXkWsRQK_e81qjAgQ,"Brisbane, QLD, Australia",-27.4697707,153.0251235,1,,OK,"colloquial_area,locality,political"
411,APPROXIMATE,"Tweed Heads NSW, Australia",ChIJWd6vwdT_kGsRQDBEkLQJBgU,"Tweeds Heads, NSW, Australia",-28.1786656,153.5370011,1,,OK,"colloquial_area,locality,political"
412,APPROXIMATE,"Nara, Nara Prefecture, Japan",ChIJwQyneMU3AWARIiZJubDZ_ko,"Nara-shi, Nara, Japan",34.6850869,135.8050002,1,,OK,"locality,political"
413,APPROXIMATE,"Kobe, Hyōgo Prefecture, Japan",ChIJ2YntKoF9AGAR9HD2wgZhEsc,"Kobe, Hyogo, Japan",34.690083,135.1955112,1,,OK,"locality,political"
414,APPROXIMATE,"Nishinomiya, Hyōgo Prefecture, Japan",ChIJi8pt5aj0AGARcFpdcngtjME,"Nishinomiya, Hyogo, Japan",34.7375965,135.3415643,1,,OK,"locality,political"
415,APPROXIMATE,"Kobe, Hyōgo Prefecture, Japan",ChIJ2YntKoF9AGAR9HD2wgZhEsc,"Kobe, Hyogo, Japan",34.690083,135.1955112,1,,OK,"locality,political"
416,APPROXIMATE,"Kyoto, Kyoto Prefecture, Japan",ChIJ8cM8zdaoAWARPR27azYdlsA,"Kyoto, Japan",35.0116363,135.7680294,1,,OK,"locality,political"
417,APPROXIMATE,"Kyoto, Kyoto Prefecture, Japan",ChIJ8cM8zdaoAWARPR27azYdlsA,"Kyoto, Japan",35.0116363,135.7680294,1,,OK,"locality,political"
418,,,,"Novo Mesto, Slovenia, Yugoslavia",,,0,,ZERO_RESULTS,
419,ROOFTOP,"Kolodvorska ulica 11, 1000 Ljubljana, Slovenia",ChIJmSSm-ZwyZUcRisKpPvTk7bc,"Ljubljana, Slovenia, Yugoslavia",46.0561198,14.5099221,2,1000,OK,"embassy,establishment,point_of_interest"
420,ROOFTOP,"Kolodvorska ulica 11, 1000 Ljubljana, Slovenia",ChIJmSSm-ZwyZUcRisKpPvTk7bc,"Ljubljana, Slovenia, Yugoslavia",46.0561198,14.5099221,2,1000,OK,"embassy,establishment,point_of_interest"
421,APPROXIMATE,"Röthenbach an der Pegnitz, Germany",ChIJo5Frr-DhoUcRsPq1vjLaHgQ,"Roethenbach, Bavaria, W Germany",49.4815486,11.2418751,1,,OK,"locality,political"
422,APPROXIMATE,"Innsbruck, Austria",ChIJc8r44c9unUcRDZsdKH0cIJ0,"Innsbruck, Tirol, Austria",47.2692124,11.4041024,1,,OK,"locality,political"
423,APPROXIMATE,"6071 Aldrans, Austria",ChIJCfjZIt5onUcRy5OwdMlRt2k,"Aldrans, Tirol, Austria",47.2513094,11.4459871,1,6071,OK,"locality,political"
424,APPROXIMATE,"Starnberg, Germany",ChIJmXqbVnHOnUcRoNe0sbJYNL0,"Starnberg, Bavaria, W Germany",48.0467766,11.249517,1,,OK,"administrative_area_level_3,political"
425,APPROXIMATE,"76599 Weisenbach, Germany",ChIJNwhLwEc9l0cR8E0JjTz9HwQ,"Weisenbach, Baden-Wuerttemberg, W Germany",48.728883,8.3544377,1,76599,OK,"locality,political"
426,APPROXIMATE,"Kempten, Germany",ChIJEcln2gd5nEcRK7AzyJW7pbw,"Kempten, Bavaria, W Germany",47.7285699,10.3157835,1,,OK,"locality,political"
427,APPROXIMATE,"Vienna, Austria",ChIJn8o2UZ4HbUcRRluiUYrlwv0,"Vienna, Austria",48.2081743,16.3738189,1,,OK,"locality,political"
428,APPROXIMATE,"Innsbruck, Austria",ChIJc8r44c9unUcRDZsdKH0cIJ0,"Innsbruck, Tirol, Austria",47.2692124,11.4041024,1,,OK,"locality,political"
429,APPROXIMATE,"71083 Herrenberg, Germany",ChIJMUDE3cJYl0cRsCcJjTz9HwQ,"Herrenberg, Baden-Wuerttemberg, W Germany",48.5950369,8.8671577,1,71083,OK,"locality,political"
430,APPROXIMATE,"82487 Oberammergau, Germany",ChIJfy8XngmrnUcRNXWm8KCCprM,"Oberammergau, Bavaria, W Germany",47.5956599,11.072352,1,82487,OK,"locality,political"
431,APPROXIMATE,"39030 Oberrasen, Bozen, Italy",ChIJqVFQqhMneEcRGEudW1cjJTo,"Oberrasen, Bolanzo, Italy",46.7893872,12.0569257,1,39030,OK,"locality,political"
432,APPROXIMATE,"Vail, CO 81657, USA",ChIJB89dUQVwaocRxKOafh_AzMk,"Vail, Colorado",39.6402638,-106.3741955,1,81657,OK,"locality,political"
433,APPROXIMATE,"Lakewood, CO, USA",ChIJt3LdXG-Ba4cRl87Q8fpdkJ4,"Lakewood, Colorado",39.7047095,-105.0813734,1,,OK,"locality,political"
434,APPROXIMATE,"Vail, CO 81657, USA",ChIJB89dUQVwaocRxKOafh_AzMk,"Vail, Colorado",39.6402638,-106.3741955,1,81657,OK,"locality,political"
435,APPROXIMATE,"Durango, CO, USA",ChIJI_yFvaYCPIcRWn6mo4KIK9w,"Durango, Colorado",37.27528,-107.8800667,1,,OK,"locality,political"
436,APPROXIMATE,"Boulder, CO, USA",ChIJ06-NJ06Na4cRWIAboHw7Ocg,"Boulder, Colorado",40.0149856,-105.2705456,1,,OK,"locality,political"
437,APPROXIMATE,"63210 Olby, France",ChIJzSsEsdAS90cR8IOEZjXXkxM,"Olby, Puy-de-Dome, France",45.742854,2.867187,1,63210,OK,"locality,political"
438,APPROXIMATE,"69510 Messimy, France",ChIJcQh2Qszx9EcRcCG75CqrCAQ,"Messimy, Rhone, France",45.697648,4.675516,1,69510,OK,"locality,political"
439,APPROXIMATE,"69510 Messimy, France",ChIJcQh2Qszx9EcRcCG75CqrCAQ,"Messimy, Rhone, France",45.697648,4.675516,1,69510,OK,"locality,political"
440,APPROXIMATE,"Clermont-Ferrand, France",ChIJB4Uuf90b90cRIm-gOGAwlDk,"Clermont-Ferrand, Puy-de-Dome, France",45.777222,3.087025,1,,OK,"locality,political"
441,APPROXIMATE,"Clermont-Ferrand, France",ChIJB4Uuf90b90cRIm-gOGAwlDk,"Clermont-Ferrand, Puy-de-Dome, France",45.777222,3.087025,1,,OK,"locality,political"
442,APPROXIMATE,"69510 Messimy, France",ChIJcQh2Qszx9EcRcCG75CqrCAQ,"Messimy, Rhone, France",45.697648,4.675516,1,69510,OK,"locality,political"
443,APPROXIMATE,"92400 Courbevoie, France",ChIJvccvsApl5kcRED6LaMOCCwQ,"Courbevoie, Hauts-de-Seine, France",48.900552,2.25929,1,92400,OK,"locality,political"
444,APPROXIMATE,"11250 Saint-Hilaire, France",ChIJQ0j5gynSrxIRgB5tFiGIBwQ,"St. Hilaire, Aude, France",43.09324,2.31038,1,11250,OK,"locality,political"
445,APPROXIMATE,"Takasindu, Nepal",ChIJZaWvtFES6TkRXKz2K2ldT9E,"Taksindu, Solukhumbu",27.6733367,86.6409554,1,,OK,"locality,political"
446,,,,"Surke, Khumbu",,,0,,ZERO_RESULTS,
447,APPROXIMATE,"Solukhumbu, Nepal",ChIJb-S8mdoN6TkRtXIlDPQujDQ,Solukhumbu,27.7909733,86.6611083,1,,OK,"administrative_area_level_3,political"
448,APPROXIMATE,"Peterborough, UK",ChIJBUaqzH0H2EcR1Y1t2eEt_q4,"Peterborough, Cambridge, England",52.5694985,-0.2405299,1,,OK,"locality,political"
449,APPROXIMATE,"Edinburgh, UK",ChIJIyaYpQC4h0gRJxfnfHsU8mQ,"Edinburgh, Scotland",55.953252,-3.188267,1,,OK,"locality,political"
450,APPROXIMATE,"Sheffield, UK",ChIJFb7o-qkKeUgReLAGr_UnKD4,"Sheffield, S Yorkshire, England",53.381129,-1.470085,1,,OK,"locality,political"
451,APPROXIMATE,"London, UK",ChIJdd4hrwug2EcRmSrV3Vo6llI,"London, England",51.5073509,-0.1277583,1,,OK,"locality,political"
452,APPROXIMATE,"Purley, UK",ChIJkdBxFnb9dUgRqACc8Rg4rPI,"Purley, Surrey, England",51.339228,-0.119711,1,,OK,"locality,political"
453,APPROXIMATE,"Aylesbury, UK",ChIJvc2tLYhXdkgRs_t_WPoQG9g,"Aylesbury, Buckingham, England",51.815606,-0.8084,1,,OK,"locality,political"
454,APPROXIMATE,"Sheffield, UK",ChIJFb7o-qkKeUgReLAGr_UnKD4,"Sheffield, S Yorkshire, England",53.381129,-1.470085,1,,OK,"locality,political"
455,,,,"Tiladate, Italy",,,0,,ZERO_RESULTS,
456,APPROXIMATE,"Turin, Metropolitan City of Turin, Italy",ChIJJb4YZBJtiEcRv3ec1gP4A4k,"Torino, Italy",45.070312,7.6868565,1,,OK,"locality,political"
457,APPROXIMATE,"20091 Bresso, Metropolitan City of Milan, Italy",ChIJgUJ_M1i_hkcRQmJdazzHwOM,"Bresso, Milano, Italy",45.5391048,9.1903928,1,20091,OK,"locality,political"
458,ROOFTOP,"Place du Lignon 2, 1219 Genève, Switzerland",ChIJxaLKFapkjEcRqPGVhhsIWl4,"Lingnon, Geneva, Switzerland",46.2044063,6.0974068,1,1219,OK,"establishment,hospital,point_of_interest"
459,APPROXIMATE,"Plan-les-Ouates, Switzerland",ChIJa3TRmQh7jEcRcdO2vnPbreY,"Plan-les-Ouates, Geneva, Switzerland",46.1668075,6.1145793,1,,OK,"locality,political"
460,APPROXIMATE,"Rome, Metropolitan City of Rome, Italy",ChIJu46S-ZZhLxMROG5lkwZ3D7k,"Rome, Italy",41.9027835,12.4963655,1,,OK,"locality,political"
461,APPROXIMATE,"10051 Avigliana, Metropolitan City of Turin, Italy",ChIJi81sNg1HiEcRtnaNv5JKMTA,"Avigliana, Torino, Italy",45.076291,7.4016896,1,10051,OK,"locality,political"
462,APPROXIMATE,"10020 Pecetto Torinese TO, Italy",ChIJQwLeb8AMiEcRrfAuh_WzfnY,"Pecetto, Torino, Italy",45.0189124,7.7501106,1,10020,OK,"locality,political"
463,APPROXIMATE,"Turin, Metropolitan City of Turin, Italy",ChIJJb4YZBJtiEcRv3ec1gP4A4k,"Torino, Italy",45.070312,7.6868565,1,,OK,"locality,political"
464,APPROXIMATE,"10052 Bardonecchia, Metropolitan City of Turin, Italy",ChIJWzL47vHsiUcR04Rf8pA-MGQ,"Bardonecchia, Torino, Italy",45.0742861,6.6960506,1,10052,OK,"locality,political"
465,APPROXIMATE,"10044 Pianezza, Metropolitan City of Turin, Italy",ChIJ--VYpDtqiEcRsI88R33mBQQ,"Pianezza, Torino, Italy",45.1104305,7.5586164,1,10044,OK,"administrative_area_level_3,political"
466,APPROXIMATE,"11026 Pont-Saint-Martin, Aosta Valley, Italy",ChIJLQwA3P2WiEcRuQeHmYnLR8w,"Pont St. Martin, Aosta, Italy",45.594928,7.798357,1,11026,OK,"locality,political"
467,APPROXIMATE,"Acomb, York, UK",ChIJvT0vIiIxeUgRLEL5MAqRzTI,"Acomb, N Yorkshire, England",53.9570121,-1.1301081,1,,OK,"political,sublocality,sublocality_level_1"
468,APPROXIMATE,"Riccall, York YO19, UK",ChIJtW6Ky1w7eUgRfLgCEn1YZ_w,"Riccall, Yorkshire, England",53.833319,-1.0595972,1,YO19,OK,"locality,political"
469,APPROXIMATE,"York, UK",ChIJ8WWY4UDDeEgR0eRUiomrdEc,"York, England",53.9599651,-1.0872979,1,,OK,"locality,political"
470,APPROXIMATE,"Sheriff Hutton, York YO60, UK",ChIJUS3NWc_SfkgRtUhiwdukj8g,"Sheriff Hutton, York, England",54.0891597,-1.0067805,1,YO60,OK,"locality,political"
471,APPROXIMATE,"York, UK",ChIJ8WWY4UDDeEgR0eRUiomrdEc,"York, England",53.9599651,-1.0872979,1,,OK,"locality,political"
472,APPROXIMATE,"York, UK",ChIJ8WWY4UDDeEgR0eRUiomrdEc,"York, England",53.9599651,-1.0872979,1,,OK,"locality,political"
473,APPROXIMATE,"Vienna, Austria",ChIJn8o2UZ4HbUcRRluiUYrlwv0,"Vienna, Austria",48.2081743,16.3738189,1,,OK,"locality,political"
474,APPROXIMATE,"Vienna, Austria",ChIJn8o2UZ4HbUcRRluiUYrlwv0,"Vienna, Austria",48.2081743,16.3738189,1,,OK,"locality,political"
475,APPROXIMATE,"Vienna, Austria",ChIJn8o2UZ4HbUcRRluiUYrlwv0,"Vienna, Austria",48.2081743,16.3738189,1,,OK,"locality,political"
476,APPROXIMATE,"Puchheim, Germany",ChIJBZHInAjWnUcRROT82WShHvQ,"Puchheim, Bavaria, Germany",48.1632257,11.3421615,1,,OK,"locality,political"
477,APPROXIMATE,"Ravensburg, Germany",ChIJjUNwkEypm0cR8LLfpbdrHwQ,"Ravensburg, Baden-Wuerttemberg, Germany",47.7782704,9.6121303,1,,OK,"locality,political"
478,APPROXIMATE,"Puchheim, Germany",ChIJBZHInAjWnUcRROT82WShHvQ,"Puchheim, Bavaria, Germany",48.1632257,11.3421615,1,,OK,"locality,political"
479,APPROXIMATE,"Ravensburg, Germany",ChIJjUNwkEypm0cR8LLfpbdrHwQ,"Ravensburg, Baden-Wuerttemberg, Germany",47.7782704,9.6121303,1,,OK,"locality,political"
480,APPROXIMATE,"Geneva, Switzerland",ChIJ6-LQkwZljEcRObwLezWVtqA,"Geneva, Switzerland",46.2043907,6.1431577,1,,OK,"locality,political"
481,APPROXIMATE,"3961 Saint-Jean, Switzerland",ChIJB_WRAIUjj0cRqEfJpR6x89w,"St. Jean, Valais, Switzerland",46.1977351,7.5862859,1,3961,OK,"locality,political"
482,APPROXIMATE,"Merano, Province of Bolzano - South Tyrol, Italy",ChIJ2xr5zwG8gkcRWaTQdcopgII,"Merano, Bolzano, Italy",46.6712938,11.1525179,1,,OK,"locality,political"
483,APPROXIMATE,"39020 Schluderns, Province of Bolzano - South Tyrol, Italy",ChIJA5gNLeshg0cRGo_CTFoZfCI,"Schluderns, Bolzano, Italy",46.664767,10.5863076,1,39020,OK,"locality,political"
484,APPROXIMATE,"39049 Vipiteno, Province of Bolzano - South Tyrol, Italy",ChIJ7U8rkUBTnUcR-fzWKd6Rz-w,"Vipiteno, Bolzano, Italy",46.8926725,11.4336186,1,39049,OK,"locality,political"
485,APPROXIMATE,"39025 Stava BZ, Italy",ChIJaxXiwpzBgkcRcpy61p8hhFs,"Staben, Bolzano, Italy",46.6456315,10.9668115,1,39025,OK,"locality,political"
486,APPROXIMATE,"39028 Schlanders, Province of Bolzano - South Tyrol, Italy",ChIJCcoBYl_ngkcR5Wm5v5R9JXU,"Schlanders, Bolzano, Italy",46.6276771,10.7736888,1,39028,OK,"locality,political"
487,APPROXIMATE,"39028 Schlanders, Province of Bolzano - South Tyrol, Italy",ChIJCcoBYl_ngkcR5Wm5v5R9JXU,"Schlanders, Bolzano, Italy",46.6276771,10.7736888,1,39028,OK,"locality,political"
488,,,,"Bagar, Myagdi",,,0,,ZERO_RESULTS,
489,APPROXIMATE,"Seattle, WA, USA",ChIJVTPokywQkFQRmtVEaUZlJRA,"Seattle, Washington",47.6062095,-122.3320708,1,,OK,"locality,political"
490,APPROXIMATE,"Intervale, NH 03860, USA",ChIJ48qB1ryhs0wR9h_1dkVVLK8,"Intervale, New Hampshire",44.0742357,-71.1400711,1,03860,OK,"locality,political"
491,APPROXIMATE,"Conway, NH, USA",ChIJJdHA9dEJs0wRFrGYW5CdFhs,"Conway, New Hampshire",43.9791831,-71.1203479,1,,OK,"locality,political"
492,APPROXIMATE,"Paddington NSW 2021, Australia",ChIJt4nzrAiuEmsRcMUyFmh9AQU,"Paddington, NSW, Australia",-33.88477,151.22621,1,2021,OK,"locality,political"
493,APPROXIMATE,"Brownfield, ME, USA",ChIJdeGfkuMAs0wRoNpIMI7_Bcg,"Brownfield, Maine",43.9381275,-70.9086768,1,,OK,"locality,political"
494,APPROXIMATE,"Nan, Thailand",ChIJu20dDgmOJzERwJWGOLGCgAs,,18.7756318,100.7730417,1,,OK,"administrative_area_level_1,political"
495,APPROXIMATE,"Nan, Thailand",ChIJu20dDgmOJzERwJWGOLGCgAs,,18.7756318,100.7730417,1,,OK,"administrative_area_level_1,political"
496,GEOMETRIC_CENTER,"981 94 Riksgränsen, Sweden",ChIJf1taNOez20URl8z_ReBKq7k,"Riksgransen, Sweden",68.426591,18.1252634,1,981 94,OK,"establishment,point_of_interest"
497,APPROXIMATE,"Narvik, Norway",ChIJ_x_kxYeV20URjfaf7jXnOHw,"Narvik, Norway",68.4384984,17.4272613,1,,OK,"locality,political"
498,APPROXIMATE,"830 22 Fåker, Sweden",ChIJ9XGGjeCkb0YRQfsxPjLDVRU,"Faker, Sweden",62.994604,14.5766292,1,830 22,OK,"locality,political"
499,APPROXIMATE,"Tromsø, Norway",ChIJ_XE7bFLExEUR075ujoXKPQI,"Tromso, Norway",69.6492047,18.9553239,1,,OK,"locality,political"
500,APPROXIMATE,"830 22 Fåker, Sweden",ChIJ9XGGjeCkb0YRQfsxPjLDVRU,"Faker, Sweden",62.994604,14.5766292,1,830 22,OK,"locality,political"
501,APPROXIMATE,"Sofiemyr, Norway",ChIJnVWL8XZoQUYRAzOF5GwDsZQ,"Sofiemyr, Norway",59.7972342,10.8171296,1,,OK,"locality,political"
502,APPROXIMATE,"Groveland-Big Oak Flat, CA, USA",ChIJt6xbg3DWkIARTgq50H77elk,"Big Oak Flat, California",37.8617633,-120.1935663,1,,OK,"colloquial_area,political"
503,APPROXIMATE,"Sandy, UT, USA",ChIJSW5OwfhkUocRmVRxEMt64l8,"Sandy, Utah",40.5649781,-111.8389726,1,,OK,"locality,political"
504,APPROXIMATE,"Salt Lake City, UT, USA",ChIJ7THRiJQ9UocRyjFNSKC3U1s,"Salt Lake City, Utah",40.7607793,-111.8910474,1,,OK,"locality,political"
505,APPROXIMATE,"Salt Lake City, UT, USA",ChIJ7THRiJQ9UocRyjFNSKC3U1s,"Salt Lake City, Utah",40.7607793,-111.8910474,1,,OK,"locality,political"
506,APPROXIMATE,"Salt Lake City, UT, USA",ChIJ7THRiJQ9UocRyjFNSKC3U1s,"Salt Lake City, Utah",40.7607793,-111.8910474,1,,OK,"locality,political"
507,APPROXIMATE,"Nan, Thailand",ChIJu20dDgmOJzERwJWGOLGCgAs,,18.7756318,100.7730417,1,,OK,"administrative_area_level_1,political"
508,APPROXIMATE,"Estes Park, CO 80517, USA",ChIJAxoZu9ZlaYcRDKzKqbeYlts,"Estes Park, Colorado",40.3772059,-105.5216651,1,80517,OK,"locality,political"
509,APPROXIMATE,"Ellicott City, MD, USA",ChIJB298ASsgyIkRYDdyjFUZEgc,"Ellicott City, Maryland",39.2673283,-76.7983067,1,,OK,"locality,political"
510,APPROXIMATE,"24027 Nembro, Province of Bergamo, Italy",ChIJ43dnm89ZgUcR17ZzHQQ-OK8,"Nembro, Bergamo, Italy",45.7434353,9.7615203,1,24027,OK,"locality,political"
511,APPROXIMATE,"15050 Alzano Scrivia, Province of Alessandria, Italy",ChIJNQTvzhcUh0cRELo8R33mBQQ,"Alzano, Alessandria, Italy",45.0171125,8.8829352,1,15050,OK,"administrative_area_level_3,political"
512,APPROXIMATE,"24058 Romano di Lombardia, Province of Bergamo, Italy",ChIJVd5OJSZHgUcRGoPC8N8UF9I,"Romano di Lombardia, Bergamo, Italy",45.5210652,9.7550117,1,24058,OK,"locality,political"
513,APPROXIMATE,"24023 Clusone, Province of Bergamo, Italy",ChIJ4UY-ugbng0cRG8UBl0w2nss,"Clusone, Bergamo, Italy",45.8889397,9.9480311,1,24023,OK,"locality,political"
514,APPROXIMATE,"24048 Treviolo, Province of Bergamo, Italy",ChIJaS5oDSNSgUcRmKADp-8fWCY,"Treviolo, Bergamo, Italy",45.6693283,9.6064483,1,24048,OK,"locality,political"
515,APPROXIMATE,"Seattle, WA, USA",ChIJVTPokywQkFQRmtVEaUZlJRA,"Seattle, Washington",47.6062095,-122.3320708,1,,OK,"locality,political"
516,APPROXIMATE,"Seattle, WA, USA",ChIJVTPokywQkFQRmtVEaUZlJRA,"Seattle, Washington",47.6062095,-122.3320708,1,,OK,"locality,political"
517,APPROXIMATE,"North Bend, WA 98045, USA",ChIJ5QWbM5p_mlQRq1w_0IKoydo,"North Bend, Washington",47.4956579,-121.7867775,1,98045,OK,"locality,political"
518,APPROXIMATE,"Seattle, WA, USA",ChIJVTPokywQkFQRmtVEaUZlJRA,"Seattle, Washington",47.6062095,-122.3320708,1,,OK,"locality,political"
519,APPROXIMATE,"Seattle, WA, USA",ChIJVTPokywQkFQRmtVEaUZlJRA,"Seattle, Washington",47.6062095,-122.3320708,1,,OK,"locality,political"
520,APPROXIMATE,"Seattle, WA, USA",ChIJVTPokywQkFQRmtVEaUZlJRA,"Seattle, Washington",47.6062095,-122.3320708,1,,OK,"locality,political"
521,APPROXIMATE,"San Jose, CA, USA",ChIJ9T_5iuTKj4ARe3GfygqMnbk,"San Jose, California",37.3382082,-121.8863286,1,,OK,"locality,political"
522,APPROXIMATE,"Mexico City, CDMX, Mexico",ChIJB3UJ2yYAzoURQeheJnYQBlQ,"Mexico City, Mexico",19.4326077,-99.133208,1,,OK,"locality,political"
523,APPROXIMATE,"Mexico City, CDMX, Mexico",ChIJB3UJ2yYAzoURQeheJnYQBlQ,"Mexico City, Mexico",19.4326077,-99.133208,1,,OK,"locality,political"
524,APPROXIMATE,"Mexico City, CDMX, Mexico",ChIJB3UJ2yYAzoURQeheJnYQBlQ,"Mexico City, Mexico",19.4326077,-99.133208,1,,OK,"locality,political"
525,APPROXIMATE,"Dublin, Ireland",ChIJL6wn6oAOZ0gRoHExl6nHAAo,"Dublin, Ireland",53.3498053,-6.2603097,1,,OK,"locality,political"
526,APPROXIMATE,"Kilmore, Dublin, Ireland",ChIJkQZey9QPZ0gR4VO0uqfHACY,"Kilmore West, Dublin, Ireland",53.3930026,-6.2204254,1,,OK,"political,sublocality,sublocality_level_1"
527,APPROXIMATE,"Ballycannon, Co. Cork, Ireland",ChIJV-LcSoaRREgREjC-GajHACY,"Ballycannon, Cork, Ireland",51.9122189,-8.5685687,1,,OK,"neighborhood,political"
528,APPROXIMATE,"Killarney, Co. Kerry, Ireland",ChIJ2W6XtAw8RUgRwHQxl6nHAAo,"Killarney, Kerry, Ireland",52.0599353,-9.5044265,1,,OK,"locality,political"
529,APPROXIMATE,"Killarney, Co. Kerry, Ireland",ChIJ2W6XtAw8RUgRwHQxl6nHAAo,"Killarney, Kerry, Ireland",52.0599353,-9.5044265,1,,OK,"locality,political"
530,APPROXIMATE,"Drom, Leap, Co. Cork, Ireland",ChIJrZyTPVWpRUgREM4xl6nHAAo,"Leap, Cork, Ireland",51.5811998,-9.1408671,1,,OK,"locality,political"
531,GEOMETRIC_CENTER,"Beaufort Bar & Restaurant, Beaufort, Killarney, Co. Kerry, Ireland",ChIJBfY1fz9HRUgRbAr6mYOvw7M,"Killarney (Boufort Village), Kerry, Ireland",52.069846,-9.633156,1,,OK,"bar,establishment,food,point_of_interest,restaurant"
532,GEOMETRIC_CENTER,"Yosemite National Park, California, USA",ChIJxeyK9Z3wloAR_gOA7SycJC0,"Yosemite, California",37.8651011,-119.5383294,1,,OK,"establishment,park,point_of_interest"
533,GEOMETRIC_CENTER,"Yosemite National Park, California, USA",ChIJxeyK9Z3wloAR_gOA7SycJC0,"Yosemite National Park, California",37.8651011,-119.5383294,1,,OK,"establishment,park,point_of_interest"
534,APPROXIMATE,"Wilson, WY, USA",ChIJp7aQc_0NU1MRN9hlnAXlA3M,"Wilson, Wyoming",43.5007599,-110.8752112,1,,OK,"locality,political"
535,GEOMETRIC_CENTER,"Kings Canyon National Park, California, USA",ChIJe6fxX-7Vv4ARTA9DcLeDZII,"Kings Canyon, California",36.8878548,-118.5551477,1,,OK,"establishment,park,point_of_interest"
536,APPROXIMATE,"Twain Harte, CA, USA",ChIJuYKrBXfKkIARaRPV5wX9FDQ,"Twain Harte, California",38.0385049,-120.2295831,1,,OK,"locality,political"
537,APPROXIMATE,"Atherton, CA 94027, USA",ChIJveSHS56kj4ARLc3FF5K_W2U,"Atherton, California",37.4613272,-122.197743,1,94027,OK,"locality,political"
538,APPROXIMATE,"Menlo Park, CA, USA",ChIJ_4ByEbGmj4ARq4nyXY6Zv-s,"Menlo Park, California",37.4529598,-122.1817252,1,,OK,"locality,political"
539,APPROXIMATE,"San Francisco, CA, USA",ChIJIQBpAG2ahYAR_6128GcTUEo,"San Francisco, California",37.7749295,-122.4194155,1,,OK,"locality,political"
540,APPROXIMATE,"Los Altos Hills, CA, USA",ChIJBQIVpgaxj4ARplGWMqUk0yo,"Altos Hills, California",37.3796627,-122.1374637,1,,OK,"locality,political"
541,APPROXIMATE,"Lander, WY 82520, USA",ChIJrwBXldXbTFMREz2dvpp3akY,"Lander, Wyoming",42.833014,-108.7306725,1,82520,OK,"locality,political"
542,APPROXIMATE,"Lander, WY 82520, USA",ChIJrwBXldXbTFMREz2dvpp3akY,"Lander, Wyoming",42.833014,-108.7306725,1,82520,OK,"locality,political"
543,APPROXIMATE,"Lander, WY 82520, USA",ChIJrwBXldXbTFMREz2dvpp3akY,"Lander, Wyoming",42.833014,-108.7306725,1,82520,OK,"locality,political"
544,APPROXIMATE,"Lander, WY 82520, USA",ChIJrwBXldXbTFMREz2dvpp3akY,"Lander, Wyoming",42.833014,-108.7306725,1,82520,OK,"locality,political"
545,APPROXIMATE,"Newton, MA, USA",ChIJpSUHhAmC44kRfq9wm3sIklU,"Newton, Massachusetts",42.3370413,-71.2092214,1,,OK,"locality,political"
546,APPROXIMATE,"74400 Chamonix, France",ChIJ5y7-LQZMiUcRgKO65CqrCAQ,"Chamonix, Haute-Savoie, France",45.923697,6.869433,1,74400,OK,"locality,political"
547,APPROXIMATE,"Verbier, 1936 Bagnes, Switzerland",ChIJc6mm987PjkcRkYgnDZw-3v8,"Verbier, Valais, Switzerland",46.0960814,7.2285512,1,1936,OK,"political,sublocality,sublocality_level_1"
548,APPROXIMATE,"Jackson, WY, USA",ChIJS3_P_FgaU1MRXIM6scsBHD0,"Jackson, Wyoming",43.4799291,-110.7624282,1,,OK,"locality,political"
549,APPROXIMATE,"38123 Mattarello, Province of Trento, Italy",ChIJlSa4A_R0gkcRtjTuDN8eDXw,"Mattarello, Trento, Italy",46.0062499,11.1366731,1,38123,OK,"locality,political"
550,APPROXIMATE,"38065 Mori TN, Italy",ChIJ9whVZJgPgkcRhH9tBN_ON5A,"Mori, Trento, Italy",45.8513894,10.9787861,1,38065,OK,"locality,political"
551,APPROXIMATE,"38057 Pergine Valsugana, Province of Trento, Italy",ChIJwbI5cZGdeEcRbJzBQKLTU6s,"Pergine Valsugana, Trento, Italy",46.06174,11.2369603,1,38057,OK,"locality,political"
552,APPROXIMATE,"Bern, Switzerland",ChIJdxs61MA5jkcRmmVXBP5fVcs,"Bern, Switzerland",46.9479739,7.4474468,1,,OK,"locality,political"
553,APPROXIMATE,"London, UK",ChIJdd4hrwug2EcRmSrV3Vo6llI,"London, England",51.5073509,-0.1277583,1,,OK,"locality,political"
554,APPROXIMATE,"Büren, 5272 Gansingen, Switzerland",ChIJ74xUwhJBkEcRqHvbuAFKtK8,"Bueren, Aargau, Switzerland",47.5332116,8.1379383,1,5272,OK,"colloquial_area,political"
555,APPROXIMATE,"3906 Saas Fee, Switzerland",ChIJp2CD9qJFj0cRzho9eqWJgOU,"Saas-Fee, Valais, Switzerland",46.1091073,7.9297122,1,3906,OK,"locality,political"
556,APPROXIMATE,"Bern, Switzerland",ChIJdxs61MA5jkcRmmVXBP5fVcs,"Bern, Switzerland",46.9479739,7.4474468,1,,OK,"locality,political"
557,APPROXIMATE,"7214 Grüsch, Switzerland",ChIJ0eIy1Je2hEcRmG-fm6tg4co,"Gruesch, Graubunden, Switzerland",46.9806104,9.6503565,1,7214,OK,"locality,political"
558,APPROXIMATE,"Naters, Switzerland",ChIJ3VZmMSduj0cRLY06kLslGDE,"Naters, Valais, Switzerland",46.3239282,7.9916569,1,,OK,"locality,political"
559,APPROXIMATE,"7240 Küblis, Switzerland",ChIJ2WcQ0FOuhEcRFC-AWapZ4K8,"Kueblis, Graubunden, Switzerland",46.9144002,9.7784561,1,7240,OK,"locality,political"
560,APPROXIMATE,"Forch, 8127 Küsnacht, Switzerland",ChIJ_Yd4bUmkmkcRP8s9SSb98wA,"Forch, Zurich, Switzerland",47.3247859,8.6532444,1,8127,OK,"colloquial_area,establishment,natural_feature,political"
561,APPROXIMATE,"Naters, Switzerland",ChIJ3VZmMSduj0cRLY06kLslGDE,"Naters, Valais, Switzerland",46.3239282,7.9916569,1,,OK,"locality,political"
562,APPROXIMATE,"Rodez, France",ChIJJeS5RZh9shIROSz30NxQV68,"Rodez, Aveyron, France",44.349389,2.575986,1,,OK,"locality,political"
563,APPROXIMATE,"92410 Ville-d'Avray, France",ChIJB1B46WR75kcR6D-us07WpAc,"Ville d'Avray, Hauts-de-Seine, France",48.8270042,2.1886944,1,92410,OK,"locality,political"
564,APPROXIMATE,"Sucy-en-Brie, France",ChIJPfPdNVMJ5kcRWttXNgiD9ag,"Sucy-en-Brie, Val-de-Marne, France",48.7708784,2.5221629,1,,OK,"locality,political"
565,APPROXIMATE,"91600 Savigny-sur-Orge, France",ChIJaRBAeLLY5UcR0ECLaMOCCwQ,"Savigny-sur-Orge, Essonne, France",48.6851259,2.349282,1,91600,OK,"locality,political"
566,APPROXIMATE,"Lillebonne, France",ChIJaf2XbA9Q4EcRi0_hXe1Bpj8,"Lillebonne, Seine-Maritime, France",49.5188773,0.5344584,1,,OK,"locality,political"
567,APPROXIMATE,"74400 Chamonix, France",ChIJ5y7-LQZMiUcRgKO65CqrCAQ,"Chamonix, Haute-Savoie, France",45.923697,6.869433,1,74400,OK,"locality,political"
568,APPROXIMATE,"Meyrin, Switzerland",ChIJqyoJ0nZjjEcR5dqtvaztCd0,"Meyrin, Geneva, Switzerland",46.2283204,6.070988,1,,OK,"locality,political"
569,APPROXIMATE,"74400 Chamonix, France",ChIJ5y7-LQZMiUcRgKO65CqrCAQ,"Chamonix, Haute-Savoie, France",45.923697,6.869433,1,74400,OK,"locality,political"
570,APPROXIMATE,"Annecy, France",ChIJyVEFHPqPi0cRujQFYoEWeEI,"Annecy, Haute-Savoie, France",45.899247,6.129384,1,,OK,"locality,political,sublocality,sublocality_level_1"
571,APPROXIMATE,"92400 Courbevoie, France",ChIJvccvsApl5kcRED6LaMOCCwQ,"Courbevoie, Hauts-de-Seine, France",48.900552,2.25929,1,92400,OK,"locality,political"
572,APPROXIMATE,"Orléans, France",ChIJ44bzndTk5EcRKYDDeeR9uZ4,"Orleans, Loiret, France",47.902964,1.909251,1,,OK,"locality,political"
573,APPROXIMATE,"86000 Poitiers, France",ChIJq7OeQ3K-_UcRk5DgxRkj3pc,"Poitiers, Vienne, France",46.580224,0.340375,1,86000,OK,"locality,political"
574,APPROXIMATE,"14000 Caen, France",ChIJM8kETL1CCkgRWQjQMJ90pT0,"Caen, Calvados, France",49.182863,-0.370679,1,14000,OK,"locality,political"
575,APPROXIMATE,"74400 Chamonix, France",ChIJ5y7-LQZMiUcRgKO65CqrCAQ,"Chamonix, Haute-Savoie, France",45.923697,6.869433,1,74400,OK,"locality,political"
576,APPROXIMATE,"1255 Veyrier, Switzerland",ChIJ_0G7uZZ6jEcRko5dJOF8L1Q,"Veyrier, Geneva, Switzerland",46.1660489,6.178397,1,1255,OK,"locality,political"
577,APPROXIMATE,"Strasbourg, France",ChIJwbIYXknIlkcRHyTnGDFIGpc,"Strasbourg, Bas-Rhin, France",48.5734053,7.7521113,1,,OK,"locality,political"
578,APPROXIMATE,"Bordeaux, France",ChIJgcpR9-gnVQ0RiXo5ewOGY3k,"Bordeaux, Gironde, France",44.837789,-0.57918,1,,OK,"locality,political"
579,APPROXIMATE,"Milan, Metropolitan City of Milan, Italy",ChIJ53USP0nBhkcRjQ50xhPN_zw,"Milano, Italy",45.4642035,9.189982,1,,OK,"locality,political"
580,APPROXIMATE,"74700 Sallanches, France",ChIJpWDtzTr8i0cRAJi65CqrCAQ,"Sallanches, Haute-Savoie, France",45.936661,6.6305569,1,74700,OK,"locality,political"
581,APPROXIMATE,"19000 Tulle, France",ChIJiUngS5-M-EcR2Bk8KyNLMf0,"Tulle, Correze, France",45.26565,1.771697,1,19000,OK,"locality,political"
582,APPROXIMATE,"Sydney NSW, Australia",ChIJP3Sa8ziYEmsRUKgyFmh9AQM,"Sydney, NSW, Australia",-33.8688197,151.2092955,1,,OK,"colloquial_area,locality,political"
583,APPROXIMATE,"Sydney NSW, Australia",ChIJP3Sa8ziYEmsRUKgyFmh9AQM,"Sydney, NSW, Australia",-33.8688197,151.2092955,1,,OK,"colloquial_area,locality,political"
584,APPROXIMATE,"Seoul, South Korea",ChIJzWXFYYuifDUR64Pq5LTtioU,"Seoul, S Korea",37.566535,126.9779692,1,,OK,"locality,political"
585,APPROXIMATE,"Seoul, South Korea",ChIJzWXFYYuifDUR64Pq5LTtioU,"Seoul, S Korea",37.566535,126.9779692,1,,OK,"locality,political"
586,APPROXIMATE,"Seoul, South Korea",ChIJzWXFYYuifDUR64Pq5LTtioU,"Seoul, S Korea",37.566535,126.9779692,1,,OK,"locality,political"
587,APPROXIMATE,"Seoul, South Korea",ChIJzWXFYYuifDUR64Pq5LTtioU,"Seoul, S Korea",37.566535,126.9779692,1,,OK,"locality,political"
588,APPROXIMATE,"Suwon-si, Gyeonggi-do, South Korea",ChIJEUZ2IApDezURybRd7gIwN_E,"Suwon, Gyeonggi, S Korea",37.2635727,127.0286009,1,,OK,"locality,political"
589,APPROXIMATE,"Tahoe City, CA, USA",ChIJIacfzy7Wm4AR0Z5sgTCymCo,"Tahoe City, California",39.1677134,-120.1451812,1,,OK,"locality,political"
590,APPROXIMATE,"Boulder, CO, USA",ChIJ06-NJ06Na4cRWIAboHw7Ocg,"Boulder, Colorado",40.0149856,-105.2705456,1,,OK,"locality,political"
591,APPROXIMATE,"Pamplona, Navarre, Spain",ChIJx2UZo4uSUA0RkC7LMjaQbk4,"Pamplona, Navarra, Spain",42.812526,-1.6457745,1,,OK,"locality,political"
592,APPROXIMATE,"31013 Ansoáin, Navarre, Spain",ChIJa6nVzcKSUA0RENvG0ZqeWVw,"Ansoain, Navarra, Spain",42.8337593,-1.6432837,1,31013,OK,"locality,political"
593,APPROXIMATE,"Pamplona, Navarre, Spain",ChIJx2UZo4uSUA0RkC7LMjaQbk4,"Pamplona, Navarra, Spain",42.812526,-1.6457745,1,,OK,"locality,political"
594,APPROXIMATE,"Pamplona, Navarre, Spain",ChIJx2UZo4uSUA0RkC7LMjaQbk4,"Pamplona, Navarra, Spain",42.812526,-1.6457745,1,,OK,"locality,political"
595,APPROXIMATE,"Pamplona, Navarre, Spain",ChIJx2UZo4uSUA0RkC7LMjaQbk4,"Pamplona, Navarra, Spain",42.812526,-1.6457745,1,,OK,"locality,political"
596,APPROXIMATE,"Pamplona, Navarre, Spain",ChIJx2UZo4uSUA0RkC7LMjaQbk4,"Pamplona, Navarra, Spain",42.812526,-1.6457745,1,,OK,"locality,political"
597,APPROXIMATE,"31013 Ansoáin, Navarre, Spain",ChIJa6nVzcKSUA0RENvG0ZqeWVw,"Ansoain, Navarra, Spain",42.8337593,-1.6432837,1,31013,OK,"locality,political"
598,APPROXIMATE,"Ulverston LA12, UK",ChIJF2hk45OVfEgRUBPMt6L3Vrc,"Ulverston, Cumbria, England",54.195138,-3.09267,1,LA12,OK,"locality,political"
599,APPROXIMATE,"Auckland, New Zealand",ChIJ--acWvtHDW0RF5miQ2HvAAU,"Auckland, New Zealand",-36.8484597,174.7633315,1,,OK,"locality,political"
600,APPROXIMATE,"Nashua, NH, USA",ChIJhb_6LeSw44kRVeqLQhEIZrY,"Nashua, New Hampshire",42.7653662,-71.467566,1,,OK,"locality,political"
601,APPROXIMATE,"Chester-le-Street, Chester le Street DH3, UK",ChIJo9YArDR5fkgRKweWPskqIbg,"Chester-le-Street, Durham, England",54.8591161,-1.5740888,1,DH3,OK,"locality,political"
602,APPROXIMATE,"Salt Lake City, UT, USA",ChIJ7THRiJQ9UocRyjFNSKC3U1s,"Salt Lake City, Utah",40.7607793,-111.8910474,1,,OK,"locality,political"
603,APPROXIMATE,"Edinburgh, UK",ChIJIyaYpQC4h0gRJxfnfHsU8mQ,"Edinburgh, Scotland",55.953252,-3.188267,1,,OK,"locality,political"
604,APPROXIMATE,"Natimuk VIC 3409, Australia",ChIJz2JAx530zmoRALKgMKR5BQQ,"Natimuk, Victoria, Australia",-36.7458317,141.9352015,1,3409,OK,"locality,political"
605,APPROXIMATE,"Thunder Bay, ON, Canada",ChIJjekWTHchWU0RdIsdjzRXBT0,"Thunder Bay, Ontario",48.3808951,-89.2476823,1,,OK,"locality,political"
606,APPROXIMATE,"Chagford, Newton Abbot TQ13, UK",ChIJLxG7__VUbEgRd3XpcqpLnb4,"Chagford, Devon, England",50.673066,-3.8402649,1,TQ13,OK,"locality,political"
607,APPROXIMATE,"Newcastle upon Tyne, UK",ChIJzWRvDH6FfUgRkWGncrBS4gs,"Newcastle-upon-Tyne, England",54.978252,-1.61778,1,,OK,"locality,political"
608,APPROXIMATE,"Trinity, Jersey",ChIJkRKM8alTDEgRFxRBLyeHUu8,"Trinity, Jersey, England",49.2298827,-2.0860124,1,,OK,"administrative_area_level_1,political"
609,APPROXIMATE,"Oxford, UK",ChIJrx_ErYAzcUgRAnRUy6jbIMg,"Oxford, England",51.7520209,-1.2577263,1,,OK,"locality,political"
610,APPROXIMATE,"Bethesda, Bangor LL57, UK",ChIJz3trZ2gGZUgRwbF8TpcIeeM,"Bethesda, Gwynedd, Wales",53.178927,-4.058833,1,LL57,OK,"locality,political"
611,APPROXIMATE,"Tywyn, UK",ChIJk5Beuh99ZUgRjCEL5-eNRDU,"Tywyn, Gwynedd, Wales",52.587006,-4.087249,1,,OK,"locality,political"
612,APPROXIMATE,"London, UK",ChIJdd4hrwug2EcRmSrV3Vo6llI,"London, England",51.5073509,-0.1277583,1,,OK,"locality,political"
613,APPROXIMATE,"Edinburgh, UK",ChIJIyaYpQC4h0gRJxfnfHsU8mQ,"Edinburgh, Scotland",55.953252,-3.188267,1,,OK,"locality,political"
614,APPROXIMATE,"Colchester, UK",ChIJBS_2Ek7i2EcR3pFQRRxfXRc,"Colchester, Essex, England",51.895927,0.891874,1,,OK,"locality,political"
615,APPROXIMATE,"Rushden, UK",ChIJ48V7c9aid0gRxeL17gM3KRE,"Rushden, Northampton, England",52.289125,-0.600363,1,,OK,"locality,political"
616,GEOMETRIC_CENTER,"Unit 1g Alness Industrial Estate, Teaninich Industrial Estate, Alness IV17 0XS, United Kingdom",ChIJRzKPKNmbj0gR94viNPpk1OQ,"Tommore, Highland, Scotland",57.6917311,-4.2699544,1,IV17 0XS,OK,"establishment,general_contractor,point_of_interest"
617,APPROXIMATE,"Farnborough, UK",ChIJO3YkhMIqdEgRXZITk-QM640,"Farnborough, Hampshire, England",51.2868939,-0.752615,1,,OK,"locality,political"
618,GEOMETRIC_CENTER,"Rhuddlan Rd, Bodelwyddan, Rhyl LL18 5UJ, UK",ChIJx7IdOrwoZUgRuu5T93n6STI,"Glan Colwyn Bay, Clwyd, Wales",53.272104,-3.495862,1,LL18 5UJ,OK,"establishment,hospital,point_of_interest"
619,,,,"Surke, Khumbu",,,0,,ZERO_RESULTS,
620,APPROXIMATE,"Marlow Bottom, Marlow SL7, UK",ChIJm64tBfSJdkgRLLmcXEUCwE0,"Marlow Bottom, Buckingham, England",51.5886884,-0.7795205,1,SL7,OK,"administrative_area_level_4,political"
621,APPROXIMATE,"Culross, Dunfermline KY12, UK",ChIJJeLpFJXVh0gR21A3Xisak1A,"Culross, Fife, Scotland",56.0551806,-3.6298128,1,KY12,OK,"locality,political"
622,APPROXIMATE,"Norwich, UK",ChIJE_UzUdWq0EcRL0USDuClTGg,"Norwich, Norfolk, England",52.6308859,1.297355,1,,OK,"locality,political"
623,APPROXIMATE,"Julian, CA 92036, USA",ChIJwRQoisos2oARQDH4mmW5fEQ,"Julian, California",33.0786552,-116.6019637,1,92036,OK,"locality,political"
624,APPROXIMATE,"Luton, UK",ChIJSSz2GAA2dkgRgdbv7QNT-jM,"Luton, Bedford, England",51.8786707,-0.4200255,1,,OK,"locality,political"
625,APPROXIMATE,"Newmachar, Aberdeen AB21, UK",ChIJ2_c-bCpthEgRP4QHKJe-ltg,"Newmacher, Aberdeen, Scotland",57.266414,-2.190301,1,AB21,OK,"locality,political"
626,APPROXIMATE,"Hvalstad, Norway",ChIJZ5APFlwUQUYRwQZz-klA_Io,"Hvfilstad, Norway",59.860686,10.4638591,1,,OK,"locality,political"
627,APPROXIMATE,"London, UK",ChIJdd4hrwug2EcRmSrV3Vo6llI,"London, England",51.5073509,-0.1277583,1,,OK,"locality,political"
628,APPROXIMATE,"Vancouver, BC, Canada",ChIJs0-pQ_FzhlQRi_OBm-qWkbs,"Vancouver, British Colombia",49.2827291,-123.1207375,1,,OK,"locality,political"
629,APPROXIMATE,"Coogee NSW 2034, Australia",ChIJ4ZOCY5yxEmsR4LIyFmh9AQU,"Coogee, NSW, Australia",-33.919,151.2555,1,2034,OK,"locality,political"
630,APPROXIMATE,"Glashütten, Germany",ChIJQeRA3e2WoUcRYNth8Ci3HQQ,"Glashuetten, Bavaria, Germany",49.8868343,11.4471952,1,,OK,"locality,political"
631,GEOMETRIC_CENTER,"Coffey Pl, Conder ACT 2906, Australia",ChIJO8iK19A0FmsRSD75k4KTUuA,"Coffey's Cottage, ACT, Australia",-35.4680975,149.1128435,2,2906,OK,route
632,APPROXIMATE,"Trento, Province of Trento, Italy",ChIJ253Oycp2gkcRR_WfE5mixic,"Trento, Italy",46.0747793,11.1217486,1,,OK,"locality,political"
633,APPROXIMATE,"38024 Peio, Province of Trento, Italy",ChIJrWIJ79P4gkcR2UsqMpXxd2o,"Peio, Trento, Italy",46.3837162,10.6793795,1,38024,OK,"administrative_area_level_3,political"
634,APPROXIMATE,"6460 Altdorf, Switzerland",ChIJCepcX4BDhUcREAwZQIj_AAQ,"Altdorf, Uri, Switzerland",46.8821272,8.6428436,1,6460,OK,"locality,political"
635,APPROXIMATE,"Schattdorf, Switzerland",ChIJM-19X79DhUcRYZpv3VcamHs,"Schattdorf, Uri, Switzerland",46.8642346,8.6481594,1,,OK,"locality,political"
636,APPROXIMATE,"Bürglen, Switzerland",ChIJ34Pnlt5GhUcRz1EsjSbheRo,"Buerglen, Uri, Switzerland",46.8761523,8.6644631,1,,OK,"locality,political"
637,APPROXIMATE,"Boulder, CO, USA",ChIJ06-NJ06Na4cRWIAboHw7Ocg,"Boulder, Colorado",40.0149856,-105.2705456,1,,OK,"locality,political"
638,APPROXIMATE,"Tucson, AZ, USA",ChIJK-0sC0Fl1oYRFccWTTgtw3M,"Tucson, Arizona",32.2217429,-110.926479,1,,OK,"locality,political"
639,APPROXIMATE,"Sierra Vista, AZ, USA",ChIJH8-PeCQo14YRScaLf0C4pjs,"Sierra Vista, Arizona",31.5455001,-110.2772856,1,,OK,"locality,political"
640,APPROXIMATE,"Woodinville, WA, USA",ChIJVW_4CPcLkFQRrEChf-EzGrs,"Woodinville, Washington",47.7542651,-122.1634581,1,,OK,"locality,political"
641,APPROXIMATE,"Wilson, WY, USA",ChIJp7aQc_0NU1MRN9hlnAXlA3M,"Wilson, Wyoming",43.5007599,-110.8752112,1,,OK,"locality,political"
642,APPROXIMATE,"Wilson, WY, USA",ChIJp7aQc_0NU1MRN9hlnAXlA3M,"Wilson, Wyoming",43.5007599,-110.8752112,1,,OK,"locality,political"
643,APPROXIMATE,"Aspen, CO 81611, USA",ChIJfTxB93w5QIcRcvYseNxCK8E,"Aspen, Colorado",39.1910983,-106.8175387,1,81611,OK,"locality,political"
644,APPROXIMATE,"Chicago, IL, USA",ChIJ7cv00DwsDogRAMDACa2m4K8,"Chicago, Illinois",41.8781136,-87.6297982,1,,OK,"locality,political"
645,APPROXIMATE,"Chicago, IL, USA",ChIJ7cv00DwsDogRAMDACa2m4K8,"Chicago, Illinois",41.8781136,-87.6297982,1,,OK,"locality,political"
646,APPROXIMATE,"Jackson, WY, USA",ChIJS3_P_FgaU1MRXIM6scsBHD0,"Jackson, Wyoming",43.4799291,-110.7624282,1,,OK,"locality,political"
647,APPROXIMATE,"Boulder, CO, USA",ChIJ06-NJ06Na4cRWIAboHw7Ocg,"Boulder, Colorado",40.0149856,-105.2705456,1,,OK,"locality,political"
648,APPROXIMATE,"Newton, MA, USA",ChIJpSUHhAmC44kRfq9wm3sIklU,"Newton, Massachusetts",42.3370413,-71.2092214,1,,OK,"locality,political"
649,APPROXIMATE,"Los Angeles, CA, USA",ChIJE9on3F3HwoAR9AhGJW_fL-I,"Los Angeles, California",34.0522342,-118.2436849,1,,OK,"locality,political"
650,APPROXIMATE,"Haines, AK 99827, USA",ChIJjblRKJcfAFQRjhH96mCa8bQ,"Haines, Alaska",59.2358333,-135.445,1,99827,OK,"locality,political"
651,APPROXIMATE,"Lyon, France",ChIJl4foalHq9EcR8CG75CqrCAQ,"Lyon, Rhone, France",45.764043,4.835659,1,,OK,"locality,political"
652,APPROXIMATE,"36800 Thenay, France",ChIJR-HHzGyO-0cR8JU4BdfIDQQ,"Thenay, Indre, France",46.630426,1.429989,1,36800,OK,"locality,political"
653,APPROXIMATE,"93500 Pantin, France",ChIJTx1XZ1Fs5kcREDuLaMOCCwQ,"Pantin, Seine-St-Denis, France",48.894533,2.40963,1,93500,OK,"locality,political"
654,APPROXIMATE,"Paris, France",ChIJD7fiBh9u5kcRYJSMaMOCCwQ,"Paris, France",48.856614,2.3522219,1,,OK,"locality,political"
655,APPROXIMATE,"94250 Gentilly, France",ChIJRQ0vknRx5kcRIDmLaMOCCwQ,"Gentilly, Val-de-Marne, France",48.8138999,2.344688,1,94250,OK,"locality,political"
656,APPROXIMATE,"Brussels, Belgium",ChIJ_58PdIbEw0cRMIBML6uZAAE,"Brussels, Belgium",50.8503463,4.3517211,1,,OK,"administrative_area_level_1,locality,political"
657,APPROXIMATE,"05310 Champcella, France",ChIJTUmv2huuzBIRmNwGBWATWSo,"Champcella, Hautes-Alpes, France",44.723688,6.571937,1,05310,OK,"locality,political"
658,APPROXIMATE,"93500 Pantin, France",ChIJTx1XZ1Fs5kcREDuLaMOCCwQ,"Pantin, Seine-St-Denis, France",48.894533,2.40963,1,93500,OK,"locality,political"
659,APPROXIMATE,"Le Monêtier-les-Bains, France",ChIJo015pEP3iUcRmv6e_uLixMY,"Monetier-les-Bains, Hautes-Alpes, France",44.976254,6.507839,1,,OK,"locality,political"
660,APPROXIMATE,"05120 L'Argentière-la-Bessée, France",ChIJWY5Gs3SrzBIRoKqX_aUZCAQ,"L'Argentiere La Bessee, Haute-Alpes, France",44.792924,6.559093,1,05120,OK,"locality,political"
661,APPROXIMATE,"05100 Puy-Saint-André, France",ChIJC8ipr2L7iUcRoKSX_aUZCAQ,"Puy St. Andre, Hautes-Alpes, France",44.87918,6.598239,1,05100,OK,"locality,political"
662,APPROXIMATE,"05100 Puy-Saint-André, France",ChIJC8ipr2L7iUcRoKSX_aUZCAQ,"Puy St. Andre, Hautes-Alpes, France",44.87918,6.598239,1,05100,OK,"locality,political"
663,APPROXIMATE,"Barcelona, Spain",ChIJ5TCOcRaYpBIRCmZHTz37sEQ,"Barcelona, Spain",41.3850639,2.1734035,1,,OK,"locality,political"
664,APPROXIMATE,"Barcelona, Spain",ChIJ5TCOcRaYpBIRCmZHTz37sEQ,"Barcelona, Spain & in Pyrenees",41.3850639,2.1734035,1,,OK,"locality,political"
665,APPROXIMATE,"Barcelona, Spain",ChIJ5TCOcRaYpBIRCmZHTz37sEQ,"Barcelona, Spain",41.3850639,2.1734035,1,,OK,"locality,political"
666,APPROXIMATE,"Barcelona, Spain",ChIJ5TCOcRaYpBIRCmZHTz37sEQ,"Barcelona, Spain",41.3850639,2.1734035,1,,OK,"locality,political"
667,APPROXIMATE,"Barcelona, Spain",ChIJ5TCOcRaYpBIRCmZHTz37sEQ,"Barcelona, Spain",41.3850639,2.1734035,1,,OK,"locality,political"
668,APPROXIMATE,"Estavar, France",ChIJJyr3hBRjpRIRoGtnFiGIBwQ,"Estavar in Pyrenees, Spain",42.467985,1.996274,1,,OK,"locality,political"
669,APPROXIMATE,"Barcelona, Spain",ChIJ5TCOcRaYpBIRCmZHTz37sEQ,"Barcelona, Spain",41.3850639,2.1734035,1,,OK,"locality,political"
670,APPROXIMATE,"25528 Erill la Vall, Lleida, Spain",ChIJGQpZNzQnphIRoMSLu-L6AAo,"Erill la Vall, Lerida, Spain",42.5256285,0.8249362,1,25528,OK,"locality,political"
671,APPROXIMATE,"Barcelona, Spain",ChIJ5TCOcRaYpBIRCmZHTz37sEQ,"Barcelona, Spain",41.3850639,2.1734035,1,,OK,"locality,political"
672,APPROXIMATE,"Harrow, UK",ChIJ-QcloFgRdkgR2VvimYlP1yQ,"Harrow, London, England",51.580559,-0.341995,1,,OK,"locality,political"
673,APPROXIMATE,"Edinburgh, UK",ChIJIyaYpQC4h0gRJxfnfHsU8mQ,"Edinburgh, Scotland",55.953252,-3.188267,1,,OK,"locality,political"
674,APPROXIMATE,"South Benfleet, Benfleet SS7, UK",ChIJYRSR-9rE2EcRiV4RH3v-TC8,"Belfleet, Essex, England",51.5673417,0.5505197,1,SS7,OK,"locality,political"
675,APPROXIMATE,"Calgary, AB, Canada",ChIJ1T-EnwNwcVMROrZStrE7bSY,"Calgary, Alberta",51.0486151,-114.0708459,1,,OK,"locality,political"
676,APPROXIMATE,"Llanberis, Caernarfon LL55, UK",ChIJnQH53DoIZUgReQ0ap9xNHWY,"Llanberis, Gwynedd, Wales",53.1180329,-4.127549,1,LL55,OK,"locality,political"
677,APPROXIMATE,"Liverpool, UK",ChIJt2BwZIrfekgRAW4XP28E3EI,"Liverpool, Merseyside, England",53.4083714,-2.9915726,1,,OK,"locality,political"
678,APPROXIMATE,"Edinburgh, UK",ChIJIyaYpQC4h0gRJxfnfHsU8mQ,"Edinburgh, Scotland",55.953252,-3.188267,1,,OK,"locality,political"
679,APPROXIMATE,"Katowice, Poland",ChIJ0cyhNiPOFkcRu_pZBTUqr7k,"Katowice, Poland",50.2648919,19.0237815,1,40,OK,"locality,political"
680,APPROXIMATE,"Edinburgh, UK",ChIJIyaYpQC4h0gRJxfnfHsU8mQ,"Edinburgh, Scotland",55.953252,-3.188267,1,,OK,"locality,political"
681,APPROXIMATE,"Edinburgh, UK",ChIJIyaYpQC4h0gRJxfnfHsU8mQ,"Edinburgh, Scotland",55.953252,-3.188267,1,,OK,"locality,political"
682,APPROXIMATE,"Blackburn, UK",ChIJmUG6BBd0e0gRQlqQ50YQRzc,"Blackburn, Lancashire, England",53.748575,-2.487529,1,,OK,"locality,political"
683,APPROXIMATE,"Łódź, Poland",ChIJr1ZFdSTLG0cRrNshm2OufMs,"Lodz, Poland",51.7592485,19.4559833,1,95,OK,"locality,political"
684,APPROXIMATE,"Toulouse, France",ChIJ_1J17G-7rhIRMBBBL5z2BgQ,"Toulouse, Haute-Garonne, France",43.604652,1.444209,1,,OK,"locality,political"
685,APPROXIMATE,"Toulouse, France",ChIJ_1J17G-7rhIRMBBBL5z2BgQ,"Toulouse, Haute-Garonne, France",43.604652,1.444209,1,,OK,"locality,political"
686,APPROXIMATE,"Toulouse, France",ChIJ_1J17G-7rhIRMBBBL5z2BgQ,"Toulouse, Haute-Garonne, France",43.604652,1.444209,1,,OK,"locality,political"
687,APPROXIMATE,"Toulouse, France",ChIJ_1J17G-7rhIRMBBBL5z2BgQ,"Toulouse, Haute-Garonne, France",43.604652,1.444209,1,,OK,"locality,political"
688,APPROXIMATE,"6702 Claro, Switzerland",ChIJgwUgo09MhEcRyRnv1rh0-SM,"Claro, Ticino, Switzerland",46.25298,9.02308,1,6702,OK,"locality,political"
689,APPROXIMATE,"Lugano, Switzerland",ChIJ8RFCavcthEcR4PihLiEEjO8,"Lugano, Ticino, Switzerland",46.0036778,8.951052,1,,OK,"locality,political"
690,,,,"Promontogno, Castello, Grigioni, Switzerland",,,0,,ZERO_RESULTS,
691,APPROXIMATE,"San Vittore, Switzerland",ChIJj5DB1ihPhEcRDfjZ64MMANk,"St. Vittore, Grigioni, Switzerland",46.2382814,9.1081578,1,,OK,"locality,political"
692,APPROXIMATE,"Balerna, Switzerland",ChIJyxDV1G33hEcRnJ7FLkOY4Gw,"Balerna, Ticino, Switzerland",45.8484251,9.0077495,1,,OK,"locality,political"
693,APPROXIMATE,"5380 Fernelmont, Belgium",ChIJz5w91w2gwUcRs-6bVtMgcBI,"Fernelmont, Namur, Belgium",50.552108,4.9855088,1,5380,OK,"locality,political"
694,APPROXIMATE,"Harsin, 6950 Nassogne, Belgium",ChIJXbRrm1E0wEcRjMD84zdVfts,"Harsin, Belgium",50.1735662,5.3479488,1,6950,OK,"political,sublocality,sublocality_level_1"
695,APPROXIMATE,"Brussels, Belgium",ChIJ_58PdIbEw0cRMIBML6uZAAE,"Brussels, Belgium",50.8503463,4.3517211,1,,OK,"administrative_area_level_1,locality,political"
696,APPROXIMATE,"1457 Walhain, Belgium",ChIJGck8led4wUcRhlzA_2_SCtE,"Walhain, Brabant, Belgium",50.61654,4.69545,1,1457,OK,"locality,political"
697,APPROXIMATE,"Namur, Belgium",ChIJP2UsDG2ZwUcRBVIWxLYmVsE,"Namur, Belgium",50.4673883,4.8719854,1,,OK,"locality,political"
698,APPROXIMATE,"Martigny, Switzerland",ChIJR3EQRDPIjkcRAf3pMvQeV7k,"Martigny, Valais, Switzerland",46.1049798,7.0755334,1,,OK,"locality,political"
699,ROOFTOP,"1350 Spring St NW #1, Atlanta, GA 30309, USA",ChIJz4_nc1oE9YgRxihstPqFSoM,,33.791638,-84.389488,1,30309,OK,"bar,establishment,food,point_of_interest,restaurant"
700,APPROXIMATE,"Daegu, South Korea",ChIJ1a3vsrjjZTURMC44oCngkro,"Daegu (Taegu), S Korea",35.8714354,128.601445,1,,OK,"locality,political"
701,APPROXIMATE,"Daegu, South Korea",ChIJ1a3vsrjjZTURMC44oCngkro,"Daegu (Taegu), S Korea",35.8714354,128.601445,1,,OK,"locality,political"
702,APPROXIMATE,"Daegu, South Korea",ChIJ1a3vsrjjZTURMC44oCngkro,"Daegu (Taegu), S Korea",35.8714354,128.601445,1,,OK,"locality,political"
703,APPROXIMATE,"Daegu, South Korea",ChIJ1a3vsrjjZTURMC44oCngkro,"Daegu (Taegu), S Korea",35.8714354,128.601445,1,,OK,"locality,political"
704,APPROXIMATE,"Daegu, South Korea",ChIJ1a3vsrjjZTURMC44oCngkro,"Daegu (Taegu), S Korea",35.8714354,128.601445,1,,OK,"locality,political"
705,APPROXIMATE,"Ulsan, South Korea",ChIJgd6y4osuZjURATHZM3P6g3A,"Ulsan, S Korea",35.5383773,129.3113596,1,,OK,"locality,political"
706,,,,"Chungsong, Chungcheongbuk, S Korea",,,0,,ZERO_RESULTS,
707,APPROXIMATE,"Beding 45500, Nepal",ChIJxyo5TV6C6TkRT4GAy5PjFU4,"Beding, Dolakha",27.9030791,86.37632,1,45500,OK,"locality,political"
708,ROOFTOP,"1350 Spring St NW #1, Atlanta, GA 30309, USA",ChIJz4_nc1oE9YgRxihstPqFSoM,,33.791638,-84.389488,1,30309,OK,"bar,establishment,food,point_of_interest,restaurant"
709,APPROXIMATE,"Seoul, South Korea",ChIJzWXFYYuifDUR64Pq5LTtioU,"Seoul, S Korea",37.566535,126.9779692,1,,OK,"locality,political"
710,APPROXIMATE,"Bucheon-si, Gyeonggi-do, South Korea",ChIJ7zeIBq5iezURaqxiL41X2oE,"Buchon, Gyeonggi, S Korea",37.5034138,126.7660309,1,,OK,"locality,political"
711,APPROXIMATE,"Seoul, South Korea",ChIJzWXFYYuifDUR64Pq5LTtioU,"Seoul, S Korea",37.566535,126.9779692,1,,OK,"locality,political"
712,,,,"Hyongari, Yonchun, Gyeonggi, S Korea",,,0,,ZERO_RESULTS,
713,APPROXIMATE,"Seoul, South Korea",ChIJzWXFYYuifDUR64Pq5LTtioU,"Seoul, S Korea",37.566535,126.9779692,1,,OK,"locality,political"
714,APPROXIMATE,"Incheon, South Korea",ChIJR4ITliVveTURQmG3LJD9N30,"Incheon, S Korea",37.4562557,126.7052062,1,,OK,"locality,political"
715,APPROXIMATE,"Incheon, South Korea",ChIJR4ITliVveTURQmG3LJD9N30,"Incheon, S Korea",37.4562557,126.7052062,1,,OK,"locality,political"
716,APPROXIMATE,"Gwangtan-gil, Yongsan-myeon, Yeongdong-gun, Chungcheongbuk-do, South Korea",ChIJp6jUc-BsZTURE5OH54LA3YQ,"Kwangtan, Chungcheongbuk, S Korea",36.2475048,127.7647172,1,370-910,OK,"political,sublocality,sublocality_level_4"
717,APPROXIMATE,"Seoul, South Korea",ChIJzWXFYYuifDUR64Pq5LTtioU,"Seoul, S Korea",37.566535,126.9779692,1,,OK,"locality,political"
718,APPROXIMATE,"Tokyo, Japan",ChIJ51cu8IcbXWARiRtXIothAS4,"Tokyo, Japan",35.6894875,139.6917064,1,,OK,"administrative_area_level_1,locality,political"
719,APPROXIMATE,"Tokyo, Japan",ChIJ51cu8IcbXWARiRtXIothAS4,"Tokyo, Japan",35.6894875,139.6917064,1,,OK,"administrative_area_level_1,locality,political"
720,APPROXIMATE,"Tokyo, Japan",ChIJ51cu8IcbXWARiRtXIothAS4,"Tokyo, Japan",35.6894875,139.6917064,1,,OK,"administrative_area_level_1,locality,political"
721,APPROXIMATE,"Chiba, Chiba Prefecture, Japan",ChIJ38TuyMGaImAR5pEdrNwLnGg,"Chiba-shi, Chiba, Japan",35.6072668,140.1062907,1,,OK,"locality,political"
722,APPROXIMATE,"North Carolina, USA",ChIJgRo4_MQfVIgRGa4i6fUwP60,North Carolina,35.7595731,-79.0192997,1,,OK,"administrative_area_level_1,political"
723,APPROXIMATE,"Seattle, WA, USA",ChIJVTPokywQkFQRmtVEaUZlJRA,"Seattle, Washington",47.6062095,-122.3320708,1,,OK,"locality,political"
724,APPROXIMATE,"Craig, CO 81625, USA",ChIJ-wAsLNymQ4cR5jtx7vHC7JY,"Craig, Colorado",40.5152491,-107.5464541,1,81625,OK,"locality,political"
725,APPROXIMATE,"Spokane, WA, USA",ChIJ5ee7MFwYnlQRsdmEC9bJ_N0,"Spokane, Washington",47.6587802,-117.4260465,1,,OK,"locality,political"
726,APPROXIMATE,"Golden, CO, USA",ChIJ92xohxKYa4cR3FWAIFRGxhQ,"Golden, Colorado",39.755543,-105.2210997,1,,OK,"locality,political"
727,,,,"Tamsis, British Colombia",,,0,,ZERO_RESULTS,
728,APPROXIMATE,"Dayton, OH, USA",ChIJAxTdrtWAQIgR5EwO8pLjQKY,"Dayton, Ohio",39.7589478,-84.1916069,1,,OK,"locality,political"
729,APPROXIMATE,"Manville, NJ 08835, USA",ChIJb1QsZceVw4kRtjLKSAdQIN4,"Manville, New Jersey",40.5409367,-74.5876569,1,08835,OK,"locality,political"
730,APPROXIMATE,"Winchester, VA 22601, USA",ChIJwUpnQPfutYkRhIEWnA8KtZE,"Winchester, Virginia",39.1856597,-78.1633341,1,22601,OK,"locality,political"
731,APPROXIMATE,"Seattle, WA, USA",ChIJVTPokywQkFQRmtVEaUZlJRA,"Seattle, Washington",47.6062095,-122.3320708,1,,OK,"locality,political"
732,APPROXIMATE,"Evansville, IN, USA",ChIJLXdWMRPVcYgRnckqETlJLrU,"Evansville, Indiana",37.9715592,-87.5710898,1,,OK,"locality,political"
733,APPROXIMATE,"Ljubljana, Slovenia",ChIJ0YaYlvUxZUcRIOw_ghz4AAQ,"Ljubljana, Slovenia",46.0569465,14.5057515,1,,OK,"locality,political"
734,APPROXIMATE,"Ljubljana, Slovenia",ChIJ0YaYlvUxZUcRIOw_ghz4AAQ,"Ljubljana, Slovenia",46.0569465,14.5057515,1,,OK,"locality,political"
735,APPROXIMATE,"Gurtnellen, Switzerland",ChIJZYxn2lFphUcR81RvrNVBGxM,"Gurtnellen, Uri, Switzerland",46.73796,8.62781,1,,OK,"locality,political"
736,APPROXIMATE,"Bern, Switzerland",ChIJdxs61MA5jkcRmmVXBP5fVcs,"Bern, Switzerland",46.9479739,7.4474468,1,,OK,"locality,political"
737,APPROXIMATE,"3113 Rubigen, Switzerland",ChIJiyPXPAE2jkcRtgFga2ar-v4,"Rubigen, Bern, Switzerland",46.8999997,7.5432453,1,3113,OK,"locality,political"
738,APPROXIMATE,"Bern, Switzerland",ChIJdxs61MA5jkcRmmVXBP5fVcs,"Bern, Switzerland",46.9479739,7.4474468,1,,OK,"locality,political"
739,APPROXIMATE,"Bern, Switzerland",ChIJdxs61MA5jkcRmmVXBP5fVcs,"Bern, Switzerland",46.9479739,7.4474468,1,,OK,"locality,political"
740,APPROXIMATE,"Feuerthalen, Switzerland",ChIJa4EQTe6BmkcRqMCrN0r7MV8,"Feuerthalen, Zurich, Switzerland",47.6885343,8.6497285,1,,OK,"locality,political"
741,APPROXIMATE,"Bern, Switzerland",ChIJdxs61MA5jkcRmmVXBP5fVcs,"Bern, Switzerland",46.9479739,7.4474468,1,,OK,"locality,political"
742,APPROXIMATE,"Chur, Switzerland",ChIJVVv3inbHhEcRMB8B16Z4Tys,"Chur, Graubunden, Switzerland",46.8507835,9.5319859,1,,OK,"locality,political"
743,APPROXIMATE,"Zürich, Switzerland",ChIJGaK-SZcLkEcRA9wf5_GNbuY,"Zurich, Switzerland",47.3768866,8.541694,1,,OK,"locality,political"
744,APPROXIMATE,"Ronco sopra Ascona, Switzerland",ChIJ2dJ0iCbGhUcRRmuVFqMWixg,"Ronco Sopra Ascona, Ticino, Switzerland",46.1429823,8.7263745,1,,OK,"locality,political"
745,APPROXIMATE,"Bissone, Switzerland",ChIJJzqmBCAshEcR-Bv7b9tVK84,"Bissone, Ticino, Switzerland",45.9531322,8.9651123,1,,OK,"locality,political"
746,APPROXIMATE,"Bellinzona, Switzerland",ChIJO_dm_spLhEcRFEwEhX2JD_4,"Bellinzona, Ticino, Switzerland",46.1946216,9.0244124,1,,OK,"locality,political"
747,APPROXIMATE,"Bozeman, MT, USA",ChIJE4i6T0xERVMRqmA792TQ9WM,"Bozeman, Montana",45.6769979,-111.0429339,1,,OK,"locality,political"
748,APPROXIMATE,"Bozeman, MT, USA",ChIJE4i6T0xERVMRqmA792TQ9WM,"Bozeman, Montana",45.6769979,-111.0429339,1,,OK,"locality,political"
749,APPROXIMATE,"Bozeman, MT, USA",ChIJE4i6T0xERVMRqmA792TQ9WM,"Bozeman, Montana",45.6769979,-111.0429339,1,,OK,"locality,political"
750,APPROXIMATE,"Ann Arbor, MI, USA",ChIJMx9D1A2wPIgR4rXIhkb5Cds,"Ann Arbor, Michigan",42.2808256,-83.7430378,1,,OK,"locality,political"
751,APPROXIMATE,"Kriftel, Germany",ChIJk6KoC3ahvUcRHuq-UCWh_io,"Kriftel, Hesse, Germany",50.083558,8.4693855,1,,OK,"locality,political"
752,APPROXIMATE,"Landshut, Germany",ChIJe9zDlQcmnkcRIK83CaQlHQQ,"Landshut, Bavaria, Germany",48.5441917,12.1468532,1,,OK,"locality,political"
753,APPROXIMATE,"Siegen, Germany",ChIJp4UQ55EcvEcRx9vbDB05wj0,"Siegen, North Rhine-Westphalia, Germany",50.8838492,8.0209591,1,,OK,"locality,political"
754,APPROXIMATE,"39100 Bolzano, Province of Bolzano - South Tyrol, Italy",ChIJSXCeQSucgkcRKkOLNE9pK2U,"Bolzano, Italy",46.4982953,11.3547582,1,39100,OK,"locality,political"
755,,,,"Schlesstern-Herolz, Hesse, Germany",,,0,,ZERO_RESULTS,
756,,,,"Schlesstern-Herolz, Hesse, Germany",,,0,,ZERO_RESULTS,
757,APPROXIMATE,"39031 Bruneck, Province of Bolzano - South Tyrol, Italy",ChIJXZs5jCQgeEcRKRh-7-QPkNg,"Brunico, Bolzano, Italy",46.7965736,11.9380416,1,39031,OK,"locality,political"
758,APPROXIMATE,"Polling, Germany",ChIJ21gEAN20nUcRQK6L161IHgQ,"Polling, Bavaria, Germany",47.808497,11.1329295,1,,OK,"locality,political"
759,APPROXIMATE,"Entraching, 86923 Finning, Germany",ChIJtbS53coxnEcRMb1-z65IHiY,"Entraching, Bavaria, Germany",48.0127722,11.0267082,1,86923,OK,"political,sublocality,sublocality_level_1"
760,APPROXIMATE,"83661 Lenggries, Germany",ChIJ67_iidKQnUcR8pRltRMwoVE,"Lenggries, Bavaria, Germany",47.6825636,11.5765039,1,83661,OK,"locality,political"
761,APPROXIMATE,"Munich, Germany",ChIJ2V-Mo_l1nkcRfZixfUq4DAE,"Munich, Bavaria, Germany",48.1351253,11.5819805,1,,OK,"locality,political"
762,APPROXIMATE,"Vaterstetten, Germany",ChIJn72KYm3inUcRpMUbz3ptQM8,"Vaterstetten, Bavaria, Germany",48.1056613,11.7753613,1,,OK,"locality,political"
763,APPROXIMATE,"Munich, Germany",ChIJ2V-Mo_l1nkcRfZixfUq4DAE,"Munich, Bavaria, Germany",48.1351253,11.5819805,1,,OK,"locality,political"
764,APPROXIMATE,"86911 Dießen am Ammersee, Germany",ChIJqQpmB1QxnEcRwJ2L161IHgQ,"Diessen, Bavaria, Germany",47.9479298,11.1032858,1,86911,OK,"locality,political"
765,APPROXIMATE,"86899 Landsberg am Lech, Germany",ChIJwcNpobo8nEcRkJ6L161IHgQ,"Landsberg, Bavaria, Germany",48.050783,10.8703515,1,86899,OK,"locality,political"
766,APPROXIMATE,"Caracas, Capital District, Venezuela",ChIJB0iCza1YKowRg4SZCq4u3ZM,"Caracas, Venezuela",10.4805937,-66.9036063,1,,OK,"locality,political"
767,APPROXIMATE,"Caracas, Capital District, Venezuela",ChIJB0iCza1YKowRg4SZCq4u3ZM,"Caracas, Venezuela",10.4805937,-66.9036063,1,,OK,"locality,political"
768,APPROXIMATE,"Caracas, Capital District, Venezuela",ChIJB0iCza1YKowRg4SZCq4u3ZM,"Caracas, Venezuela",10.4805937,-66.9036063,1,,OK,"locality,political"
769,APPROXIMATE,"Caracas, Capital District, Venezuela",ChIJB0iCza1YKowRg4SZCq4u3ZM,"Caracas, Venezuela",10.4805937,-66.9036063,1,,OK,"locality,political"
770,APPROXIMATE,"Caracas, Capital District, Venezuela",ChIJB0iCza1YKowRg4SZCq4u3ZM,"Caracas, Venezuela",10.4805937,-66.9036063,1,,OK,"locality,political"
771,APPROXIMATE,"Caracas, Capital District, Venezuela",ChIJB0iCza1YKowRg4SZCq4u3ZM,"Caracas, Venezuela",10.4805937,-66.9036063,1,,OK,"locality,political"
772,APPROXIMATE,"Caracas, Capital District, Venezuela",ChIJB0iCza1YKowRg4SZCq4u3ZM,"Caracas, Venezuela",10.4805937,-66.9036063,1,,OK,"locality,political"
773,APPROXIMATE,"Caracas, Capital District, Venezuela",ChIJB0iCza1YKowRg4SZCq4u3ZM,"Caracas, Venezuela",10.4805937,-66.9036063,1,,OK,"locality,political"
774,APPROXIMATE,"Huntersville, NC 28078, USA",ChIJCZeY4hUeVIgRAVuZwgaJpBU,"Huntersville, North Carolina",35.410694,-80.8428504,1,28078,OK,"locality,political"
775,APPROXIMATE,"Chattanooga, TN, USA",ChIJheeDikBgYIgRqiiHiR8mcSQ,"Chattanooga, Tennessee",35.0456297,-85.3096801,1,,OK,"locality,political"
776,APPROXIMATE,"Aix-les-Bains, France",ChIJ09K5naKgi0cRQLm65CqrCAQ,"Aix-les-Bains, Savoie, France",45.692341,5.908998,1,,OK,"locality,political"
777,APPROXIMATE,"Grenoble, France",ChIJb76J1ov0ikcRmFOZbs0QjGE,"Grenoble, Isere, France",45.188529,5.724524,1,,OK,"locality,political"
778,APPROXIMATE,"Agglomération de Cergy-Pontoise, 95000 Cergy, France",ChIJ_cUWkDD15kcRI5Kct5Wo2XI,"Cergy-Pontoise, Val-d'Oise, France",49.03201,2.080691,1,95000,OK,"political,sublocality,sublocality_level_1"
779,APPROXIMATE,"Agglomération de Cergy-Pontoise, 95000 Cergy, France",ChIJ_cUWkDD15kcRI5Kct5Wo2XI,"Cergy-Pontoise, Val-d'Oise, France",49.03201,2.080691,1,95000,OK,"political,sublocality,sublocality_level_1"
780,APPROXIMATE,"73420 Drumettaz-Clarafond, France",ChIJRxHjntimi0cR0LO65CqrCAQ,"Drumettaz-Clarafond, Savoie, France",45.6603472,5.9210299,1,73420,OK,"locality,political"
781,GEOMETRIC_CENTER,"Route de Grenoble, Coublevie, France",EiRSb3V0ZSBkZSBHcmVub2JsZSwgQ291YmxldmllLCBGcmFuY2U,"Voiron, Grenoble, Isere, France",45.3598768,5.6001606,1,,OK,route
782,APPROXIMATE,"Lyon, France",ChIJl4foalHq9EcR8CG75CqrCAQ,"Lyon, Rhone, France",45.764043,4.835659,1,,OK,"locality,political"
783,APPROXIMATE,"Argentière, 74400 Chamonix, France",ChIJn9yry7xMiUcRKy3DvNdKSSc,"Argentiere, Haute-Savoie, France",45.983986,6.926873,1,74400,OK,"political,sublocality,sublocality_level_1"
784,APPROXIMATE,"74400 Chamonix, France",ChIJ5y7-LQZMiUcRgKO65CqrCAQ,"Chamonix, Haute-Savoie, France",45.923697,6.869433,1,74400,OK,"locality,political"
785,APPROXIMATE,"74200 Thonon-les-Bains, France",ChIJk_8GcYk-jEcRgJa65CqrCAQ,"Thonon-les-Bains, Haute-Savoie, France",46.373565,6.477635,1,74200,OK,"locality,political"
786,APPROXIMATE,"Grenoble, France",ChIJb76J1ov0ikcRmFOZbs0QjGE,"Grenoble, Isere, France",45.188529,5.724524,1,,OK,"locality,political"
787,APPROXIMATE,"Annecy, France",ChIJyVEFHPqPi0cRujQFYoEWeEI,"Annecy, Haute-Savoie, France",45.899247,6.129384,1,,OK,"locality,political,sublocality,sublocality_level_1"
788,APPROXIMATE,"74310 Les Houches, France",ChIJI3AKp1JQiUcRcJ665CqrCAQ,"Les Houches, Haute-Savoie, France",45.890388,6.798735,1,74310,OK,"locality,political"
789,APPROXIMATE,"Munich, Germany",ChIJ2V-Mo_l1nkcRfZixfUq4DAE,"Munich, Bavaria, Germany",48.1351253,11.5819805,1,,OK,"locality,political"
790,APPROXIMATE,"Munich, Germany",ChIJ2V-Mo_l1nkcRfZixfUq4DAE,"Munich, Bavaria, Germany",48.1351253,11.5819805,1,,OK,"locality,political"
791,APPROXIMATE,"Munich, Germany",ChIJ2V-Mo_l1nkcRfZixfUq4DAE,"Munich, Bavaria, Germany",48.1351253,11.5819805,1,,OK,"locality,political"
792,APPROXIMATE,"Munich, Germany",ChIJ2V-Mo_l1nkcRfZixfUq4DAE,"Munich, Bavaria, Germany",48.1351253,11.5819805,1,,OK,"locality,political"
793,APPROXIMATE,"Munich, Germany",ChIJ2V-Mo_l1nkcRfZixfUq4DAE,"Munich, Bavaria, Germany",48.1351253,11.5819805,1,,OK,"locality,political"
794,APPROXIMATE,"Munich, Germany",ChIJ2V-Mo_l1nkcRfZixfUq4DAE,"Munich, Bavaria, Germany",48.1351253,11.5819805,1,,OK,"locality,political"
795,,,,"Gyeongkee, Suwon, Busan, S Korea",,,0,,ZERO_RESULTS,
796,APPROXIMATE,"Busan, South Korea",ChIJNc0j6G3raDURpwhxJHTL2DU,"Busan (Pusan), S Korea",35.1795543,129.0756416,1,,OK,"locality,political"
797,APPROXIMATE,"Busan, South Korea",ChIJNc0j6G3raDURpwhxJHTL2DU,"Busan (Pusan), S Korea",35.1795543,129.0756416,1,,OK,"locality,political"
798,APPROXIMATE,"Busan, South Korea",ChIJNc0j6G3raDURpwhxJHTL2DU,"Busan (Pusan), S Korea",35.1795543,129.0756416,1,,OK,"locality,political"
799,APPROXIMATE,"Busan, South Korea",ChIJNc0j6G3raDURpwhxJHTL2DU,"Busan (Pusan), S Korea",35.1795543,129.0756416,1,,OK,"locality,political"
800,ROOFTOP,"1350 Spring St NW #1, Atlanta, GA 30309, USA",ChIJz4_nc1oE9YgRxihstPqFSoM,,33.791638,-84.389488,1,30309,OK,"bar,establishment,food,point_of_interest,restaurant"
801,APPROXIMATE,"London, UK",ChIJdd4hrwug2EcRmSrV3Vo6llI,"London, England",51.5073509,-0.1277583,1,,OK,"locality,political"
802,APPROXIMATE,"Jackson, WY, USA",ChIJS3_P_FgaU1MRXIM6scsBHD0,"Jackson, Wyoming",43.4799291,-110.7624282,1,,OK,"locality,political"
803,APPROXIMATE,"Jackson, WY, USA",ChIJS3_P_FgaU1MRXIM6scsBHD0,"Jackson, Wyoming",43.4799291,-110.7624282,1,,OK,"locality,political"
804,APPROXIMATE,"Jackson, WY, USA",ChIJS3_P_FgaU1MRXIM6scsBHD0,"Jackson, Wyoming",43.4799291,-110.7624282,1,,OK,"locality,political"
805,APPROXIMATE,"Redmond, WA, USA",ChIJI-4AIK0MkFQR8gTYxeqQA14,"Redmond, Washington",47.6739881,-122.121512,1,,OK,"locality,political"
806,APPROXIMATE,"Bellingham, WA, USA",ChIJF4dF8i6WhVQR8OA5zamcetU,"Bellingham, Washington",48.7519112,-122.4786854,1,,OK,"locality,political"
807,APPROXIMATE,"Bellingham, WA, USA",ChIJF4dF8i6WhVQR8OA5zamcetU,"Bellingham, Washington",48.7519112,-122.4786854,1,,OK,"locality,political"
808,APPROXIMATE,"Sacramento, CA, USA",ChIJ-ZeDsnLGmoAR238ZdKpqH5I,"Sacramento, California",38.5815719,-121.4943996,1,,OK,"locality,political"
809,APPROXIMATE,"Bellingham, WA, USA",ChIJF4dF8i6WhVQR8OA5zamcetU,"Bellingham, Washington",48.7519112,-122.4786854,1,,OK,"locality,political"
810,APPROXIMATE,"Bellingham, WA, USA",ChIJF4dF8i6WhVQR8OA5zamcetU,"Bellingham, Washington",48.7519112,-122.4786854,1,,OK,"locality,political"
811,APPROXIMATE,"Salt Lake City, UT, USA",ChIJ7THRiJQ9UocRyjFNSKC3U1s,"Salt Lake City, Utah",40.7607793,-111.8910474,1,,OK,"locality,political"
812,APPROXIMATE,"Tokyo, Japan",ChIJ51cu8IcbXWARiRtXIothAS4,"Tokyo, Japan",35.6894875,139.6917064,1,,OK,"administrative_area_level_1,locality,political"
813,APPROXIMATE,"Sakai, Osaka Prefecture, Japan",ChIJW2vFrmfaAGARIKSY9p7Ut74,"Sakai, Osaka, Japan",34.573262,135.482998,1,,OK,"locality,political"
814,APPROXIMATE,"Tokorozawa, Saitama Prefecture, Japan",ChIJaTJokMHdGGARJNB1gP1jUl0,"Tokorozawa, Saitama, Japan",35.7996715,139.4686101,1,,OK,"locality,political"
815,APPROXIMATE,"Tokyo, Japan",ChIJ51cu8IcbXWARiRtXIothAS4,"Tokyo, Japan",35.6894875,139.6917064,1,,OK,"administrative_area_level_1,locality,political"
816,APPROXIMATE,"Munich, Germany",ChIJ2V-Mo_l1nkcRfZixfUq4DAE,"Munich, Bavaria, Germany",48.1351253,11.5819805,1,,OK,"locality,political"
817,APPROXIMATE,"Lermoos, 6631 Lermoos, Austria",ChIJzerzZGL7nEcRiEop0s8Jo4M,"Lermoos, Tirol, Austria",47.4017,10.88131,1,6631,OK,"administrative_area_level_3,political"
818,APPROXIMATE,"Ehrwald, Austria",ChIJ6fjUdkr9nEcRlhGvdjMIHl4,"Ehrwald, Tirol, Austria",47.3998805,10.9183231,1,,OK,"locality,political"
819,APPROXIMATE,"Bregenz, Austria",ChIJ74JpDmINm0cRJP8wNZmnar8,"Bregenz, Vorarlberg, Austria",47.50075,9.74231,1,,OK,"locality,political"
820,APPROXIMATE,"82467 Garmisch-Partenkirchen, Germany",ChIJKTOKk2ABnUcRgJyL161IHgQ,"Garmisch-Partenkirchen, Bavaria, Germany",47.4916945,11.0954984,1,82467,OK,"locality,political"
821,APPROXIMATE,"Ehrwald, Austria",ChIJ6fjUdkr9nEcRlhGvdjMIHl4,"Ehrwald, Tirol, Austria",47.3998805,10.9183231,1,,OK,"locality,political"
822,,,,"Korolev (Kaliningrad), Russia",,,0,,ZERO_RESULTS,
823,APPROXIMATE,"Saratov, Saratov Oblast, Russia",ChIJQbybBQnHFEER9jWQQ1ZRaBw,"Saratov, Russia",51.5923654,45.9608031,1,,OK,"locality,political"
824,APPROXIMATE,"St Petersburg, Russia",ChIJ7WVKx4w3lkYR_46Eqz9nx20,"St. Petersburg (Leningrad), Russia",59.9342802,30.3350986,1,,OK,"locality,political"
825,APPROXIMATE,"St Petersburg, Russia",ChIJ7WVKx4w3lkYR_46Eqz9nx20,"St. Petersburg (Leningrad), Russia",59.9342802,30.3350986,1,,OK,"locality,political"
826,APPROXIMATE,"Tokyo, Japan",ChIJ51cu8IcbXWARiRtXIothAS4,"Tokyo, Japan",35.6894875,139.6917064,1,,OK,"administrative_area_level_1,locality,political"
827,APPROXIMATE,"Sakai, Osaka Prefecture, Japan",ChIJW2vFrmfaAGARIKSY9p7Ut74,"Sakai, Osaka, Japan",34.573262,135.482998,1,,OK,"locality,political"
828,APPROXIMATE,"Daejeon, South Korea",ChIJAWZKutdIZTURtdOKmJ3WltE,"Daejeon (Taejon), S Korea",36.3504119,127.3845475,1,,OK,"locality,political"
829,,,,"Chungnam, Jeollabuk, S Korea",,,0,,ZERO_RESULTS,
830,,,,"Puyo, Chungcheongnam, S Korea",,,0,,ZERO_RESULTS,
831,APPROXIMATE,"Daejeon, South Korea",ChIJAWZKutdIZTURtdOKmJ3WltE,"Daejeon (Taejon), S Korea",36.3504119,127.3845475,1,,OK,"locality,political"
832,APPROXIMATE,"Daejeon, South Korea",ChIJAWZKutdIZTURtdOKmJ3WltE,"Daejeon (Taejon), S Korea",36.3504119,127.3845475,1,,OK,"locality,political"
833,APPROXIMATE,"Daejeon, South Korea",ChIJAWZKutdIZTURtdOKmJ3WltE,"Daejeon (Taejon), S Korea",36.3504119,127.3845475,1,,OK,"locality,political"
834,APPROXIMATE,"Daejeon, South Korea",ChIJAWZKutdIZTURtdOKmJ3WltE,"Daejeon (Taejon), S Korea",36.3504119,127.3845475,1,,OK,"locality,political"
835,APPROXIMATE,"Daejeon, South Korea",ChIJAWZKutdIZTURtdOKmJ3WltE,"Daejeon (Taejon), S Korea",36.3504119,127.3845475,1,,OK,"locality,political"
836,APPROXIMATE,"Daejeon, South Korea",ChIJAWZKutdIZTURtdOKmJ3WltE,"Daejeon (Taejon), S Korea",36.3504119,127.3845475,1,,OK,"locality,political"
837,APPROXIMATE,"Daejeon, South Korea",ChIJAWZKutdIZTURtdOKmJ3WltE,"Daejeon (Taejon), S Korea",36.3504119,127.3845475,1,,OK,"locality,political"
838,APPROXIMATE,"3925 Grächen, Switzerland",ChIJYeGjUpJAj0cRPCrt_j45oYM,"Graechen, Valais, Switzerland",46.1965853,7.8397911,1,3925,OK,"locality,political"
839,APPROXIMATE,"3920 Zermatt, Switzerland",ChIJzeUuKaI1j0cRcG8ZQIj_AAQ,"Zermatt, Valais, Switzerland",46.0207133,7.749117,1,3920,OK,"locality,political"
840,APPROXIMATE,"3929 Täsch, Switzerland",ChIJB4c1bNNJj0cRJUEv9GUGvA4,"Taesch, Valais, Switzerland",46.0679692,7.7759045,1,3929,OK,"locality,political"
841,APPROXIMATE,"3920 Zermatt, Switzerland",ChIJzeUuKaI1j0cRcG8ZQIj_AAQ,"Zermatt, Valais, Switzerland",46.0207133,7.749117,1,3920,OK,"locality,political"
842,APPROXIMATE,"3920 Zermatt, Switzerland",ChIJzeUuKaI1j0cRcG8ZQIj_AAQ,"Zermatt, Valais, Switzerland",46.0207133,7.749117,1,3920,OK,"locality,political"
843,APPROXIMATE,"3920 Zermatt, Switzerland",ChIJzeUuKaI1j0cRcG8ZQIj_AAQ,"Zermatt, Valais, Switzerland",46.0207133,7.749117,1,3920,OK,"locality,political"
844,APPROXIMATE,"3920 Zermatt, Switzerland",ChIJzeUuKaI1j0cRcG8ZQIj_AAQ,"Zermatt, Valais, Switzerland",46.0207133,7.749117,1,3920,OK,"locality,political"
845,APPROXIMATE,"3920 Zermatt, Switzerland",ChIJzeUuKaI1j0cRcG8ZQIj_AAQ,"Zermatt, Valais, Switzerland",46.0207133,7.749117,1,3920,OK,"locality,political"
846,APPROXIMATE,"3920 Zermatt, Switzerland",ChIJzeUuKaI1j0cRcG8ZQIj_AAQ,"Zermatt, Valais, Switzerland",46.0207133,7.749117,1,3920,OK,"locality,political"
847,APPROXIMATE,"3920 Zermatt, Switzerland",ChIJzeUuKaI1j0cRcG8ZQIj_AAQ,"Zermatt, Valais, Switzerland",46.0207133,7.749117,1,3920,OK,"locality,political"
848,APPROXIMATE,"3920 Zermatt, Switzerland",ChIJzeUuKaI1j0cRcG8ZQIj_AAQ,"Zermatt, Valais, Switzerland",46.0207133,7.749117,1,3920,OK,"locality,political"
849,APPROXIMATE,"3920 Zermatt, Switzerland",ChIJzeUuKaI1j0cRcG8ZQIj_AAQ,"Zermatt, Valais, Switzerland",46.0207133,7.749117,1,3920,OK,"locality,political"
850,APPROXIMATE,"3920 Zermatt, Switzerland",ChIJzeUuKaI1j0cRcG8ZQIj_AAQ,"Zermatt, Valais, Switzerland",46.0207133,7.749117,1,3920,OK,"locality,political"
851,APPROXIMATE,"3920 Zermatt, Switzerland",ChIJzeUuKaI1j0cRcG8ZQIj_AAQ,"Zermatt, Valais, Switzerland",46.0207133,7.749117,1,3920,OK,"locality,political"
852,APPROXIMATE,"Tokyo, Japan",ChIJ51cu8IcbXWARiRtXIothAS4,"Tokyo, Japan",35.6894875,139.6917064,1,,OK,"administrative_area_level_1,locality,political"
853,APPROXIMATE,"Tokyo, Japan",ChIJ51cu8IcbXWARiRtXIothAS4,"Tokyo, Japan",35.6894875,139.6917064,1,,OK,"administrative_area_level_1,locality,political"
854,APPROXIMATE,"Toride, Ibaraki Prefecture, Japan",ChIJucSdjRl3ImARJ2TfiLg-ECw,"Toride, Ibaraki, Japan",35.9114415,140.0504684,1,,OK,"locality,political"
855,APPROXIMATE,"Hamura, Tokyo, Japan",ChIJsdde5QYhGWARK2rnECJfzTw,"Hamura, Tokyo, Japan",35.7672215,139.3109437,1,,OK,"locality,political"
856,APPROXIMATE,"Tokyo, Japan",ChIJ51cu8IcbXWARiRtXIothAS4,"Tokyo, Japan",35.6894875,139.6917064,1,,OK,"administrative_area_level_1,locality,political"
857,APPROXIMATE,"Tokyo, Japan",ChIJ51cu8IcbXWARiRtXIothAS4,"Tokyo, Japan",35.6894875,139.6917064,1,,OK,"administrative_area_level_1,locality,political"
858,APPROXIMATE,"Hachioji, Tokyo, Japan",ChIJN_Qpt7keGWARYhxOnVQO2Cc,"Hachioji, Tokyo, Japan",35.6663394,139.3158056,1,,OK,"locality,political"
859,APPROXIMATE,"Tokyo, Japan",ChIJ51cu8IcbXWARiRtXIothAS4,"Tokyo, Japan",35.6894875,139.6917064,1,,OK,"administrative_area_level_1,locality,political"
860,APPROXIMATE,"Tokyo, Japan",ChIJ51cu8IcbXWARiRtXIothAS4,"Tokyo, Japan",35.6894875,139.6917064,1,,OK,"administrative_area_level_1,locality,political"
861,APPROXIMATE,"Tahoe City, CA, USA",ChIJIacfzy7Wm4AR0Z5sgTCymCo,"Tahoe City, California",39.1677134,-120.1451812,1,,OK,"locality,political"
862,APPROXIMATE,"Boulder, CO, USA",ChIJ06-NJ06Na4cRWIAboHw7Ocg,"Boulder, Colorado",40.0149856,-105.2705456,1,,OK,"locality,political"
863,APPROXIMATE,"Alingsås, Sweden",ChIJN9yCX7RNRUYRwJEOKXiQAQQ,"Alingsas, Sweden",57.9300205,12.5362113,1,,OK,"locality,political"
864,APPROXIMATE,"Poole, UK",ChIJzc5CjbWgc0gRp1gZaZSi0bA,"Poole, Dorset, England",50.71505,-1.987248,1,,OK,"locality,political"
865,APPROXIMATE,"Atlanta, GA, USA",ChIJjQmTaV0E9YgRC2MLmS_e_mY,"Atlanta, Georgia",33.7489954,-84.3879824,1,,OK,"locality,political"
866,APPROXIMATE,"Atlanta, GA, USA",ChIJjQmTaV0E9YgRC2MLmS_e_mY,"Atlanta, Georgia",33.7489954,-84.3879824,1,,OK,"locality,political"
867,APPROXIMATE,"London, UK",ChIJdd4hrwug2EcRmSrV3Vo6llI,"London, England",51.5073509,-0.1277583,1,,OK,"locality,political"
868,APPROXIMATE,Hong Kong,ChIJD5gyo-3iAzQRfMnq27qzivA,Hong Kong,22.396428,114.109497,1,,OK,"country,locality,political"
869,APPROXIMATE,"Ashtead, UK",ChIJL3QU8AfhdUgRnMHFMGi2dqI,"Ashtead, Surrey, England",51.310684,-0.296968,1,,OK,"locality,political"
870,APPROXIMATE,"London, UK",ChIJdd4hrwug2EcRmSrV3Vo6llI,"London, England",51.5073509,-0.1277583,1,,OK,"locality,political"
871,GEOMETRIC_CENTER,"Near, The Great Glen South Laggan Invergarry, Fort William PH18 5UL, UK",ChIJT-_ff1etiEgRg50Img0X9sE,"Fort William, Inverness, Scotland",56.84554,-4.011233,1,PH18 5UL,OK,"establishment,point_of_interest"
872,APPROXIMATE,"Salford, UK",ChIJEVdF_g2ue0gRFtj1WL_-9G0,"Salford, Gtr. Manchester, England",53.4875235,-2.2901264,1,,OK,"locality,political"
873,APPROXIMATE,"Katowice, Poland",ChIJ0cyhNiPOFkcRu_pZBTUqr7k,"Katowice, Poland",50.2648919,19.0237815,1,40,OK,"locality,political"
874,APPROXIMATE,"Didcot OX11, UK",ChIJneQYGg65dkgR4EA6NdzJCY8,"Didcot, Oxford, England",51.608044,-1.24484,1,OX11,OK,"locality,political"
875,APPROXIMATE,"Halstead CO9, UK",ChIJ0w2H_idW2EcRGTGHkEXCM-8,"Halstead, Essex, England",51.945073,0.639032,1,CO9,OK,"locality,political"
876,APPROXIMATE,"Poole, UK",ChIJzc5CjbWgc0gRp1gZaZSi0bA,"Poole, Dorset, England",50.71505,-1.987248,1,,OK,"locality,political"
877,APPROXIMATE,"Edinburgh, UK",ChIJIyaYpQC4h0gRJxfnfHsU8mQ,"Edinburgh, Scotland",55.953252,-3.188267,1,,OK,"locality,political"
878,APPROXIMATE,"57480 Sierck-les-Bains, France",ChIJmzgZZd4VlUcRaz3uaSvveE0,"Sierck-les-Bains, Moselle, France",49.442631,6.361008,1,57480,OK,"locality,political"
879,APPROXIMATE,"Penrith, UK",ChIJSTgLZ5BVfEgRTvtrSibK20U,"Penrith, Cumbria, England",54.664097,-2.752708,1,,OK,"locality,political"
880,APPROXIMATE,"Sapporo, Hokkaido, Japan",ChIJMzaXWnXUCl8R1bqHRp1-kzM,"Sapporo, Hokkaido, Japan",43.0620958,141.3543763,1,,OK,"locality,political"
881,APPROXIMATE,"Sapporo, Hokkaido, Japan",ChIJMzaXWnXUCl8R1bqHRp1-kzM,"Sapporo, Hokkaido, Japan",43.0620958,141.3543763,1,,OK,"locality,political"
882,APPROXIMATE,"Sapporo, Hokkaido, Japan",ChIJMzaXWnXUCl8R1bqHRp1-kzM,"Sapporo, Hokkaido, Japan",43.0620958,141.3543763,1,,OK,"locality,political"
883,APPROXIMATE,"Sapporo, Hokkaido, Japan",ChIJMzaXWnXUCl8R1bqHRp1-kzM,"Sapporo, Hokkaido, Japan",43.0620958,141.3543763,1,,OK,"locality,political"
884,APPROXIMATE,"Urawa Ward, Saitama, Saitama Prefecture, Japan",ChIJuZwasTTAGGARhhpOgPhAgfs,"Urawa, Saitama, Japan",35.8616514,139.645435,1,,OK,"locality,political,ward"
885,GEOMETRIC_CENTER,"73120 Saint-Bon-Tarentaise, France",ChIJE7AILaN4iUcRvHJ0g1Elucw,"Courchevel, Savoie, France",45.414659,6.63469,1,73120,OK,"establishment,point_of_interest,travel_agency"
886,APPROXIMATE,"73710 Pralognan-la-Vanoise, France",ChIJ0cdEvZOciUcRAK665CqrCAQ,"Pralognan-la-Vanoise, Savoie, France",45.382062,6.721232,1,73710,OK,"locality,political"
887,APPROXIMATE,"73710 Pralognan-la-Vanoise, France",ChIJ0cdEvZOciUcRAK665CqrCAQ,"Pralognan-la-Vanoise, Savoie, France",45.382062,6.721232,1,73710,OK,"locality,political"
888,APPROXIMATE,"73710 Pralognan-la-Vanoise, France",ChIJ0cdEvZOciUcRAK665CqrCAQ,"Pralognan-la-Vanoise, Savoie, France",45.382062,6.721232,1,73710,OK,"locality,political"
889,APPROXIMATE,"73710 Pralognan-la-Vanoise, France",ChIJ0cdEvZOciUcRAK665CqrCAQ,"Pralognan-la-Vanoise, Savoie, France",45.382062,6.721232,1,73710,OK,"locality,political"
890,APPROXIMATE,"73710 Pralognan-la-Vanoise, France",ChIJ0cdEvZOciUcRAK665CqrCAQ,"Pralognan-la-Vanoise, Savoie, France",45.382062,6.721232,1,73710,OK,"locality,political"
891,APPROXIMATE,"Lyneham ACT 2602, Australia",ChIJwxO40-5SFmsRwFVpp27qAAU,"Lyneham, ACT, Australia",-35.25,149.129167,1,2602,OK,"locality,political"
892,APPROXIMATE,"Deakin ACT 2600, Australia",ChIJHaDoRSazF2sRMFdpp27qAAU,"Deakin, ACT, Australia",-35.316,149.107,1,2600,OK,"locality,political"
893,APPROXIMATE,"Brookfield QLD 4069, Australia",ChIJd-sfgC5SkWsREILe81qjAgU,"Brookfield, QLD, Australia",-27.4919,152.8979,1,4069,OK,"locality,political"
894,APPROXIMATE,"Canberra ACT 2601, Australia",ChIJIZBcsGlNFmsRYFZpp27qAAU,"Canberra, ACT, Australia",-35.2809368,149.1300092,1,2601,OK,"locality,political"
895,APPROXIMATE,"Glen Waverley VIC 3150, Australia",ChIJy2a9frZr1moRQNuMIXVWBAU,"Glen Waverley, Victoria, Australia",-37.8856521,145.165179,1,3150,OK,"locality,political"
896,APPROXIMATE,"Estes Park, CO 80517, USA",ChIJAxoZu9ZlaYcRDKzKqbeYlts,"Estes Park, Colorado",40.3772059,-105.5216651,1,80517,OK,"locality,political"
897,APPROXIMATE,"Argentière, 74400 Chamonix, France",ChIJn9yry7xMiUcRKy3DvNdKSSc,"Argentiere, Haute-Savoie, France",45.983986,6.926873,1,74400,OK,"political,sublocality,sublocality_level_1"
898,APPROXIMATE,"Argentière, 74400 Chamonix, France",ChIJn9yry7xMiUcRKy3DvNdKSSc,"Argentiere, Haute-Savoie, France",45.983986,6.926873,1,74400,OK,"political,sublocality,sublocality_level_1"
899,APPROXIMATE,"Annecy, France",ChIJyVEFHPqPi0cRujQFYoEWeEI,"Annecy, Haute-Savoie, France",45.899247,6.129384,1,,OK,"locality,political,sublocality,sublocality_level_1"
900,APPROXIMATE,"10066 Torre Pellice, Metropolitan City of Turin, Italy",ChIJ7wBaTRIpiEcRCvy9wHgBJ_Q,"Torre-Pellice, Torino, Italy",44.819588,7.2089893,1,10066,OK,"locality,political"
901,APPROXIMATE,"74400 Chamonix, France",ChIJ5y7-LQZMiUcRgKO65CqrCAQ,"Chamonix, Haute-Savoie, France",45.923697,6.869433,1,74400,OK,"locality,political"
902,APPROXIMATE,"Flaxlanden, France",ChIJ-8MH-YCakUcRgDs5mrlfCgQ,"Flaxlanden, Alsace, France",47.69561,7.314939,1,,OK,"locality,political"
903,APPROXIMATE,"Yamagata, Yamagata Prefecture, Japan",ChIJUW6dSwfKi18R6zG_DU6SsqY,"Yamagata-shi, Yamagata, Japan",38.2554388,140.3396016,1,,OK,"locality,political"
904,APPROXIMATE,"Tsuruoka, Yamagata Prefecture, Japan",ChIJKxWZzi51jF8R15BilRYA6sY,"Tsuruoka, Yamagata, Japan",38.7271972,139.8267307,1,,OK,"locality,political"
905,APPROXIMATE,"Yamagata, Yamagata Prefecture, Japan",ChIJUW6dSwfKi18R6zG_DU6SsqY,"Yamagata-shi, Yamagata, Japan",38.2554388,140.3396016,1,,OK,"locality,political"
906,APPROXIMATE,"Higashine, Yamagata Prefecture, Japan",ChIJWRjYKMHbi18RFNPKPv-xAKo,"Higashine, Yamagata, Japan",38.4313543,140.3910903,1,,OK,"locality,political"
907,APPROXIMATE,"Ketchum, ID, USA",ChIJbYYeLamCqVQRwvWEHG_VZEQ,"Ketchum, Idaho",43.6807402,-114.3636619,1,,OK,"locality,political"
908,APPROXIMATE,"Reno, NV, USA",ChIJnaCSkq5AmYARh_c4dM7FxUA,"Reno, Nevada",39.5296329,-119.8138027,1,,OK,"locality,political"
909,APPROXIMATE,"Long Beach, CA, USA",ChIJWdeZQOjKwoARqo8qxPo6AKE,"Long Beach, California",33.7700504,-118.1937395,1,,OK,"locality,political"
910,APPROXIMATE,"Oakton, VA, USA",ChIJzRGjVEJJtokRWDwXJ0OyJ5g,"Oakton, Virginia",38.8809451,-77.3008172,1,,OK,"locality,political"
911,APPROXIMATE,"Amsterdam, Netherlands",ChIJVXealLU_xkcRja_At0z9AGY,"Amsterdam, Netherlands",52.3702157,4.8951679,1,,OK,"locality,political"
912,APPROXIMATE,"Amstelveen, Netherlands",ChIJL2JPy9DhxUcRqXfKsBMyNVw,"Amstelveen, Netherlands",52.3114207,4.870087,1,,OK,"locality,political"
913,APPROXIMATE,"Amsterdam, Netherlands",ChIJVXealLU_xkcRja_At0z9AGY,"Amsterdam, Netherlands",52.3702157,4.8951679,1,,OK,"locality,political"
914,APPROXIMATE,"Amsterdam, Netherlands",ChIJVXealLU_xkcRja_At0z9AGY,"Amsterdam, Netherlands",52.3702157,4.8951679,1,,OK,"locality,political"
915,APPROXIMATE,"48970 Basauri, Biscay, Spain",ChIJbb7KXvJOTg0RNXmTNfXVoP8,"Basauri, Vizcaya, Spain",43.2353175,-2.8912652,1,48970,OK,"locality,political"
916,APPROXIMATE,"48970 Basauri, Biscay, Spain",ChIJbb7KXvJOTg0RNXmTNfXVoP8,"Basauri, Vizcaya, Spain",43.2353175,-2.8912652,1,48970,OK,"locality,political"
917,APPROXIMATE,"48960 Galdakao, Bizkaia, Spain",ChIJYWQziEtJTg0RUxMjgADQfKY,"Galdakao, Vizcaya, Spain",43.2313783,-2.8447524,1,48960,OK,"locality,political"
918,APPROXIMATE,"48970 Basauri, Biscay, Spain",ChIJbb7KXvJOTg0RNXmTNfXVoP8,"Basauri, Vizcaya, Spain",43.2353175,-2.8912652,1,48970,OK,"locality,political"
919,APPROXIMATE,"48970 Basauri, Biscay, Spain",ChIJbb7KXvJOTg0RNXmTNfXVoP8,"Basauri, Vizcaya, Spain",43.2353175,-2.8912652,1,48970,OK,"locality,political"
920,APPROXIMATE,"39056 Welschnofen, Province of Bolzano - South Tyrol, Italy",ChIJcUQxoTtweEcRkDORFYcJBwQ,"Welschwofen, Bolzano, Italy",46.4243617,11.5529938,1,39056,OK,"administrative_area_level_3,locality,political"
921,APPROXIMATE,"39032 Sand in Taufers, Province of Bolzano - South Tyrol, Italy",ChIJr-0MRQSNd0cRADGRFYcJBwQ,"Sand in Taufers, Bolzano, Italy",46.9486601,12.0646177,1,39032,OK,"administrative_area_level_3,locality,political"
922,APPROXIMATE,"39100 Bolzano, Province of Bolzano - South Tyrol, Italy",ChIJSXCeQSucgkcRKkOLNE9pK2U,"Bolzano, Italy",46.4982953,11.3547582,1,39100,OK,"locality,political"
923,APPROXIMATE,"Zürich, Switzerland",ChIJGaK-SZcLkEcRA9wf5_GNbuY,"Zurich, Switzerland",47.3768866,8.541694,1,,OK,"locality,political"
924,APPROXIMATE,"39030 Rasen-Antholz, Province of Bolzano - South Tyrol, Italy",ChIJ3wwDy1OId0cRYDSRFYcJBwQ,"Rasen Antholz, Balzano, Italy",46.8628828,12.1305401,1,39030,OK,"administrative_area_level_3,locality,political"
925,APPROXIMATE,"Berlin, Germany",ChIJAVkDPzdOqEcRcDteW0YgIQQ,"Berlin, Germany",52.5200066,13.404954,1,,OK,"locality,political"
926,APPROXIMATE,"39018 Terlan, Province of Bolzano - South Tyrol, Italy",ChIJ2U_kIKeZgkcR9NK8fGaixOQ,"Terlano, Bolzano, Italy",46.5384622,11.2421084,1,39018,OK,"administrative_area_level_3,political"
927,APPROXIMATE,"Le Monastère, France",ChIJ4XVgsOJ8shIRgA9DL5z2BgQ,"Le Monastere, Aveyron, France",44.3431659,2.580307,1,,OK,"locality,political"
928,APPROXIMATE,"Le Monastère, France",ChIJ4XVgsOJ8shIRgA9DL5z2BgQ,"La Monastere, Aveyron, France",44.3431659,2.580307,1,,OK,"locality,political"
929,APPROXIMATE,"06110 Le Cannet, France",ChIJAw5cPAkqzBIRXeHBQw7aCq8,"Le Cannet, Alpes-Maritimes, France",43.576551,7.01902,1,06110,OK,"locality,political"
930,APPROXIMATE,"74400 Chamonix, France",ChIJ5y7-LQZMiUcRgKO65CqrCAQ,"Chamonix, Haute-Savoie, France",45.923697,6.869433,1,74400,OK,"locality,political"
931,APPROXIMATE,"93190 Livry-Gargan, France",ChIJJ9K8GuwT5kcRgDuLaMOCCwQ,"Livry-Gargan, Seine-St-Denis, France",48.91923,2.536118,1,93190,OK,"locality,political"
932,APPROXIMATE,"Salt Lake City, UT, USA",ChIJ7THRiJQ9UocRyjFNSKC3U1s,"Salt Lake City, Utah",40.7607793,-111.8910474,1,,OK,"locality,political"
933,APPROXIMATE,"Ophir, CO 81426, USA",ChIJuTPRiiPaPocRLJj6nIcZYgg,"Ophir, Colorado",37.8569392,-107.8325644,1,81426,OK,"locality,political"
934,APPROXIMATE,"Lansing, MI, USA",ChIJN4wxfxzAIogRnp0CiSO2eEM,"Lansing, Michigan",42.732535,-84.5555347,1,,OK,"locality,political"
935,APPROXIMATE,"Telluride, CO 81435, USA",ChIJc_TmcHvYPocR4eO6cSF37jg,"Telluride, Colorado",37.9374939,-107.8122852,1,81435,OK,"locality,political"
936,APPROXIMATE,"Middletown, RI, USA",ChIJ2TYlYDqp5YkRFO67ZqjYjis,"Middletown, Rhode Island",41.5218243,-71.2834538,1,,OK,"locality,political"
937,APPROXIMATE,"Ophir, CO 81426, USA",ChIJuTPRiiPaPocRLJj6nIcZYgg,"Ophir, Colorado",37.8569392,-107.8325644,1,81426,OK,"locality,political"
938,APPROXIMATE,"Durango, CO, USA",ChIJI_yFvaYCPIcRWn6mo4KIK9w,"Durango, Colorado",37.27528,-107.8800667,1,,OK,"locality,political"
939,APPROXIMATE,"6749 Sobrio, Switzerland",ChIJvSYmgVKphUcRMFkZQIj_AAQ,"Sobrio, Ticino, Switzerland",46.3998487,8.901628,1,6749,OK,"locality,political"
940,APPROXIMATE,"Avegno, Switzerland",ChIJ47edhIu3hUcRzZ_fDTBcDX0,"Avegno, Ticino, Switzerland",46.2028357,8.7481907,1,,OK,"locality,political"
941,APPROXIMATE,"6654 Cavigliano, Switzerland",ChIJUWVuhna4hUcRsfXoTiiS7_8,"Cavigliano, Ticino, Switzerland",46.185243,8.7204319,1,6654,OK,"locality,political"
942,APPROXIMATE,"Roveredo, Switzerland",ChIJca1g1PlFhEcROZ2FJ79nR0o,"Roveredo, Grigioni, Switzerland",46.2343502,9.1288093,1,,OK,"locality,political"
943,APPROXIMATE,"6678 Giumaglio, Switzerland",ChIJw9hvTQ-8hUcRGeHyrTeYHlM,"Giumaglio, Ticino, Switzerland",46.273889,8.681944,1,6678,OK,"locality,political"
944,APPROXIMATE,"Bellinzona, Switzerland",ChIJO_dm_spLhEcRFEwEhX2JD_4,"Bellinzona, Ticino, Switzerland",46.1946216,9.0244124,1,,OK,"locality,political"
945,APPROXIMATE,"Tübingen, Germany",ChIJgdDN7dT6mUcRjacz_s6uCKw,"Tuebingen, Baden-Wuerttemberg, Germany",48.5216364,9.0576448,1,,OK,"locality,political"
946,APPROXIMATE,"20024 Garbagnate Milanese, Metropolitan City of Milan, Italy",ChIJie8UR_qUhkcRJQduAkdyQwM,"Garbagmate, Milano, Italy",45.5765932,9.0741624,1,20024,OK,"administrative_area_level_3,political"
947,APPROXIMATE,"Merano, Province of Bolzano - South Tyrol, Italy",ChIJ2xr5zwG8gkcRWaTQdcopgII,"Merano, Bolzano, Italy",46.6712938,11.1525179,1,,OK,"locality,political"
948,APPROXIMATE,"39026 Prad am Stilfser Joch, Province of Bolzano - South Tyrol, Italy",ChIJ42fqFAkfg0cRVMH6hTGoHm8,"Prad, Bolzano, Italy",46.6218409,10.5914004,1,39026,OK,"locality,political"
949,APPROXIMATE,"39029 Stilfs, Bozen, Italy",ChIJk-Aa8c4eg0cRKw9SBVG-pEw,"Stilfs, Bolzano, Italy",46.5978571,10.5444255,1,39029,OK,"locality,political"
950,APPROXIMATE,"39029 Solda BZ, Italy",ChIJDdZ4SXQdg0cRTwFEI5YSv4g,"Sulden, Bolzano, Italy",46.5180911,10.596046,1,39029,OK,"locality,political"
951,APPROXIMATE,"39020 Schluderns, Province of Bolzano - South Tyrol, Italy",ChIJA5gNLeshg0cRGo_CTFoZfCI,"Schluderns, Bolzano, Italy",46.664767,10.5863076,1,39020,OK,"locality,political"
952,APPROXIMATE,"Bühlertal, Germany",ChIJ344hbssgl0cR4EwJjTz9HwQ,"Buehlertal, Baden-Wuerttemberg, Germany",48.6833699,8.191477,1,,OK,"locality,political"
953,APPROXIMATE,"83075 Bad Feilnbach, Germany",ChIJB87ha1ofdkcRjhp8ndIJamo,"Bad Feilnbach, Bavaria, Germany",47.773289,12.0094677,1,83075,OK,"locality,political"
954,APPROXIMATE,"83043 Bad Aibling, Germany",ChIJnwUeEMYddkcREKc3CaQlHQQ,"Bad Aibling, Bavaria, Germany",47.8640182,12.0093171,1,83043,OK,"locality,political"
955,APPROXIMATE,"93077 Bad Abbach, Germany",ChIJ_0wCjjnGn0cRcL43CaQlHQQ,"Bad Abbach, Bavaria, Germany",48.9373377,12.0462593,1,93077,OK,"locality,political"
956,APPROXIMATE,"Munich, Germany",ChIJ2V-Mo_l1nkcRfZixfUq4DAE,"Munich, Bavaria, Germany",48.1351253,11.5819805,1,,OK,"locality,political"
957,APPROXIMATE,"75328 Schömberg, Germany",ChIJV-SFKZNrl0cRWL5iHtuMDzM,"Schoemberg, Baden-Wuerttemberg, Germany",48.787312,8.6454944,1,75328,OK,"locality,political"
958,APPROXIMATE,"Beding 45500, Nepal",ChIJxyo5TV6C6TkRT4GAy5PjFU4,"Beding, Dolakha",27.9030791,86.37632,1,45500,OK,"locality,political"
959,APPROXIMATE,"Khumbu Glacier, Khumjung 56000, Nepal",ChIJH3KzaOWr6TkRHAp3LqlCPHs,"Khumjung, Khumbu",27.9720199,86.8308194,2,56000,OK,"establishment,natural_feature"
960,APPROXIMATE,"Leiderdorp, Netherlands",ChIJ7aDfzEPGxUcRseevtIKUme4,"Leiderdorp, Netherlands",52.1509854,4.5281733,1,,OK,"locality,political"
961,APPROXIMATE,"Wampersdorf, 2485 Wimpassing An Der Leitha, Austria",ChIJ5diOKXJLbEcRMYu4Ao4rY3k,"Wampersdorf, Lower Austria, Austria",47.9219383,16.4274803,1,2485,OK,"political,sublocality,sublocality_level_1"
962,APPROXIMATE,"6290 Mayrhofen, Austria",ChIJbzLYLzjdd0cRDtGuTzM_vt4,"Mayrhofen, Tirol, Austria",47.1691898,11.8651456,1,6290,OK,"locality,political"
963,APPROXIMATE,"Hintertux Glacier, 6294, Austria",ChIJvSSIW07id0cRX_IRXdd_Jgo,"Hintertux, Tirol, Austria",47.0613072,11.6675254,1,6294,OK,"establishment,natural_feature"
964,APPROXIMATE,"Wattens, Austria",ChIJy6Dy8l9knUcRRdvye7nTLBM,"Wattens, Tirol, Austria",47.2947252,11.5899827,1,,OK,"locality,political"
965,APPROXIMATE,"Vienna, Austria",ChIJn8o2UZ4HbUcRRluiUYrlwv0,"Vienna, Austria",48.2081743,16.3738189,1,,OK,"locality,political"
966,APPROXIMATE,"6456 Obergurgl, Austria",ChIJU3-n6XrMgkcRNhaxPz-daQs,"Gurgl, Tirol, Austria",46.8702519,11.0269261,1,6456,OK,"locality,political"
967,APPROXIMATE,"Klagenfurt, Austria",ChIJZX6PMEVzcEcRK41hjN-2fmg,"Klagenfurt, Carinthia, Austria",46.6364598,14.3122246,1,,OK,"locality,political"
968,APPROXIMATE,"6292 Finkenberg, Austria",ChIJt45NmX7dd0cRjzQwpK1_Osc,"Finkenberg, Tirol, Austria",47.1540524,11.8248081,1,6292,OK,"locality,political"
969,APPROXIMATE,"Vienna, Austria",ChIJn8o2UZ4HbUcRRluiUYrlwv0,"Vienna, Austria",48.2081743,16.3738189,1,,OK,"locality,political"
970,APPROXIMATE,"Vancouver, BC, Canada",ChIJs0-pQ_FzhlQRi_OBm-qWkbs,"Vancouver, British Colombia",49.2827291,-123.1207375,1,,OK,"locality,political"
971,APPROXIMATE,"Sutton Poyntz, Weymouth DT3 6RS, UK",ChIJIzG97-JXckgR0alispsM1D8,"Sutton Poyntz, Dorset, England",50.6516566,-2.4177505,1,DT3 6RS,OK,"locality,political"
972,APPROXIMATE,"Brooklyn, NY, USA",ChIJCSF8lBZEwokRhngABHRcdoI,"Brooklyn, New York",40.6781784,-73.9441579,1,,OK,"political,sublocality,sublocality_level_1"
973,APPROXIMATE,"Todd, NC 28684, USA",ChIJb-m-31b_UIgRrnBmjmwSRUk,"Todd, North Carolina",36.3093112,-81.5956937,1,28684,OK,"locality,political"
974,APPROXIMATE,"Todd, NC 28684, USA",ChIJb-m-31b_UIgRrnBmjmwSRUk,"Todd, North Carolina",36.3093112,-81.5956937,1,28684,OK,"locality,political"
975,APPROXIMATE,"North Shields, UK",ChIJ4VnkDRFufkgRAkgbSvII-k4,"North Shields, Tyne and Wear, England",55.010762,-1.449138,1,,OK,"locality,political"
976,APPROXIMATE,"London, UK",ChIJdd4hrwug2EcRmSrV3Vo6llI,"London, England",51.5073509,-0.1277583,1,,OK,"locality,political"
977,APPROXIMATE,"London, UK",ChIJdd4hrwug2EcRmSrV3Vo6llI,"London, England",51.5073509,-0.1277583,1,,OK,"locality,political"
978,APPROXIMATE,"Southampton, UK",ChIJCSkVvleJc0gR8HHaTGpajKc,"Southampton, Hampshire, England",50.9097004,-1.4043509,1,,OK,"locality,political"
979,APPROXIMATE,"Edinburgh, UK",ChIJIyaYpQC4h0gRJxfnfHsU8mQ,"Edinburgh, Scotland",55.953252,-3.188267,1,,OK,"locality,political"
980,APPROXIMATE,"Sebastopol, CA 95472, USA",ChIJb2jjds0khIARCJLGdBHzeys,"Sebastapol, California",38.4021359,-122.8238806,1,95472,OK,"locality,political"
981,APPROXIMATE,"Penrith, UK",ChIJSTgLZ5BVfEgRTvtrSibK20U,"Penrith, Cumbria, England",54.664097,-2.752708,1,,OK,"locality,political"
982,ROOFTOP,"1350 Spring St NW #1, Atlanta, GA 30309, USA",ChIJz4_nc1oE9YgRxihstPqFSoM,,33.791638,-84.389488,1,30309,OK,"bar,establishment,food,point_of_interest,restaurant"
983,APPROXIMATE,"Mollis, Switzerland",ChIJk1p6UC0thUcRYW_1nh2Uj9A,"Mollis, Glarus, Switzerland",47.0940067,9.0754485,1,,OK,"locality,political"
984,APPROXIMATE,"8775 Leuggelbach, Switzerland",ChIJpZARDAcvhUcRdvquV4_o4t8,"Leuggelbach, Glarus, Switzerland",46.966667,9.0499999,1,8775,OK,"locality,political"
985,APPROXIMATE,"Obstalden, Switzerland",ChIJYR6xvoPUmkcRf4pD1SBqFt4,"Obstalden, Glarus, Switzerland",47.1171651,9.1507461,1,,OK,"locality,political"
986,APPROXIMATE,"Denver, CO, USA",ChIJzxcfI6qAa4cR1jaKJ_j0jhE,"Denver, Colorado",39.7392358,-104.990251,1,,OK,"locality,political"
987,APPROXIMATE,"Golden, CO, USA",ChIJ92xohxKYa4cR3FWAIFRGxhQ,"Golden, Colorado",39.755543,-105.2210997,1,,OK,"locality,political"
988,APPROXIMATE,"Denver, CO, USA",ChIJzxcfI6qAa4cR1jaKJ_j0jhE,"Denver, Colorado",39.7392358,-104.990251,1,,OK,"locality,political"
989,APPROXIMATE,"Golden, CO, USA",ChIJ92xohxKYa4cR3FWAIFRGxhQ,"Golden, Colorado",39.755543,-105.2210997,1,,OK,"locality,political"
990,APPROXIMATE,"Denver, CO, USA",ChIJzxcfI6qAa4cR1jaKJ_j0jhE,"Denver, Colorado",39.7392358,-104.990251,1,,OK,"locality,political"
991,APPROXIMATE,"Niwot, CO 80503, USA",ChIJ447K8mP4a4cRys2F5Hpholg,"Niwot, Colorado",40.103874,-105.1708193,1,80503,OK,"locality,political"
992,APPROXIMATE,"Juneau, AK, USA",ChIJjzpqb2zeAFQREfNprlryXgY,"Juneau, Alaska",58.3019444,-134.4197221,1,,OK,"locality,political"
993,APPROXIMATE,"Katowice, Poland",ChIJ0cyhNiPOFkcRu_pZBTUqr7k,"Katowice, Poland",50.2648919,19.0237815,1,40,OK,"locality,political"
994,APPROXIMATE,"Freising, Germany",ChIJ6b6lrd9qnkcRImLl2eOsHQg,"Freising, Bavaria, Germany",48.4028796,11.7411846,1,,OK,"locality,political"
995,APPROXIMATE,"74400 Chamonix, France",ChIJ5y7-LQZMiUcRgKO65CqrCAQ,"Chamonix, Haute-Savoie, France",45.923697,6.869433,1,74400,OK,"locality,political"
996,APPROXIMATE,"Monte Carlo, Monaco-Ville, Monaco",ChIJza3f3ofCzRIRbGhb2W4pFe4,"Monte Carlo, Monaco",43.7400718,7.4266436,1,,OK,"political,sublocality,sublocality_level_1"
997,APPROXIMATE,"74400 Chamonix, France",ChIJ5y7-LQZMiUcRgKO65CqrCAQ,"Chamonix, Haute-Savoie, France",45.923697,6.869433,1,74400,OK,"locality,political"
998,APPROXIMATE,"Flaine, 74300 Arâches-la-Frasse, France",ChIJi58AWzRViUcRmsf8XyfjN80,"Flaine, Haute-Savoie, France",46.0056216,6.6929908,1,74300,OK,"political,sublocality,sublocality_level_1"
999,APPROXIMATE,"Lyon, France",ChIJl4foalHq9EcR8CG75CqrCAQ,"Lyon, Rhone, France",45.764043,4.835659,1,,OK,"locality,political"
